geoid,name,universe,universe_annotation,universe_moe,universe_moe_annotation,white_alone,white_alone_annotation,white_alone_moe,white_alone_moe_annotation,black_alone,black_alone_annotation,black_alone_moe,black_alone_moe_annotation,american_indian_and_alaska_native,american_indian_and_alaska_native_annotation,american_indian_and_alaska_native_moe,american_indian_and_alaska_native_moe_annotation,asian_alone,asian_alone_annotation,asian_alone_moe,asian_alone_moe_annotation,native_hawaiian_and_pacific_islander,native_hawaiian_and_pacific_islander_annotation,native_hawaiian_and_pacific_islander_moe,native_hawaiian_and_pacific_islander_moe_annotation,other_alone,other_alone_annotation,other_alone_moe,other_alone_moe_annotation,two_or_more_races,two_or_more_races_annotation,two_or_more_races_moe,two_or_more_races_moe_annotation,latino_alone,latino_alone_annotation,latino_alone_moe,latino_alone_moe_annotation,american indian area/alaska native area/hawaiian home land,asians_all,asians_all_moe,other_all,other_all_moe
2760,"Penobscot Reservation and Off-Reservation Trust Land, ME",756.0,,102.0,,109.0,,32.0,,0.0,,10.0,,481.0,,80.0,,12.0,,8.0,,18.0,,17.0,,0.0,,10.0,,91.0,,40.0,,45.0,,27.0,,2760,30.0,18.788294228055936,572.0,90.0
2745,"Pechanga Reservation, CA",343.0,,128.0,,45.0,,23.0,,0.0,,12.0,,124.0,,66.0,,23.0,,32.0,,7.0,,9.0,,0.0,,12.0,,55.0,,37.0,,89.0,,53.0,,2745,30.0,33.24154027718932,179.0,76.60939890117922
2775,"Picayune Rancheria and Off-Reservation Trust Land, CA",111.0,,76.0,,3.0,,5.0,,0.0,,12.0,,89.0,,75.0,,0.0,,12.0,,0.0,,12.0,,0.0,,12.0,,10.0,,13.0,,9.0,,9.0,,2775,0.0,12.0,99.0,77.05841939723393
2715,"Pauma and Yuima Reservation, CA",242.0,,87.0,,11.0,,7.0,,0.0,,12.0,,177.0,,75.0,,6.0,,9.0,,0.0,,12.0,,0.0,,12.0,,14.0,,14.0,,34.0,,29.0,,2715,6.0,15.0,191.0,77.23341245859851
2785,"Picuris Pueblo, NM",2216.0,,243.0,,121.0,,28.0,,0.0,,12.0,,317.0,,79.0,,3.0,,3.0,,1.0,,1.0,,3.0,,3.0,,21.0,,12.0,,1750.0,,227.0,,2785,4.0,3.1622776601683795,341.0,79.96249120681522
2810,"Pine Ridge Reservation, SD--NE",19895.0,,163.0,,2183.0,,119.0,,17.0,,19.0,,16242.0,,266.0,,25.0,,16.0,,0.0,,18.0,,0.0,,18.0,,561.0,,228.0,,867.0,,3.0,,2810,25.0,24.08318915758459,16803.0,350.8047890209026
2865,"Poarch Creek Reservation and Off-Reservation Trust Land, AL--FL",356.0,,111.0,,51.0,,27.0,,0.0,,11.0,,272.0,,104.0,,0.0,,11.0,,0.0,,11.0,,0.0,,11.0,,30.0,,26.0,,3.0,,7.0,,2865,0.0,11.0,302.0,107.76363022838457
2890,"Pokagon Reservation and Off-Reservation Trust Land, MI",86.0,,45.0,,46.0,,36.0,,0.0,,10.0,,29.0,,29.0,,0.0,,10.0,,0.0,,10.0,,0.0,,10.0,,5.0,,8.0,,6.0,,13.0,,2890,0.0,10.0,34.0,31.701734968294716
2820,"Pinoleville Rancheria, CA",223.0,,189.0,,19.0,,23.0,,7.0,,21.0,,130.0,,130.0,,0.0,,12.0,,0.0,,12.0,,0.0,,12.0,,15.0,,16.0,,52.0,,52.0,,2820,0.0,12.0,145.0,131.52946437965906
2850,"Pleasant Point Reservation, ME",723.0,,87.0,,90.0,,32.0,,0.0,,10.0,,541.0,,80.0,,2.0,,2.0,,0.0,,10.0,,0.0,,10.0,,74.0,,33.0,,16.0,,16.0,,2850,2.0,10.198039027185569,615.0,87.11486669908874
2835,"Pit River Trust Land, CA",0.0,,12.0,,0.0,,12.0,,0.0,,12.0,,0.0,,12.0,,0.0,,12.0,,0.0,,12.0,,0.0,,12.0,,0.0,,12.0,,0.0,,12.0,,2835,0.0,12.0,0.0,12.0
2900,"Ponca (NE) Trust Land, NE--IA",0.0,,11.0,,0.0,,11.0,,0.0,,11.0,,0.0,,11.0,,0.0,,11.0,,0.0,,11.0,,0.0,,11.0,,0.0,,11.0,,0.0,,11.0,,2900,0.0,11.0,0.0,11.0
2980,"Prairie Band of Potawatomi Nation Reservation, KS",1645.0,,169.0,,677.0,,109.0,,18.0,,23.0,,609.0,,88.0,,8.0,,14.0,,12.0,,10.0,,0.0,,10.0,,154.0,,51.0,,167.0,,61.0,,2980,20.0,17.204650534085253,763.0,102.20078277586722
2990,"Pueblo of Pojoaque and Off-Reservation Trust Land, NM",3356.0,,157.0,,684.0,,38.0,,18.0,,11.0,,350.0,,61.0,,8.0,,6.0,,2.0,,3.0,,8.0,,7.0,,42.0,,15.0,,2244.0,,131.0,,2990,10.0,6.708203932499369,400.0,63.20601237224193
2910,"Port Gamble Reservation and Off-Reservation Trust Land, WA",622.0,,93.0,,73.0,,22.0,,2.0,,3.0,,433.0,,77.0,,1.0,,2.0,,0.0,,12.0,,0.0,,12.0,,69.0,,31.0,,44.0,,23.0,,2910,1.0,12.165525060596439,502.0,83.86894538504703
2985,"Prairie Island Indian Community and Off-Reservation Trust Land, MN",158.0,,59.0,,29.0,,18.0,,0.0,,9.0,,117.0,,54.0,,0.0,,9.0,,0.0,,9.0,,0.0,,9.0,,8.0,,11.0,,4.0,,5.0,,2985,0.0,9.0,125.0,55.839054433254866
2925,"Port Madison Reservation, WA",7846.0,,276.0,,6050.0,,223.0,,23.0,,11.0,,484.0,,113.0,,182.0,,48.0,,20.0,,15.0,,7.0,,6.0,,591.0,,77.0,,489.0,,95.0,,2925,202.0,50.28916384272063,1082.0,136.87220316777254
3030,"Quileute Reservation, WA",451.0,,87.0,,17.0,,9.0,,1.0,,3.0,,379.0,,82.0,,0.0,,12.0,,7.0,,11.0,,0.0,,12.0,,36.0,,25.0,,11.0,,10.0,,3030,7.0,16.278820596099706,415.0,86.56211642514293
3010,"Pyramid Lake Paiute Reservation, NV",1499.0,,145.0,,379.0,,86.0,,14.0,,12.0,,881.0,,125.0,,4.0,,6.0,,24.0,,20.0,,4.0,,6.0,,45.0,,22.0,,148.0,,58.0,,3010,28.0,20.8806130178211,930.0,127.06297651164952
3085,"Red Cliff Reservation and Off-Reservation Trust Land, WI",1282.0,,107.0,,127.0,,39.0,,11.0,,15.0,,1021.0,,83.0,,16.0,,12.0,,0.0,,9.0,,0.0,,9.0,,49.0,,22.0,,58.0,,38.0,,3085,16.0,15.0,1070.0,86.3365507765975
3020,"Quartz Valley Reservation and Off-Reservation Trust Land, CA",198.0,,76.0,,81.0,,31.0,,9.0,,15.0,,54.0,,39.0,,0.0,,12.0,,0.0,,12.0,,0.0,,12.0,,31.0,,32.0,,23.0,,23.0,,3020,0.0,12.0,85.0,51.85556864985669
3000,"Puyallup Reservation and Off-Reservation Trust Land, WA",51407.0,,1100.0,,28858.0,,842.0,,3996.0,,483.0,,1120.0,,296.0,,5891.0,,473.0,,1104.0,,313.0,,65.0,,34.0,,3415.0,,358.0,,6958.0,,717.0,,3000,6995.0,567.1842734068003,4600.0,465.7638886818084
3040,"Quinault Reservation, WA",1153.0,,149.0,,142.0,,37.0,,10.0,,11.0,,838.0,,142.0,,0.0,,12.0,,17.0,,23.0,,0.0,,12.0,,37.0,,19.0,,109.0,,48.0,,3040,17.0,25.942243542145693,875.0,143.76717288727633
3070,"Ramona Village, CA",0.0,,12.0,,0.0,,12.0,,0.0,,12.0,,0.0,,12.0,,0.0,,12.0,,0.0,,12.0,,0.0,,12.0,,0.0,,12.0,,0.0,,12.0,,3070,0.0,12.0,0.0,12.0
3095,"Redding Rancheria, CA",21.0,,23.0,,2.0,,4.0,,0.0,,12.0,,19.0,,22.0,,0.0,,12.0,,0.0,,12.0,,0.0,,12.0,,0.0,,12.0,,0.0,,12.0,,3095,0.0,12.0,19.0,25.059928172283335
3115,"Redwood Valley Rancheria, CA",323.0,,82.0,,119.0,,34.0,,2.0,,6.0,,99.0,,46.0,,0.0,,12.0,,0.0,,12.0,,0.0,,12.0,,55.0,,44.0,,48.0,,31.0,,3115,0.0,12.0,154.0,64.77653896280658
3185,"Roaring Creek Rancheria, CA",21.0,,25.0,,2.0,,3.0,,0.0,,12.0,,14.0,,22.0,,0.0,,12.0,,0.0,,12.0,,0.0,,12.0,,0.0,,12.0,,5.0,,10.0,,3185,0.0,12.0,14.0,25.059928172283335
3165,"Rincon Reservation and Off-Reservation Trust Land, CA",932.0,,166.0,,93.0,,24.0,,0.0,,12.0,,412.0,,99.0,,20.0,,20.0,,2.0,,3.0,,0.0,,12.0,,4.0,,5.0,,401.0,,94.0,,3165,22.0,20.223748416156685,416.0,99.84988733093293
3130,"Reno-Sparks Indian Colony and Off-Reservation Trust Land, NV",1047.0,,161.0,,37.0,,39.0,,7.0,,7.0,,872.0,,149.0,,7.0,,12.0,,10.0,,10.0,,0.0,,12.0,,20.0,,17.0,,94.0,,38.0,,3130,17.0,15.620499351813308,892.0,150.4460036026215
3145,"Resighini Rancheria, CA",14.0,,11.0,,0.0,,12.0,,0.0,,12.0,,11.0,,8.0,,0.0,,12.0,,0.0,,12.0,,0.0,,12.0,,1.0,,3.0,,2.0,,3.0,,3145,0.0,12.0,12.0,14.730919862656235
3100,"Red Lake Reservation, MN",5859.0,,62.0,,109.0,,46.0,,21.0,,25.0,,5428.0,,161.0,,6.0,,9.0,,0.0,,12.0,,0.0,,12.0,,78.0,,64.0,,217.0,,118.0,,3100,6.0,15.0,5506.0,173.66922582887275
3195,"Robinson Rancheria and Off-Reservation Trust Land, CA",366.0,,148.0,,2.0,,6.0,,0.0,,12.0,,274.0,,121.0,,0.0,,12.0,,0.0,,12.0,,0.0,,12.0,,6.0,,9.0,,84.0,,58.0,,3195,0.0,12.0,280.0,121.92620719107111
3265,"Rumsey Indian Rancheria, CA",2.0,,3.0,,0.0,,12.0,,0.0,,12.0,,0.0,,12.0,,0.0,,12.0,,0.0,,12.0,,0.0,,12.0,,2.0,,3.0,,0.0,,12.0,,3265,0.0,12.0,2.0,12.36931687685298
3285,"Sac and Fox Nation Reservation and Off-Reservation Trust Land, NE--KS",141.0,,38.0,,80.0,,24.0,,0.0,,11.0,,38.0,,18.0,,0.0,,11.0,,0.0,,11.0,,0.0,,11.0,,9.0,,12.0,,14.0,,22.0,,3285,0.0,11.0,47.0,24.269322199023193
3280,"Sac and Fox/Meskwaki Settlement and Off-Reservation Trust Land, IA",1058.0,,126.0,,47.0,,21.0,,18.0,,19.0,,837.0,,92.0,,10.0,,12.0,,0.0,,9.0,,0.0,,9.0,,23.0,,14.0,,123.0,,68.0,,3280,10.0,15.0,860.0,93.49331526906082
3205,"Rocky Boy's Reservation and Off-Reservation Trust Land, MT",3634.0,,203.0,,40.0,,16.0,,26.0,,32.0,,3361.0,,198.0,,0.0,,10.0,,0.0,,10.0,,0.0,,10.0,,86.0,,56.0,,121.0,,40.0,,3205,0.0,10.0,3447.0,206.00970850908945
3250,"Round Valley Reservation and Off-Reservation Trust Land, CA",416.0,,109.0,,50.0,,27.0,,2.0,,3.0,,293.0,,93.0,,1.0,,2.0,,2.0,,4.0,,0.0,,12.0,,28.0,,22.0,,40.0,,25.0,,3250,3.0,4.47213595499958,321.0,96.317184344228
3220,"Rohnerville Rancheria, CA",23.0,,12.0,,14.0,,11.0,,0.0,,12.0,,9.0,,7.0,,0.0,,12.0,,0.0,,12.0,,0.0,,12.0,,0.0,,12.0,,0.0,,12.0,,3220,0.0,12.0,9.0,13.892443989449804
3235,"Rosebud Indian Reservation and Off-Reservation Trust Land, SD",11418.0,,177.0,,894.0,,37.0,,18.0,,15.0,,9399.0,,209.0,,154.0,,8.0,,0.0,,15.0,,0.0,,15.0,,484.0,,156.0,,469.0,,28.0,,3235,154.0,17.0,9883.0,261.23169792351007
3305,"Saint Croix Reservation and Off-Reservation Trust Land, WI",636.0,,87.0,,47.0,,20.0,,15.0,,16.0,,514.0,,72.0,,13.0,,10.0,,0.0,,9.0,,5.0,,10.0,,21.0,,16.0,,21.0,,15.0,,3305,13.0,13.45362404707371,540.0,74.43117626371358
3320,"Saint Regis Mohawk Reservation, NY",3302.0,,18.0,,182.0,,158.0,,0.0,,12.0,,2677.0,,328.0,,95.0,,86.0,,59.0,,86.0,,0.0,,12.0,,38.0,,48.0,,251.0,,248.0,,3320,154.0,121.62236636408618,2715.0,331.710717342687
3370,"Sandia Pueblo, NM",5264.0,,371.0,,763.0,,104.0,,13.0,,11.0,,580.0,,111.0,,5.0,,6.0,,3.0,,5.0,,3.0,,4.0,,53.0,,27.0,,3844.0,,303.0,,3370,8.0,7.810249675906654,636.0,114.30660523346846
3355,"San Carlos Reservation, AZ",10443.0,,502.0,,94.0,,48.0,,0.0,,19.0,,9323.0,,411.0,,55.0,,71.0,,0.0,,19.0,,0.0,,19.0,,146.0,,87.0,,825.0,,243.0,,3355,55.0,73.49829930005184,9469.0,420.53656202522984
3340,"Salt River Reservation, AZ",7386.0,,605.0,,1428.0,,201.0,,18.0,,27.0,,4444.0,,614.0,,23.0,,36.0,,26.0,,28.0,,13.0,,21.0,,124.0,,95.0,,1310.0,,382.0,,3340,49.0,45.60701700396552,4581.0,621.6606791490033
3415,"San Ildefonso Pueblo and Off-Reservation Trust Land, NM",1881.0,,149.0,,243.0,,36.0,,11.0,,8.0,,675.0,,106.0,,9.0,,6.0,,0.0,,12.0,,0.0,,12.0,,6.0,,4.0,,937.0,,79.0,,3415,9.0,13.416407864998739,681.0,106.75204916066015
3445,"San Manuel Reservation and Off-Reservation Trust Land, CA",51.0,,33.0,,5.0,,6.0,,0.0,,12.0,,26.0,,22.0,,0.0,,12.0,,0.0,,12.0,,0.0,,12.0,,1.0,,4.0,,19.0,,20.0,,3445,0.0,12.0,27.0,25.37715508089904
3495,"Santa Clara Pueblo and Off-Reservation Trust Land, NM",11693.0,,703.0,,1969.0,,266.0,,85.0,,49.0,,1063.0,,201.0,,115.0,,59.0,,0.0,,19.0,,18.0,,19.0,,107.0,,49.0,,8336.0,,572.0,,3495,115.0,61.98386886924694,1188.0,207.75706967513764
3400,"San Felipe Pueblo, NM",3544.0,,417.0,,311.0,,99.0,,0.0,,12.0,,2597.0,,389.0,,0.0,,12.0,,0.0,,12.0,,30.0,,40.0,,6.0,,6.0,,600.0,,153.0,,3400,0.0,12.0,2633.0,391.09717462543756
3480,"Santa Ana Pueblo, NM",695.0,,102.0,,1.0,,2.0,,0.0,,12.0,,631.0,,102.0,,1.0,,3.0,,4.0,,9.0,,0.0,,12.0,,0.0,,12.0,,58.0,,29.0,,3480,5.0,9.486832980505138,631.0,102.70345661174214
3460,"San Pasqual Reservation, CA",843.0,,157.0,,147.0,,54.0,,6.0,,7.0,,318.0,,101.0,,3.0,,4.0,,2.0,,3.0,,0.0,,12.0,,29.0,,19.0,,338.0,,81.0,,3460,5.0,5.0,347.0,103.46980235798269
3520,"Santa Rosa Rancheria, CA",940.0,,189.0,,20.0,,20.0,,4.0,,7.0,,436.0,,121.0,,12.0,,20.0,,0.0,,12.0,,0.0,,12.0,,24.0,,28.0,,444.0,,152.0,,3520,12.0,23.323807579381203,460.0,124.77579893553076
3550,"Santa Ysabel Reservation, CA",198.0,,53.0,,13.0,,8.0,,0.0,,12.0,,172.0,,51.0,,3.0,,5.0,,0.0,,12.0,,0.0,,12.0,,1.0,,4.0,,9.0,,11.0,,3550,3.0,13.0,173.0,52.54521862167861
3585,"Santo Domingo Pueblo, NM",3192.0,,341.0,,25.0,,18.0,,4.0,,5.0,,2853.0,,329.0,,0.0,,12.0,,0.0,,12.0,,0.0,,12.0,,0.0,,12.0,,310.0,,112.0,,3585,0.0,12.0,2853.0,329.21877224727024
3540,"Santa Ynez Reservation, CA",263.0,,137.0,,27.0,,15.0,,1.0,,3.0,,129.0,,82.0,,4.0,,6.0,,0.0,,12.0,,0.0,,12.0,,9.0,,9.0,,93.0,,63.0,,3540,4.0,13.416407864998739,138.0,83.3606621854697
3565,"Santee Reservation, NE",1019.0,,72.0,,227.0,,33.0,,2.0,,4.0,,644.0,,60.0,,8.0,,7.0,,0.0,,9.0,,0.0,,9.0,,31.0,,21.0,,107.0,,33.0,,3565,8.0,11.40175425099138,675.0,64.20280367709809
3525,"Santa Rosa Reservation, CA",73.0,,26.0,,4.0,,5.0,,9.0,,10.0,,55.0,,28.0,,0.0,,12.0,,0.0,,12.0,,0.0,,12.0,,1.0,,3.0,,4.0,,7.0,,3525,0.0,12.0,56.0,30.610455730027933
3635,"Sault Sainte Marie Reservation and Off-Reservation Trust Land, MI",2180.0,,387.0,,671.0,,155.0,,51.0,,84.0,,1107.0,,206.0,,22.0,,22.0,,0.0,,10.0,,0.0,,10.0,,298.0,,109.0,,31.0,,26.0,,3635,22.0,24.166091947189145,1405.0,233.2745163964551
3665,"Seminole (FL) Trust Land, FL",0.0,,13.0,,0.0,,13.0,,0.0,,13.0,,0.0,,13.0,,0.0,,13.0,,0.0,,13.0,,0.0,,13.0,,0.0,,13.0,,0.0,,13.0,,3665,0.0,13.0,0.0,13.0
3680,"Shakopee Mdewakanton Sioux Community and Off-Reservation Trust Land, MN",954.0,,172.0,,257.0,,56.0,,4.0,,3.0,,476.0,,122.0,,14.0,,19.0,,0.0,,9.0,,0.0,,9.0,,171.0,,72.0,,32.0,,24.0,,3680,14.0,21.02379604162864,647.0,141.94717327231282
3625,"Sauk-Suiattle Reservation, WA",63.0,,31.0,,5.0,,6.0,,0.0,,12.0,,51.0,,25.0,,0.0,,12.0,,0.0,,12.0,,0.0,,12.0,,7.0,,8.0,,0.0,,12.0,,3625,0.0,12.0,58.0,28.861739379323623
3735,"Sherwood Valley Rancheria and Off-Reservation Trust Land, CA",107.0,,76.0,,7.0,,9.0,,0.0,,12.0,,78.0,,63.0,,0.0,,12.0,,0.0,,12.0,,0.0,,12.0,,5.0,,7.0,,17.0,,21.0,,3735,0.0,12.0,83.0,64.51356446515724
3750,"Shingle Springs Rancheria and Off-Reservation Trust Land, CA",140.0,,86.0,,21.0,,20.0,,3.0,,5.0,,63.0,,63.0,,0.0,,12.0,,0.0,,12.0,,0.0,,12.0,,6.0,,6.0,,47.0,,33.0,,3750,0.0,12.0,69.0,64.41273166075166
3795,"Siletz Reservation and Off-Reservation Trust Land, OR",675.0,,159.0,,67.0,,29.0,,3.0,,6.0,,356.0,,91.0,,0.0,,12.0,,0.0,,12.0,,0.0,,12.0,,157.0,,72.0,,92.0,,46.0,,3795,0.0,12.0,513.0,116.6576186967658
3780,"Shoalwater Bay Indian Reservation and Off-Reservation Trust Land, WA",78.0,,47.0,,20.0,,12.0,,0.0,,12.0,,45.0,,32.0,,0.0,,12.0,,0.0,,12.0,,0.0,,12.0,,13.0,,19.0,,0.0,,12.0,,3780,0.0,12.0,58.0,39.102429592034305
3885,"Sokaogon Chippewa Community, WI",461.0,,76.0,,49.0,,16.0,,0.0,,9.0,,388.0,,69.0,,0.0,,9.0,,0.0,,9.0,,0.0,,9.0,,16.0,,17.0,,8.0,,11.0,,3885,0.0,9.0,404.0,71.63099887618489
3860,"Snoqualmie Reservation, WA",0.0,,12.0,,0.0,,12.0,,0.0,,12.0,,0.0,,12.0,,0.0,,12.0,,0.0,,12.0,,0.0,,12.0,,0.0,,12.0,,0.0,,12.0,,3860,0.0,12.0,0.0,12.0
3855,"Smith River Reservation and Off-Reservation Trust Land, CA",129.0,,81.0,,23.0,,21.0,,0.0,,12.0,,85.0,,62.0,,0.0,,12.0,,0.0,,12.0,,0.0,,12.0,,16.0,,19.0,,5.0,,8.0,,3855,0.0,12.0,101.0,65.94694837519019
3870,"Soboba Reservation and Off-Reservation Trust Land, CA",417.0,,106.0,,25.0,,19.0,,2.0,,3.0,,265.0,,69.0,,6.0,,8.0,,0.0,,12.0,,0.0,,12.0,,22.0,,23.0,,97.0,,47.0,,3870,6.0,14.422205101855956,287.0,73.71566997592845
3825,"Skokomish Reservation, WA",761.0,,135.0,,194.0,,36.0,,4.0,,5.0,,451.0,,109.0,,1.0,,3.0,,8.0,,11.0,,0.0,,12.0,,79.0,,39.0,,24.0,,13.0,,3825,9.0,11.40175425099138,530.0,116.3872845288522
3840,"Skull Valley Reservation, UT",29.0,,30.0,,0.0,,11.0,,0.0,,11.0,,25.0,,29.0,,0.0,,11.0,,0.0,,11.0,,0.0,,11.0,,0.0,,11.0,,4.0,,7.0,,3840,0.0,11.0,25.0,31.016124838541646
3940,"Spokane Reservation and Off-Reservation Trust Land, WA",2187.0,,234.0,,316.0,,70.0,,6.0,,9.0,,1597.0,,196.0,,3.0,,4.0,,7.0,,8.0,,0.0,,12.0,,137.0,,48.0,,121.0,,72.0,,3940,10.0,8.94427190999916,1734.0,202.14846029589245
3985,"Stewarts Point Rancheria and Off-Reservation Trust Land, CA",91.0,,48.0,,4.0,,5.0,,0.0,,12.0,,80.0,,47.0,,0.0,,12.0,,0.0,,12.0,,0.0,,12.0,,0.0,,12.0,,7.0,,10.0,,3985,0.0,12.0,80.0,48.507731342539614
3980,"Stewart Community, NV",122.0,,56.0,,8.0,,7.0,,0.0,,12.0,,87.0,,48.0,,0.0,,12.0,,0.0,,12.0,,0.0,,12.0,,12.0,,15.0,,15.0,,11.0,,3980,0.0,12.0,99.0,51.70106381884226
3955,"Squaxin Island Reservation and Off-Reservation Trust Land, WA",524.0,,155.0,,90.0,,34.0,,6.0,,8.0,,200.0,,69.0,,0.0,,12.0,,16.0,,22.0,,0.0,,12.0,,137.0,,54.0,,75.0,,45.0,,3955,16.0,25.059928172283335,337.0,88.43641783790206
3925,"Southern Ute Reservation, CO",13379.0,,582.0,,9085.0,,388.0,,78.0,,50.0,,1234.0,,302.0,,154.0,,65.0,,8.0,,8.0,,19.0,,21.0,,291.0,,95.0,,2510.0,,380.0,,3925,162.0,65.49045732013177,1544.0,317.2853605195172
3970,"Standing Rock Reservation, SD--ND",8618.0,,21.0,,1796.0,,17.0,,25.0,,13.0,,6434.0,,46.0,,1.0,,3.0,,2.0,,2.0,,5.0,,7.0,,152.0,,42.0,,203.0,,11.0,,3970,3.0,3.605551275463989,6591.0,62.68173577685928
3930,"South Fork Reservation and Off-Reservation Trust Land, NV",57.0,,24.0,,9.0,,6.0,,1.0,,2.0,,43.0,,23.0,,0.0,,12.0,,2.0,,4.0,,0.0,,12.0,,0.0,,12.0,,2.0,,3.0,,3930,2.0,12.649110640673518,43.0,25.942243542145693
3935,"Spirit Lake Reservation, ND",4455.0,,99.0,,596.0,,67.0,,0.0,,9.0,,3713.0,,82.0,,5.0,,6.0,,0.0,,9.0,,0.0,,9.0,,98.0,,37.0,,43.0,,20.0,,3935,5.0,10.816653826391969,3811.0,90.41017641836565
4030,"Sulphur Bank Rancheria, CA",46.0,,62.0,,4.0,,5.0,,0.0,,12.0,,42.0,,61.0,,0.0,,12.0,,0.0,,12.0,,0.0,,12.0,,0.0,,12.0,,0.0,,12.0,,4030,0.0,12.0,42.0,62.16912416947821
4000,"Stillaguamish Reservation and Off-Reservation Trust Land, WA",11.0,,15.0,,11.0,,15.0,,0.0,,12.0,,0.0,,12.0,,0.0,,12.0,,0.0,,12.0,,0.0,,12.0,,0.0,,12.0,,0.0,,12.0,,4000,0.0,12.0,0.0,12.0
4060,"Susanville Indian Rancheria and Off-Reservation Trust Land, CA",577.0,,139.0,,219.0,,105.0,,9.0,,20.0,,302.0,,79.0,,0.0,,12.0,,14.0,,20.0,,0.0,,12.0,,19.0,,17.0,,14.0,,16.0,,4060,14.0,23.323807579381203,321.0,81.69455306200041
4095,"Table Bluff Reservation, CA",161.0,,94.0,,14.0,,14.0,,0.0,,12.0,,75.0,,51.0,,11.0,,21.0,,0.0,,12.0,,1.0,,3.0,,12.0,,13.0,,48.0,,53.0,,4095,11.0,24.186773244895647,88.0,52.716221412388805
4015,"Stockbridge Munsee Community and Off-Reservation Trust Land, WI",765.0,,103.0,,84.0,,23.0,,5.0,,6.0,,605.0,,88.0,,0.0,,9.0,,0.0,,9.0,,0.0,,9.0,,63.0,,30.0,,8.0,,10.0,,4015,0.0,9.0,668.0,93.40770846134703
4045,"Summit Lake Reservation and Off-Reservation Trust Land, NV",0.0,,12.0,,0.0,,12.0,,0.0,,12.0,,0.0,,12.0,,0.0,,12.0,,0.0,,12.0,,0.0,,12.0,,0.0,,12.0,,0.0,,12.0,,4045,0.0,12.0,0.0,12.0
4075,"Swinomish Reservation and Off-Reservation Trust Land, WA",2915.0,,133.0,,2142.0,,95.0,,23.0,,23.0,,536.0,,88.0,,21.0,,13.0,,12.0,,15.0,,5.0,,6.0,,92.0,,28.0,,84.0,,26.0,,4075,33.0,19.849433241279208,633.0,92.5418824100742
4090,"Sycuan Reservation and Off-Reservation Trust Land, CA",172.0,,52.0,,27.0,,22.0,,0.0,,12.0,,73.0,,34.0,,5.0,,6.0,,3.0,,5.0,,0.0,,12.0,,29.0,,20.0,,35.0,,28.0,,4090,8.0,7.810249675906654,102.0,41.23105625617661
4180,"Timbi-Sha Shoshone Reservation and Off-Reservation Trust Land, CA--NV",24.0,,10.0,,1.0,,2.0,,0.0,,11.0,,20.0,,10.0,,0.0,,11.0,,0.0,,11.0,,0.0,,11.0,,3.0,,6.0,,0.0,,11.0,,4180,0.0,11.0,23.0,16.0312195418814
4140,"Taos Pueblo and Off-Reservation Trust Land, NM",5129.0,,551.0,,1522.0,,230.0,,40.0,,32.0,,1388.0,,187.0,,0.0,,17.0,,0.0,,17.0,,54.0,,65.0,,100.0,,57.0,,2025.0,,359.0,,4140,0.0,17.0,1542.0,206.0169895906646
4130,"Tampa Reservation, FL",0.0,,13.0,,0.0,,13.0,,0.0,,13.0,,0.0,,13.0,,0.0,,13.0,,0.0,,13.0,,0.0,,13.0,,0.0,,13.0,,0.0,,13.0,,4130,0.0,13.0,0.0,13.0
4170,"Tesuque Pueblo and Off-Reservation Trust Land, NM",921.0,,130.0,,117.0,,27.0,,0.0,,12.0,,406.0,,93.0,,5.0,,6.0,,3.0,,5.0,,0.0,,12.0,,2.0,,3.0,,388.0,,70.0,,4170,8.0,7.810249675906654,408.0,93.81897462667133
4110,"Table Mountain Rancheria, CA",9.0,,14.0,,5.0,,8.0,,0.0,,12.0,,4.0,,6.0,,0.0,,12.0,,0.0,,12.0,,0.0,,12.0,,0.0,,12.0,,0.0,,12.0,,4110,0.0,12.0,4.0,13.416407864998739
4255,"Torres-Martinez Reservation, CA",2511.0,,310.0,,63.0,,33.0,,2.0,,5.0,,120.0,,84.0,,15.0,,12.0,,0.0,,12.0,,2.0,,3.0,,11.0,,12.0,,2298.0,,292.0,,4255,15.0,16.97056274847714,133.0,84.90583018850944
4200,"Tohono O'odham Nation Reservation and Off-Reservation Trust Land, AZ",10761.0,,832.0,,431.0,,87.0,,29.0,,21.0,,9108.0,,854.0,,7.0,,9.0,,29.0,,31.0,,0.0,,19.0,,152.0,,76.0,,1005.0,,263.0,,4200,36.0,32.28002478313795,9260.0,857.585564244175
4290,"Tulalip Reservation and Off-Reservation Trust Land, WA",9997.0,,407.0,,6746.0,,336.0,,111.0,,51.0,,1624.0,,222.0,,188.0,,68.0,,32.0,,39.0,,32.0,,42.0,,623.0,,128.0,,641.0,,123.0,,4290,220.0,78.39005038906404,2279.0,259.6767220988435
4235,"Tonto Apache Reservation and Off-Reservation Trust Land, AZ",140.0,,68.0,,11.0,,9.0,,7.0,,12.0,,104.0,,55.0,,0.0,,12.0,,0.0,,12.0,,0.0,,12.0,,7.0,,7.0,,11.0,,20.0,,4235,0.0,12.0,111.0,56.72741841473134
4225,"Tonawanda Reservation, NY",452.0,,120.0,,40.0,,18.0,,0.0,,12.0,,364.0,,112.0,,30.0,,23.0,,0.0,,12.0,,0.0,,12.0,,9.0,,16.0,,9.0,,10.0,,4225,30.0,25.942243542145693,373.0,113.77170122662314
4275,"Trinidad Rancheria and Off-Reservation Trust Land, CA",170.0,,76.0,,21.0,,16.0,,0.0,,12.0,,104.0,,54.0,,13.0,,25.0,,0.0,,12.0,,0.0,,12.0,,22.0,,16.0,,10.0,,12.0,,4275,13.0,27.730849247724095,126.0,57.584720195551874
4390,"Uintah and Ouray Reservation and Off-Reservation Trust Land, UT",25857.0,,409.0,,20402.0,,345.0,,102.0,,30.0,,2845.0,,254.0,,133.0,,54.0,,54.0,,28.0,,0.0,,21.0,,393.0,,114.0,,1928.0,,111.0,,4390,187.0,60.8276253029822,3238.0,279.20064469839605
4315,"Tunica-Biloxi Reservation and Off-Reservation Trust Land, LA",141.0,,68.0,,35.0,,17.0,,11.0,,10.0,,79.0,,63.0,,0.0,,12.0,,1.0,,2.0,,3.0,,5.0,,3.0,,5.0,,9.0,,13.0,,4315,1.0,12.165525060596439,85.0,63.39558344238185
4330,"Tuolumne Rancheria, CA",196.0,,71.0,,25.0,,17.0,,0.0,,12.0,,92.0,,42.0,,0.0,,12.0,,0.0,,12.0,,0.0,,12.0,,22.0,,16.0,,57.0,,45.0,,4330,0.0,12.0,114.0,46.51881339845203
4360,"Tuscarora Nation Reservation, NY",1078.0,,123.0,,156.0,,49.0,,0.0,,12.0,,750.0,,118.0,,67.0,,52.0,,0.0,,12.0,,28.0,,22.0,,62.0,,25.0,,15.0,,9.0,,4360,67.0,53.36665625650534,840.0,122.60913505934214
4300,"Tule River Reservation and Off-Reservation Trust Land, CA",1227.0,,218.0,,60.0,,27.0,,0.0,,12.0,,736.0,,183.0,,54.0,,53.0,,6.0,,8.0,,1.0,,2.0,,65.0,,29.0,,305.0,,122.0,,4300,60.0,53.600373133029585,802.0,185.29436041067197
4375,"Twenty-Nine Palms Reservation and Off-Reservation Trust Land, CA",7.0,,7.0,,2.0,,3.0,,0.0,,12.0,,3.0,,4.0,,0.0,,12.0,,0.0,,12.0,,0.0,,12.0,,0.0,,12.0,,2.0,,3.0,,4375,0.0,12.0,3.0,12.649110640673518
4345,"Turtle Mountain Reservation and Off-Reservation Trust Land, MT--ND--SD",9259.0,,214.0,,210.0,,77.0,,61.0,,42.0,,8778.0,,239.0,,16.0,,19.0,,0.0,,16.0,,0.0,,16.0,,134.0,,76.0,,60.0,,42.0,,4345,16.0,24.839484696748443,8912.0,251.30260643296162
4445,"Upper Sioux Community and Off-Reservation Trust Land, MN",132.0,,39.0,,13.0,,9.0,,0.0,,9.0,,97.0,,32.0,,0.0,,9.0,,0.0,,9.0,,0.0,,9.0,,20.0,,19.0,,2.0,,5.0,,4445,0.0,9.0,117.0,38.28837943815329
4405,"Umatilla Reservation and Off-Reservation Trust Land, OR",2937.0,,218.0,,1389.0,,118.0,,5.0,,8.0,,1056.0,,134.0,,72.0,,60.0,,24.0,,21.0,,3.0,,4.0,,210.0,,52.0,,178.0,,51.0,,4405,96.0,63.56886030125127,1269.0,143.79151574414954
4455,"Upper Skagit Reservation and Off-Reservation Trust Land, WA",266.0,,98.0,,14.0,,11.0,,1.0,,2.0,,168.0,,72.0,,0.0,,12.0,,5.0,,8.0,,0.0,,12.0,,53.0,,59.0,,25.0,,23.0,,4455,5.0,14.422205101855956,221.0,93.85627309881849
4430,"Upper Lake Rancheria, CA",105.0,,80.0,,46.0,,40.0,,2.0,,4.0,,52.0,,71.0,,1.0,,4.0,,0.0,,12.0,,0.0,,12.0,,0.0,,12.0,,4.0,,5.0,,4430,1.0,12.649110640673518,52.0,72.00694410957877
4470,"Ute Mountain Reservation and Off-Reservation Trust Land, CO--NM--UT",1544.0,,360.0,,26.0,,17.0,,13.0,,17.0,,1458.0,,348.0,,3.0,,4.0,,4.0,,7.0,,0.0,,11.0,,15.0,,26.0,,25.0,,25.0,,4470,7.0,8.06225774829855,1473.0,349.14323708186015
4560,"Washoe Ranches Trust Land, NV--CA",3096.0,,175.0,,2358.0,,141.0,,45.0,,38.0,,47.0,,31.0,,54.0,,34.0,,2.0,,4.0,,0.0,,11.0,,125.0,,42.0,,465.0,,149.0,,4560,56.0,34.23448553724738,172.0,53.34791467339656
4500,"Viejas Reservation and Off-Reservation Trust Land, CA",459.0,,230.0,,40.0,,18.0,,0.0,,12.0,,205.0,,77.0,,0.0,,12.0,,0.0,,12.0,,0.0,,12.0,,30.0,,20.0,,184.0,,172.0,,4500,0.0,12.0,235.0,80.45495634204272
4580,"Wells Colony, NV",99.0,,48.0,,5.0,,6.0,,0.0,,12.0,,50.0,,32.0,,0.0,,12.0,,0.0,,12.0,,0.0,,12.0,,0.0,,12.0,,44.0,,42.0,,4580,0.0,12.0,50.0,34.17601498127012
4515,"Walker River Reservation, NV",1209.0,,165.0,,94.0,,39.0,,79.0,,71.0,,911.0,,138.0,,0.0,,12.0,,0.0,,12.0,,3.0,,4.0,,9.0,,10.0,,113.0,,51.0,,4515,0.0,12.0,923.0,138.4196517839862
4595,"White Earth Reservation and Off-Reservation Trust Land, MN",9845.0,,165.0,,4353.0,,89.0,,34.0,,16.0,,4216.0,,180.0,,53.0,,16.0,,18.0,,10.0,,1.0,,2.0,,835.0,,91.0,,335.0,,34.0,,4595,71.0,18.867962264113206,5052.0,201.7052304725884
4545,"Warm Springs Reservation and Off-Reservation Trust Land, OR",4296.0,,249.0,,228.0,,64.0,,22.0,,26.0,,3712.0,,245.0,,4.0,,6.0,,8.0,,14.0,,8.0,,11.0,,67.0,,50.0,,247.0,,104.0,,4545,12.0,15.231546211727817,3787.0,250.2918296708864
4530,"Wampanoag-Aquinnah Trust Land, MA",66.0,,44.0,,7.0,,8.0,,0.0,,12.0,,32.0,,30.0,,0.0,,12.0,,0.0,,12.0,,2.0,,4.0,,25.0,,26.0,,0.0,,12.0,,4530,0.0,12.0,59.0,39.89987468652001
4635,"Winnemucca Indian Colony, NV",29.0,,17.0,,3.0,,5.0,,0.0,,12.0,,24.0,,16.0,,0.0,,12.0,,0.0,,12.0,,0.0,,12.0,,0.0,,12.0,,2.0,,4.0,,4635,0.0,12.0,24.0,20.0
4680,"XL Ranch Rancheria, CA",51.0,,35.0,,1.0,,4.0,,0.0,,12.0,,50.0,,33.0,,0.0,,12.0,,0.0,,12.0,,0.0,,12.0,,0.0,,12.0,,0.0,,12.0,,4680,0.0,12.0,50.0,35.11409973215888
4690,"Yakama Nation Reservation and Off-Reservation Trust Land, WA",30810.0,,847.0,,4855.0,,346.0,,74.0,,55.0,,6767.0,,604.0,,509.0,,167.0,,86.0,,70.0,,27.0,,41.0,,633.0,,201.0,,17859.0,,637.0,,4690,595.0,181.077331546497,7427.0,637.8855696753141
4610,"Wind River Reservation and Off-Reservation Trust Land, WY",26855.0,,427.0,,16410.0,,423.0,,161.0,,58.0,,7470.0,,318.0,,35.0,,31.0,,0.0,,22.0,,0.0,,22.0,,516.0,,133.0,,2263.0,,128.0,,4610,35.0,38.01315561749642,7986.0,345.39397794402845
4625,"Winnebago Reservation and Off-Reservation Trust Land, NE--IA",2983.0,,146.0,,871.0,,73.0,,10.0,,13.0,,1844.0,,142.0,,38.0,,11.0,,0.0,,11.0,,0.0,,11.0,,55.0,,30.0,,165.0,,65.0,,4625,38.0,15.556349186104045,1899.0,145.5506784594287
4665,"Woodfords Community, CA",284.0,,73.0,,7.0,,8.0,,0.0,,12.0,,186.0,,59.0,,4.0,,8.0,,0.0,,12.0,,0.0,,12.0,,25.0,,16.0,,62.0,,46.0,,4665,4.0,14.422205101855956,211.0,62.297672508690084
4755,"Ysleta del Sur Pueblo and Off-Reservation Trust Land, TX",1220.0,,234.0,,3.0,,4.0,,0.0,,13.0,,501.0,,138.0,,39.0,,61.0,,0.0,,13.0,,0.0,,13.0,,3.0,,6.0,,674.0,,168.0,,4755,39.0,62.369864518050704,504.0,138.74076545846214
4740,"Yomba Reservation, NV",91.0,,34.0,,6.0,,7.0,,0.0,,12.0,,79.0,,34.0,,0.0,,12.0,,0.0,,12.0,,0.0,,12.0,,0.0,,12.0,,6.0,,8.0,,4740,0.0,12.0,79.0,36.05551275463989
4785,"Zuni Reservation and Off-Reservation Trust Land, NM--AZ",9560.0,,621.0,,111.0,,61.0,,4.0,,9.0,,9213.0,,626.0,,73.0,,57.0,,0.0,,16.0,,0.0,,16.0,,34.0,,42.0,,125.0,,74.0,,4785,73.0,59.20304046246274,9247.0,627.6113447030734
4760,"Yurok Reservation, CA",811.0,,127.0,,358.0,,85.0,,0.0,,12.0,,358.0,,77.0,,0.0,,12.0,,0.0,,12.0,,0.0,,12.0,,58.0,,34.0,,37.0,,32.0,,4760,0.0,12.0,416.0,85.0235261559999
4708,"Yavapai-Apache Nation Reservation, AZ",712.0,,226.0,,17.0,,14.0,,2.0,,4.0,,519.0,,181.0,,0.0,,12.0,,2.0,,6.0,,0.0,,12.0,,22.0,,17.0,,150.0,,80.0,,4708,2.0,13.416407864998739,541.0,182.192206199936
4700,"Yankton Reservation, SD",6829.0,,166.0,,3435.0,,159.0,,7.0,,7.0,,2730.0,,81.0,,13.0,,8.0,,3.0,,5.0,,6.0,,9.0,,324.0,,79.0,,311.0,,2.0,,4700,16.0,9.433981132056603,3060.0,113.50330391667019
4770,"Zia Pueblo and Off-Reservation Trust Land, NM",934.0,,120.0,,2.0,,3.0,,0.0,,12.0,,893.0,,121.0,,0.0,,12.0,,0.0,,12.0,,0.0,,12.0,,0.0,,12.0,,39.0,,25.0,,4770,0.0,12.0,893.0,121.59358535712317
4725,"Yerington Colony, NV",216.0,,115.0,,11.0,,11.0,,0.0,,12.0,,124.0,,78.0,,0.0,,12.0,,0.0,,12.0,,0.0,,12.0,,10.0,,12.0,,71.0,,58.0,,4725,0.0,12.0,134.0,79.82480817390042
4710,"Yavapai-Prescott Reservation, AZ",368.0,,195.0,,101.0,,97.0,,4.0,,6.0,,103.0,,54.0,,0.0,,12.0,,0.0,,12.0,,0.0,,12.0,,9.0,,12.0,,151.0,,126.0,,4710,0.0,12.0,112.0,56.60388679233962
4910,"Kickapoo (KS) Reservation/Sac and Fox Nation Trust Land joint-use area, KS",0.0,,10.0,,0.0,,10.0,,0.0,,10.0,,0.0,,10.0,,0.0,,10.0,,0.0,,10.0,,0.0,,10.0,,0.0,,10.0,,0.0,,10.0,,4910,0.0,10.0,0.0,10.0
4930,"San Felipe Pueblo/Santa Ana Pueblo joint-use area, NM",0.0,,12.0,,0.0,,12.0,,0.0,,12.0,,0.0,,12.0,,0.0,,12.0,,0.0,,12.0,,0.0,,12.0,,0.0,,12.0,,0.0,,12.0,,4930,0.0,12.0,0.0,12.0
4940,"San Felipe Pueblo/Santo Domingo Pueblo joint-use area, NM",0.0,,12.0,,0.0,,12.0,,0.0,,12.0,,0.0,,12.0,,0.0,,12.0,,0.0,,12.0,,0.0,,12.0,,0.0,,12.0,,0.0,,12.0,,4940,0.0,12.0,0.0,12.0
5011,"Hanapepe Hawaiian Home Land, HI",11.0,,8.0,,0.0,,11.0,,0.0,,11.0,,0.0,,11.0,,8.0,,9.0,,0.0,,11.0,,0.0,,11.0,,3.0,,6.0,,0.0,,11.0,,5011,8.0,14.212670403551895,3.0,12.529964086141668
5026,"Honokaia Hawaiian Home Land, HI",0.0,,11.0,,0.0,,11.0,,0.0,,11.0,,0.0,,11.0,,0.0,,11.0,,0.0,,11.0,,0.0,,11.0,,0.0,,11.0,,0.0,,11.0,,5026,0.0,11.0,0.0,11.0
5041,"Kahikinui Hawaiian Home Land, HI",0.0,,11.0,,0.0,,11.0,,0.0,,11.0,,0.0,,11.0,,0.0,,11.0,,0.0,,11.0,,0.0,,11.0,,0.0,,11.0,,0.0,,11.0,,5041,0.0,11.0,0.0,11.0
5046,"Kalamaula Hawaiian Home Land, HI",421.0,,137.0,,7.0,,9.0,,0.0,,11.0,,11.0,,17.0,,15.0,,13.0,,276.0,,121.0,,0.0,,11.0,,71.0,,45.0,,41.0,,26.0,,5046,291.0,121.69634341261039,82.0,49.34571916590131
5051,"Kalaupapa Hawaiian Home Land, HI",75.0,,16.0,,16.0,,6.0,,2.0,,2.0,,2.0,,4.0,,21.0,,15.0,,19.0,,6.0,,0.0,,11.0,,13.0,,7.0,,2.0,,4.0,,5051,40.0,16.15549442140351,15.0,13.638181696985855
5076,"Kapaakea Hawaiian Home Land, HI",184.0,,59.0,,2.0,,3.0,,0.0,,11.0,,0.0,,11.0,,4.0,,6.0,,159.0,,61.0,,0.0,,11.0,,17.0,,14.0,,2.0,,3.0,,5076,163.0,61.29437168288782,17.0,17.804493814764857
5056,"Kamaoa-Puueo Hawaiian Home Land, HI",11.0,,9.0,,3.0,,5.0,,0.0,,11.0,,0.0,,11.0,,0.0,,11.0,,4.0,,7.0,,0.0,,11.0,,4.0,,5.0,,0.0,,11.0,,5056,4.0,13.038404810405298,4.0,12.083045973594572
5066,"Kamoku-Kapulena Hawaiian Home Land, HI",36.0,,17.0,,2.0,,3.0,,0.0,,11.0,,0.0,,11.0,,0.0,,11.0,,16.0,,13.0,,0.0,,11.0,,13.0,,14.0,,5.0,,6.0,,5066,16.0,17.029386365926403,13.0,17.804493814764857
5071,"Kapaa Hawaiian Home Land, HI",0.0,,11.0,,0.0,,11.0,,0.0,,11.0,,0.0,,11.0,,0.0,,11.0,,0.0,,11.0,,0.0,,11.0,,0.0,,11.0,,0.0,,11.0,,5071,0.0,11.0,0.0,11.0
5083,"Kapolei Hawaiian Home Land, HI",0.0,,11.0,,0.0,,11.0,,0.0,,11.0,,0.0,,11.0,,0.0,,11.0,,0.0,,11.0,,0.0,,11.0,,0.0,,11.0,,0.0,,11.0,,5083,0.0,11.0,0.0,11.0
5086,"Kaumana Hawaiian Home Land, HI",134.0,,47.0,,13.0,,11.0,,0.0,,11.0,,0.0,,11.0,,11.0,,9.0,,12.0,,17.0,,0.0,,11.0,,74.0,,36.0,,24.0,,22.0,,5086,23.0,19.235384061671343,74.0,37.64306044943742
5091,"Kawaihae Hawaiian Home Land, HI",587.0,,126.0,,30.0,,14.0,,0.0,,11.0,,0.0,,11.0,,23.0,,17.0,,211.0,,57.0,,0.0,,11.0,,237.0,,72.0,,86.0,,48.0,,5091,234.0,59.481089431852205,237.0,72.83543093852057
5003,"Anahola (Agricultural) Hawaiian Home Land, HI",200.0,,56.0,,26.0,,15.0,,2.0,,3.0,,0.0,,11.0,,12.0,,9.0,,65.0,,25.0,,0.0,,11.0,,87.0,,50.0,,8.0,,9.0,,5003,77.0,26.570660511172846,87.0,51.19570294468082
5004,"Anahola (Residential) Hawaiian Home Land, HI",1670.0,,262.0,,145.0,,46.0,,0.0,,11.0,,0.0,,11.0,,92.0,,40.0,,727.0,,140.0,,1.0,,4.0,,552.0,,128.0,,153.0,,66.0,,5004,819.0,145.60219778561037,553.0,128.53404218338423
5008,"East Kapolei Hawaiian Home Land, HI",0.0,,11.0,,0.0,,11.0,,0.0,,11.0,,0.0,,11.0,,0.0,,11.0,,0.0,,11.0,,0.0,,11.0,,0.0,,11.0,,0.0,,11.0,,5008,0.0,11.0,0.0,11.0
5009,"Haiku Hawaiian Home Land, HI",0.0,,11.0,,0.0,,11.0,,0.0,,11.0,,0.0,,11.0,,0.0,,11.0,,0.0,,11.0,,0.0,,11.0,,0.0,,11.0,,0.0,,11.0,,5009,0.0,11.0,0.0,11.0
5018,"Homuula-Upper Piihonua Hawaiian Home Land, HI",2.0,,4.0,,0.0,,11.0,,0.0,,11.0,,0.0,,11.0,,2.0,,4.0,,0.0,,11.0,,0.0,,11.0,,0.0,,11.0,,0.0,,11.0,,5018,2.0,11.704699910719626,0.0,11.0
5029,"Honokowai Hawaiian Home Land, HI",0.0,,11.0,,0.0,,11.0,,0.0,,11.0,,0.0,,11.0,,0.0,,11.0,,0.0,,11.0,,0.0,,11.0,,0.0,,11.0,,0.0,,11.0,,5029,0.0,11.0,0.0,11.0
5030,"Honolulu Makai Hawaiian Home Land, HI",0.0,,11.0,,0.0,,11.0,,0.0,,11.0,,0.0,,11.0,,0.0,,11.0,,0.0,,11.0,,0.0,,11.0,,0.0,,11.0,,0.0,,11.0,,5030,0.0,11.0,0.0,11.0
5031,"Honomu Hawaiian Home Land, HI",0.0,,11.0,,0.0,,11.0,,0.0,,11.0,,0.0,,11.0,,0.0,,11.0,,0.0,,11.0,,0.0,,11.0,,0.0,,11.0,,0.0,,11.0,,5031,0.0,11.0,0.0,11.0
5033,"Hoolehua-Palaaau Hawaiian Home Land, HI",1191.0,,172.0,,23.0,,15.0,,0.0,,11.0,,8.0,,8.0,,46.0,,19.0,,900.0,,139.0,,0.0,,11.0,,178.0,,67.0,,36.0,,26.0,,5033,946.0,140.29255147726127,186.0,68.36665854054884
5043,"Kakaina-Kumuhau Hawaiian Home Land, HI",165.0,,111.0,,13.0,,19.0,,0.0,,11.0,,0.0,,11.0,,0.0,,11.0,,51.0,,84.0,,0.0,,11.0,,101.0,,70.0,,0.0,,11.0,,5043,51.0,84.71717653463199,101.0,70.8590149522275
5044,"Kalaeloa Hawaiian Home Land, HI",17.0,,28.0,,4.0,,7.0,,0.0,,11.0,,0.0,,11.0,,0.0,,11.0,,10.0,,18.0,,0.0,,11.0,,0.0,,11.0,,3.0,,6.0,,5044,10.0,21.095023109728988,0.0,11.0
5053,"Kalawahine Hawaiian Home Land, HI",384.0,,71.0,,19.0,,11.0,,1.0,,2.0,,0.0,,11.0,,14.0,,8.0,,152.0,,41.0,,0.0,,11.0,,145.0,,43.0,,53.0,,32.0,,5053,166.0,41.773197148410844,145.0,44.384682042344295
5061,"Kamiloloa-Makakupaia Hawaiian Home Land, HI",77.0,,35.0,,2.0,,3.0,,0.0,,11.0,,2.0,,4.0,,3.0,,3.0,,42.0,,27.0,,0.0,,11.0,,28.0,,28.0,,0.0,,11.0,,5061,45.0,27.16615541441225,30.0,30.347981810987037
5067,"Kanehili Hawaiian Home Land, HI",1659.0,,631.0,,34.0,,38.0,,0.0,,11.0,,0.0,,11.0,,101.0,,92.0,,360.0,,237.0,,0.0,,11.0,,776.0,,497.0,,388.0,,331.0,,5067,461.0,254.23021063595098,776.0,497.1217154782116
5069,"Kaohe-Olaa Hawaiian Home Land, HI",0.0,,11.0,,0.0,,11.0,,0.0,,11.0,,0.0,,11.0,,0.0,,11.0,,0.0,,11.0,,0.0,,11.0,,0.0,,11.0,,0.0,,11.0,,5069,0.0,11.0,0.0,11.0
5088,"Kaupea Hawaiian Home Land, HI",1482.0,,203.0,,43.0,,23.0,,0.0,,11.0,,0.0,,11.0,,73.0,,24.0,,454.0,,98.0,,0.0,,11.0,,693.0,,137.0,,219.0,,82.0,,5088,527.0,100.89598604503551,693.0,137.44089638822936
5098,"Keahuolu Hawaiian Home Land, HI",0.0,,11.0,,0.0,,11.0,,0.0,,11.0,,0.0,,11.0,,0.0,,11.0,,0.0,,11.0,,0.0,,11.0,,0.0,,11.0,,0.0,,11.0,,5098,0.0,11.0,0.0,11.0
5101,"Kealakehe Hawaiian Home Land, HI",1043.0,,200.0,,42.0,,18.0,,2.0,,3.0,,0.0,,11.0,,61.0,,18.0,,545.0,,148.0,,0.0,,11.0,,331.0,,88.0,,62.0,,31.0,,5101,606.0,149.09057649630307,331.0,88.68483523128404
5106,"Keaukaha Hawaiian Home Land, HI",1693.0,,226.0,,68.0,,22.0,,4.0,,4.0,,0.0,,11.0,,53.0,,32.0,,576.0,,120.0,,0.0,,11.0,,844.0,,138.0,,148.0,,59.0,,5106,629.0,124.1933975700802,844.0,138.43771162512041
5111,"Kekaha Hawaiian Home Land, HI",555.0,,145.0,,11.0,,12.0,,0.0,,11.0,,0.0,,11.0,,27.0,,16.0,,425.0,,117.0,,0.0,,11.0,,39.0,,29.0,,53.0,,43.0,,5111,452.0,118.0889495253472,39.0,31.016124838541646
5116,"Keoniki Hawaiian Home Land, HI",0.0,,11.0,,0.0,,11.0,,0.0,,11.0,,0.0,,11.0,,0.0,,11.0,,0.0,,11.0,,0.0,,11.0,,0.0,,11.0,,0.0,,11.0,,5116,0.0,11.0,0.0,11.0
5133,"Lalamilo Hawaiian Home Land, HI",63.0,,35.0,,2.0,,3.0,,0.0,,11.0,,0.0,,11.0,,11.0,,14.0,,14.0,,10.0,,0.0,,11.0,,32.0,,23.0,,4.0,,6.0,,5133,25.0,17.204650534085253,32.0,25.495097567963924
5161,"Nanakuli Hawaiian Home Land, HI",5141.0,,477.0,,98.0,,36.0,,5.0,,8.0,,3.0,,8.0,,180.0,,55.0,,2549.0,,357.0,,0.0,,15.0,,1729.0,,294.0,,577.0,,203.0,,5161,2729.0,361.2118491965622,1732.0,294.49108645254444
5136,"Lualualei Hawaiian Home Land, HI",34.0,,20.0,,2.0,,4.0,,0.0,,11.0,,0.0,,11.0,,0.0,,11.0,,15.0,,14.0,,0.0,,11.0,,7.0,,9.0,,10.0,,11.0,,5136,15.0,17.804493814764857,7.0,14.212670403551895
5146,"Makuu Hawaiian Home Land, HI",57.0,,25.0,,7.0,,8.0,,0.0,,11.0,,0.0,,11.0,,2.0,,6.0,,26.0,,16.0,,0.0,,11.0,,18.0,,17.0,,4.0,,6.0,,5146,28.0,17.08800749063506,18.0,20.248456731316587
5156,"Moloaa Hawaiian Home Land, HI",0.0,,11.0,,0.0,,11.0,,0.0,,11.0,,0.0,,11.0,,0.0,,11.0,,0.0,,11.0,,0.0,,11.0,,0.0,,11.0,,0.0,,11.0,,5156,0.0,11.0,0.0,11.0
5166,"Nienie Hawaiian Home Land, HI",0.0,,11.0,,0.0,,11.0,,0.0,,11.0,,0.0,,11.0,,0.0,,11.0,,0.0,,11.0,,0.0,,11.0,,0.0,,11.0,,0.0,,11.0,,5166,0.0,11.0,0.0,11.0
5181,"Pauahi Hawaiian Home Land, HI",0.0,,11.0,,0.0,,11.0,,0.0,,11.0,,0.0,,11.0,,0.0,,11.0,,0.0,,11.0,,0.0,,11.0,,0.0,,11.0,,0.0,,11.0,,5181,0.0,11.0,0.0,11.0
5186,"Paukukalo Hawaiian Home Land, HI",845.0,,208.0,,19.0,,13.0,,4.0,,6.0,,0.0,,11.0,,67.0,,48.0,,438.0,,140.0,,0.0,,11.0,,245.0,,82.0,,72.0,,43.0,,5186,505.0,148.0,245.0,82.73451516749222
5104,"Keanae-Wailua Hawaiian Home Land, HI",13.0,,21.0,,0.0,,11.0,,0.0,,11.0,,0.0,,11.0,,0.0,,11.0,,13.0,,21.0,,0.0,,11.0,,0.0,,11.0,,0.0,,11.0,,5104,13.0,23.706539182259394,0.0,11.0
5114,"Keokea (Agricultural) Hawaiian Home Land, HI",165.0,,137.0,,2.0,,4.0,,0.0,,11.0,,0.0,,11.0,,52.0,,48.0,,2.0,,3.0,,0.0,,11.0,,107.0,,89.0,,2.0,,5.0,,5114,54.0,48.093658625644196,107.0,89.67719888578144
5120,"Kewalo Hawaiian Home Land, HI",394.0,,121.0,,8.0,,7.0,,0.0,,11.0,,10.0,,16.0,,12.0,,10.0,,213.0,,104.0,,0.0,,11.0,,145.0,,56.0,,6.0,,6.0,,5120,225.0,104.47966309287182,155.0,59.270566050949775
5123,"Kolaoa Hawaiian Home Land, HI",0.0,,11.0,,0.0,,11.0,,0.0,,11.0,,0.0,,11.0,,0.0,,11.0,,0.0,,11.0,,0.0,,11.0,,0.0,,11.0,,0.0,,11.0,,5123,0.0,11.0,0.0,11.0
5134,"Lanai City Hawaiian Home Land, HI",90.0,,56.0,,12.0,,15.0,,0.0,,11.0,,0.0,,11.0,,11.0,,13.0,,32.0,,33.0,,0.0,,11.0,,25.0,,28.0,,10.0,,13.0,,5134,43.0,35.4682957019364,25.0,30.083217912982647
5135,"Leialii Hawaiian Home Land, HI",568.0,,162.0,,33.0,,20.0,,0.0,,11.0,,0.0,,11.0,,48.0,,30.0,,166.0,,85.0,,0.0,,11.0,,246.0,,76.0,,75.0,,71.0,,5135,214.0,90.13878188659973,246.0,76.79192665899195
5138,"Maili Hawaiian Home Land, HI",514.0,,397.0,,7.0,,15.0,,28.0,,30.0,,0.0,,11.0,,13.0,,31.0,,240.0,,231.0,,0.0,,11.0,,119.0,,104.0,,107.0,,113.0,,5138,253.0,233.07080469247967,119.0,104.58011283222064
5139,"Makaha Valley Hawaiian Home Land, HI",0.0,,11.0,,0.0,,11.0,,0.0,,11.0,,0.0,,11.0,,0.0,,11.0,,0.0,,11.0,,0.0,,11.0,,0.0,,11.0,,0.0,,11.0,,5139,0.0,11.0,0.0,11.0
5148,"Maluohai Hawaiian Home Land, HI",1238.0,,201.0,,15.0,,8.0,,6.0,,7.0,,0.0,,11.0,,85.0,,34.0,,462.0,,141.0,,0.0,,11.0,,511.0,,108.0,,159.0,,72.0,,5148,547.0,145.04137340772803,511.0,108.55873986004075
5176,"Panaewa (Agricultural) Hawaiian Home Land, HI",649.0,,98.0,,34.0,,14.0,,0.0,,11.0,,5.0,,6.0,,21.0,,12.0,,236.0,,63.0,,0.0,,11.0,,293.0,,63.0,,60.0,,25.0,,5176,257.0,64.13267497929586,298.0,64.2339474110069
5177,"Panaewa (Residential) Hawaiian Home Land, HI",1327.0,,188.0,,20.0,,15.0,,0.0,,11.0,,0.0,,11.0,,64.0,,42.0,,527.0,,113.0,,0.0,,11.0,,621.0,,107.0,,95.0,,47.0,,5177,591.0,120.55289295574785,621.0,107.56393447619885
5179,"Papakolea Hawaiian Home Land, HI",1505.0,,344.0,,26.0,,17.0,,0.0,,11.0,,0.0,,11.0,,61.0,,22.0,,670.0,,202.0,,0.0,,11.0,,601.0,,213.0,,147.0,,81.0,,5179,731.0,203.19448811422026,601.0,213.283848427395
5188,"Pearl City Hawaiian Home Land, HI",63.0,,27.0,,14.0,,10.0,,14.0,,22.0,,0.0,,11.0,,5.0,,6.0,,0.0,,11.0,,0.0,,11.0,,13.0,,13.0,,17.0,,17.0,,5188,5.0,12.529964086141668,13.0,17.029386365926403
5193,"Piihonua Hawaiian Home Land, HI",92.0,,53.0,,6.0,,7.0,,0.0,,11.0,,0.0,,11.0,,6.0,,7.0,,11.0,,11.0,,0.0,,11.0,,69.0,,51.0,,0.0,,11.0,,5193,17.0,13.038404810405298,69.0,52.172789842982326
5196,"Ponohawaii Hawaiian Home Land, HI",16.0,,17.0,,0.0,,11.0,,0.0,,11.0,,0.0,,11.0,,4.0,,8.0,,9.0,,15.0,,0.0,,11.0,,3.0,,8.0,,0.0,,11.0,,5196,13.0,17.0,3.0,13.601470508735444
5198,"Princess Kahanu Estates Hawaiian Home Land, HI",1542.0,,326.0,,44.0,,32.0,,0.0,,11.0,,11.0,,17.0,,75.0,,29.0,,868.0,,296.0,,0.0,,11.0,,400.0,,108.0,,144.0,,52.0,,5198,943.0,297.41721537261424,411.0,109.88175462741756
5199,"Pulehunui Hawaiian Home Land, HI",0.0,,11.0,,0.0,,11.0,,0.0,,11.0,,0.0,,11.0,,0.0,,11.0,,0.0,,11.0,,0.0,,11.0,,0.0,,11.0,,0.0,,11.0,,5199,0.0,11.0,0.0,11.0
5201,"Puukapu Hawaiian Home Land, HI",961.0,,259.0,,43.0,,24.0,,4.0,,9.0,,1.0,,4.0,,62.0,,61.0,,480.0,,118.0,,0.0,,11.0,,348.0,,129.0,,23.0,,18.0,,5201,542.0,132.83448347473634,349.0,129.52991932368366
5216,"Ualapue Hawaiian Home Land, HI",5.0,,6.0,,3.0,,4.0,,0.0,,11.0,,0.0,,11.0,,0.0,,11.0,,0.0,,11.0,,0.0,,11.0,,2.0,,3.0,,0.0,,11.0,,5216,0.0,11.0,2.0,11.40175425099138
5236,"Waiakea Hawaiian Home Land, HI",0.0,,11.0,,0.0,,11.0,,0.0,,11.0,,0.0,,11.0,,0.0,,11.0,,0.0,,11.0,,0.0,,11.0,,0.0,,11.0,,0.0,,11.0,,5236,0.0,11.0,0.0,11.0
5241,"Waiehu Hawaiian Home Land, HI",1507.0,,222.0,,63.0,,28.0,,4.0,,8.0,,0.0,,11.0,,117.0,,44.0,,556.0,,110.0,,2.0,,4.0,,528.0,,116.0,,237.0,,96.0,,5241,673.0,118.4736257569591,530.0,116.58902178164118
5281,"Waimea Hawaiian Home Land, HI",0.0,,11.0,,0.0,,11.0,,0.0,,11.0,,0.0,,11.0,,0.0,,11.0,,0.0,,11.0,,0.0,,11.0,,0.0,,11.0,,0.0,,11.0,,5281,0.0,11.0,0.0,11.0
5251,"Wailau Hawaiian Home Land, HI",0.0,,11.0,,0.0,,11.0,,0.0,,11.0,,0.0,,11.0,,0.0,,11.0,,0.0,,11.0,,0.0,,11.0,,0.0,,11.0,,0.0,,11.0,,5251,0.0,11.0,0.0,11.0
5271,"Waimanalo Hawaiian Home Land, HI",3061.0,,253.0,,65.0,,25.0,,17.0,,19.0,,4.0,,6.0,,129.0,,50.0,,1145.0,,171.0,,0.0,,11.0,,1453.0,,184.0,,248.0,,86.0,,5271,1274.0,178.16004041310723,1457.0,184.42613697629736
5276,"Waimanu Hawaiian Home Land, HI",0.0,,11.0,,0.0,,11.0,,0.0,,11.0,,0.0,,11.0,,0.0,,11.0,,0.0,,11.0,,0.0,,11.0,,0.0,,11.0,,0.0,,11.0,,5276,0.0,11.0,0.0,11.0
5213,"South Maui Hawaiian Home Land, HI",0.0,,11.0,,0.0,,11.0,,0.0,,11.0,,0.0,,11.0,,0.0,,11.0,,0.0,,11.0,,0.0,,11.0,,0.0,,11.0,,0.0,,11.0,,5213,0.0,11.0,0.0,11.0
5222,"Upolu Hawaiian Home Land, HI",0.0,,11.0,,0.0,,11.0,,0.0,,11.0,,0.0,,11.0,,0.0,,11.0,,0.0,,11.0,,0.0,,11.0,,0.0,,11.0,,0.0,,11.0,,5222,0.0,11.0,0.0,11.0
5223,"Waiahole Hawaiian Home Land, HI",42.0,,25.0,,3.0,,5.0,,0.0,,11.0,,0.0,,11.0,,1.0,,4.0,,2.0,,3.0,,0.0,,11.0,,25.0,,18.0,,11.0,,20.0,,5223,3.0,5.0,25.0,21.095023109728988
5238,"Waianae Hawaiian Home Land, HI",2542.0,,263.0,,42.0,,17.0,,0.0,,11.0,,0.0,,11.0,,91.0,,38.0,,1413.0,,208.0,,0.0,,11.0,,698.0,,108.0,,298.0,,101.0,,5238,1504.0,211.4426636230257,698.0,108.55873986004075
5239,"Waianae Kai Hawaiian Home Land, HI",782.0,,100.0,,21.0,,11.0,,4.0,,6.0,,0.0,,11.0,,11.0,,7.0,,297.0,,76.0,,0.0,,11.0,,352.0,,44.0,,97.0,,32.0,,5239,308.0,76.32168761236873,352.0,45.35416188179427
5248,"Waiku-Hana Hawaiian Home Land, HI",0.0,,11.0,,0.0,,11.0,,0.0,,11.0,,0.0,,11.0,,0.0,,11.0,,0.0,,11.0,,0.0,,11.0,,0.0,,11.0,,0.0,,11.0,,5248,0.0,11.0,0.0,11.0
5256,"Wailua Hawaiian Home Land, HI",0.0,,11.0,,0.0,,11.0,,0.0,,11.0,,0.0,,11.0,,0.0,,11.0,,0.0,,11.0,,0.0,,11.0,,0.0,,11.0,,0.0,,11.0,,5256,0.0,11.0,0.0,11.0
5283,"Waiohinu Hawaiian Home Land, HI",0.0,,11.0,,0.0,,11.0,,0.0,,11.0,,0.0,,11.0,,0.0,,11.0,,0.0,,11.0,,0.0,,11.0,,0.0,,11.0,,0.0,,11.0,,5283,0.0,11.0,0.0,11.0
5286,"Waiohuli (Residential) Hawaiian Home Land, HI",1277.0,,246.0,,113.0,,48.0,,2.0,,4.0,,9.0,,11.0,,50.0,,29.0,,523.0,,140.0,,0.0,,11.0,,419.0,,124.0,,161.0,,105.0,,5286,573.0,142.97202523570826,428.0,124.97199686329733
5580,"Chickasaw OTSA, OK",312615.0,,731.0,,233147.0,,751.0,,8080.0,,294.0,,20929.0,,707.0,,1742.0,,187.0,,93.0,,51.0,,141.0,,74.0,,24479.0,,801.0,,24004.0,,213.0,,5580,1835.0,193.82982226685345,45549.0,1070.9463105123432
5590,"Choctaw OTSA, OK",231451.0,,574.0,,158875.0,,535.0,,8039.0,,227.0,,27101.0,,585.0,,1175.0,,113.0,,410.0,,53.0,,97.0,,38.0,,23293.0,,631.0,,12461.0,,183.0,,5590,1585.0,124.8118584109699,50491.0,861.2955358063805
5560,"Cheyenne-Arapaho OTSA, OK",187338.0,,1207.0,,142895.0,,1133.0,,4346.0,,344.0,,6385.0,,587.0,,2101.0,,441.0,,22.0,,19.0,,287.0,,240.0,,8956.0,,723.0,,22346.0,,569.0,,5560,2123.0,441.4091072916371,15628.0,961.7161743466728
5540,"Caddo-Wichita-Delaware OTSA, OK",15327.0,,456.0,,11179.0,,411.0,,166.0,,80.0,,1068.0,,198.0,,10.0,,8.0,,0.0,,15.0,,9.0,,12.0,,682.0,,116.0,,2213.0,,211.0,,5540,10.0,17.0,1759.0,229.7912095794789
5550,"Cherokee OTSA, OK",517039.0,,1479.0,,309365.0,,1483.0,,31178.0,,860.0,,85220.0,,1177.0,,5491.0,,520.0,,582.0,,168.0,,792.0,,217.0,,46379.0,,1312.0,,38032.0,,917.0,,5550,6073.0,546.4650034540181,132391.0,1775.883442121132
5835,"Seneca-Cayuga OTSA, OK",4532.0,,201.0,,3312.0,,166.0,,4.0,,5.0,,752.0,,106.0,,34.0,,22.0,,1.0,,2.0,,0.0,,9.0,,288.0,,61.0,,141.0,,46.0,,5835,35.0,22.090722034374522,1040.0,122.62952336203546
5860,"Tonkawa OTSA, OK",3918.0,,78.0,,2902.0,,107.0,,28.0,,27.0,,402.0,,54.0,,25.0,,19.0,,0.0,,9.0,,0.0,,9.0,,242.0,,53.0,,319.0,,75.0,,5860,25.0,21.02379604162864,644.0,76.19711280619497
5830,"Seminole OTSA, OK",23006.0,,169.0,,14913.0,,126.0,,1090.0,,64.0,,4376.0,,236.0,,82.0,,45.0,,1.0,,2.0,,36.0,,28.0,,1405.0,,227.0,,1103.0,,67.0,,5830,83.0,45.044422518220834,5817.0,328.647227281777
5820,"Sac and Fox OTSA, OK",58194.0,,706.0,,43986.0,,788.0,,2029.0,,268.0,,6088.0,,410.0,,389.0,,154.0,,35.0,,33.0,,12.0,,15.0,,2780.0,,336.0,,2875.0,,310.0,,5820,424.0,157.4960316960399,8880.0,530.3027437228662
5810,"Quapaw OTSA, OK",5092.0,,180.0,,3247.0,,163.0,,18.0,,18.0,,768.0,,93.0,,31.0,,20.0,,0.0,,13.0,,2.0,,4.0,,471.0,,74.0,,555.0,,80.0,,5810,31.0,23.853720883753127,1241.0,118.91593669479293
5800,"Ponca OTSA, OK",2119.0,,140.0,,1062.0,,103.0,,0.0,,9.0,,620.0,,91.0,,4.0,,5.0,,0.0,,9.0,,0.0,,9.0,,251.0,,64.0,,182.0,,67.0,,5800,4.0,10.295630140987,871.0,111.61541112229978
5890,"Wyandotte OTSA, OK",1687.0,,75.0,,1121.0,,68.0,,0.0,,9.0,,396.0,,48.0,,22.0,,18.0,,0.0,,9.0,,0.0,,9.0,,97.0,,30.0,,51.0,,19.0,,5890,22.0,20.12461179749811,493.0,57.3149195236284
5915,"Creek/Seminole joint-use OTSA, OK",2065.0,,169.0,,1322.0,,126.0,,84.0,,33.0,,398.0,,72.0,,6.0,,6.0,,0.0,,9.0,,3.0,,4.0,,115.0,,48.0,,137.0,,66.0,,5915,6.0,10.816653826391969,516.0,86.62563131083085
5950,"Kaw/Ponca joint-use OTSA, OK",26375.0,,198.0,,19120.0,,320.0,,898.0,,99.0,,1923.0,,293.0,,145.0,,64.0,,0.0,,17.0,,4.0,,6.0,,1794.0,,287.0,,2491.0,,181.0,,5950,145.0,66.21933252457322,3721.0,410.18776188472515
5955,"Kiowa-Comanche-Apache-Ft Sill Apache/Caddo-Wichita-Delaware joint-use OTSA, OK",11840.0,,299.0,,4681.0,,313.0,,439.0,,97.0,,4375.0,,311.0,,134.0,,64.0,,0.0,,15.0,,14.0,,22.0,,874.0,,222.0,,1323.0,,228.0,,5955,134.0,65.73431371817918,5263.0,382.7388143368791
5970,"Miami/Peoria joint-use OTSA, OK",4279.0,,178.0,,2586.0,,156.0,,40.0,,26.0,,712.0,,79.0,,27.0,,23.0,,76.0,,53.0,,2.0,,4.0,,541.0,,72.0,,295.0,,66.0,,5970,103.0,57.77542730261716,1255.0,106.96261028976434
5720,"Kiowa-Comanche-Apache-Fort Sill Apache OTSA, OK",192325.0,,679.0,,117704.0,,618.0,,23047.0,,693.0,,8490.0,,451.0,,3221.0,,247.0,,667.0,,139.0,,63.0,,50.0,,11847.0,,855.0,,27286.0,,186.0,,5720,3888.0,283.425475213503,20400.0,967.949378841683
5730,"Miami OTSA, OK",226.0,,28.0,,126.0,,18.0,,4.0,,7.0,,58.0,,21.0,,0.0,,9.0,,0.0,,9.0,,0.0,,9.0,,35.0,,16.0,,3.0,,4.0,,5730,0.0,9.0,93.0,27.892651361962706
5760,"Otoe-Missouria OTSA, OK",969.0,,161.0,,420.0,,92.0,,4.0,,7.0,,327.0,,69.0,,3.0,,7.0,,3.0,,4.0,,0.0,,9.0,,123.0,,45.0,,89.0,,64.0,,5760,6.0,8.06225774829855,450.0,82.86736390159881
5780,"Pawnee OTSA, OK",16197.0,,83.0,,12479.0,,52.0,,151.0,,32.0,,1890.0,,123.0,,68.0,,35.0,,7.0,,8.0,,0.0,,15.0,,1149.0,,136.0,,453.0,,51.0,,5780,75.0,35.90264614203248,3039.0,183.98369492974098
5770,"Ottawa OTSA, OK",5965.0,,278.0,,3795.0,,194.0,,177.0,,52.0,,689.0,,114.0,,53.0,,26.0,,113.0,,60.0,,0.0,,13.0,,725.0,,104.0,,413.0,,77.0,,5770,166.0,65.39113089708727,1414.0,154.85799947048264
5700,"Kickapoo OTSA, OK",20991.0,,668.0,,16074.0,,547.0,,498.0,,113.0,,2088.0,,260.0,,155.0,,65.0,,11.0,,11.0,,14.0,,16.0,,981.0,,163.0,,1170.0,,216.0,,5700,166.0,65.92419889539804,3083.0,307.28651125618904
5740,"Modoc OTSA, OK",253.0,,35.0,,128.0,,21.0,,1.0,,2.0,,84.0,,22.0,,0.0,,9.0,,3.0,,4.0,,0.0,,9.0,,34.0,,19.0,,3.0,,8.0,,5740,3.0,9.848857801796104,118.0,30.430248109405877
5795,"Peoria OTSA, OK",5053.0,,196.0,,3522.0,,199.0,,39.0,,27.0,,673.0,,79.0,,56.0,,26.0,,17.0,,23.0,,0.0,,13.0,,543.0,,93.0,,203.0,,50.0,,5795,73.0,34.713109915419565,1216.0,122.71511724314979
6070,"Allakaket ANVSA, AK",170.0,,30.0,,15.0,,11.0,,0.0,,9.0,,146.0,,26.0,,2.0,,4.0,,0.0,,9.0,,0.0,,9.0,,3.0,,4.0,,4.0,,9.0,,6070,2.0,9.848857801796104,149.0,27.80287754891569
6095,"Andreafsky ANVSA, AK",113.0,,28.0,,0.0,,9.0,,0.0,,9.0,,113.0,,28.0,,0.0,,9.0,,0.0,,9.0,,0.0,,9.0,,0.0,,9.0,,0.0,,9.0,,6095,0.0,9.0,113.0,29.410882339705484
6065,"Algaaciq ANVSA, AK",527.0,,72.0,,11.0,,21.0,,0.0,,9.0,,483.0,,61.0,,0.0,,9.0,,2.0,,2.0,,0.0,,9.0,,30.0,,20.0,,1.0,,2.0,,6065,2.0,9.219544457292887,513.0,64.82283548256741
6080,"Anaktuvuk Pass ANVSA, AK",265.0,,88.0,,35.0,,57.0,,0.0,,9.0,,202.0,,51.0,,0.0,,9.0,,0.0,,9.0,,0.0,,9.0,,25.0,,18.0,,3.0,,4.0,,6080,0.0,9.0,227.0,54.8270006474912
6075,"Ambler ANVSA, AK",299.0,,74.0,,36.0,,55.0,,0.0,,9.0,,263.0,,42.0,,0.0,,9.0,,0.0,,9.0,,0.0,,9.0,,0.0,,9.0,,0.0,,9.0,,6075,0.0,9.0,263.0,42.95346318982906
6030,"Akutan ANVSA, AK",755.0,,255.0,,111.0,,81.0,,95.0,,90.0,,107.0,,32.0,,236.0,,89.0,,11.0,,18.0,,0.0,,9.0,,21.0,,17.0,,174.0,,78.0,,6030,247.0,90.80198235721508,128.0,37.33630940518894
6015,"Akhiok ANVSA, AK",57.0,,31.0,,4.0,,5.0,,0.0,,9.0,,38.0,,23.0,,0.0,,9.0,,0.0,,9.0,,0.0,,9.0,,13.0,,20.0,,2.0,,5.0,,6015,0.0,9.0,51.0,31.78049716414141
6035,"Alakanuk ANVSA, AK",837.0,,78.0,,19.0,,27.0,,0.0,,9.0,,788.0,,75.0,,13.0,,9.0,,0.0,,9.0,,0.0,,9.0,,17.0,,12.0,,0.0,,9.0,,6035,13.0,12.727922061357855,805.0,76.48529270389177
6045,"Aleknagik ANVSA, AK",204.0,,39.0,,10.0,,7.0,,2.0,,2.0,,167.0,,34.0,,0.0,,9.0,,0.0,,9.0,,0.0,,9.0,,25.0,,20.0,,0.0,,9.0,,6045,0.0,9.0,192.0,40.45985664828782
6040,"Alatna ANVSA, AK",4.0,,5.0,,0.0,,9.0,,0.0,,9.0,,4.0,,5.0,,0.0,,9.0,,0.0,,9.0,,0.0,,9.0,,0.0,,9.0,,0.0,,9.0,,6040,0.0,9.0,4.0,10.295630140987
6020,"Akiachak ANVSA, AK",567.0,,64.0,,11.0,,8.0,,1.0,,3.0,,526.0,,59.0,,0.0,,9.0,,0.0,,9.0,,0.0,,9.0,,20.0,,15.0,,9.0,,9.0,,6020,0.0,9.0,546.0,61.538605769061746
6025,"Akiak ANVSA, AK",416.0,,53.0,,4.0,,5.0,,0.0,,9.0,,401.0,,53.0,,0.0,,9.0,,0.0,,9.0,,0.0,,9.0,,9.0,,7.0,,2.0,,3.0,,6025,0.0,9.0,410.0,54.2125446737192
6325,"Chistochina ANVSA, AK",85.0,,55.0,,3.0,,5.0,,0.0,,9.0,,69.0,,50.0,,0.0,,9.0,,0.0,,9.0,,0.0,,9.0,,0.0,,9.0,,13.0,,20.0,,6325,0.0,9.0,69.0,50.80354318352215
6360,"Clarks Point ANVSA, AK",48.0,,26.0,,0.0,,9.0,,0.0,,9.0,,36.0,,23.0,,0.0,,9.0,,0.0,,9.0,,0.0,,9.0,,12.0,,12.0,,0.0,,9.0,,6360,0.0,9.0,48.0,27.459060435491963
6365,"Copper Center ANVSA, AK",419.0,,121.0,,222.0,,76.0,,6.0,,9.0,,132.0,,78.0,,2.0,,4.0,,0.0,,9.0,,4.0,,8.0,,29.0,,28.0,,24.0,,32.0,,6365,2.0,9.848857801796104,165.0,83.2586331859946
6350,"Circle ANVSA, AK",74.0,,28.0,,7.0,,7.0,,0.0,,9.0,,44.0,,24.0,,0.0,,9.0,,0.0,,9.0,,0.0,,9.0,,4.0,,4.0,,19.0,,13.0,,6350,0.0,9.0,48.0,25.942243542145693
6315,"Chilkoot ANVSA, AK",453.0,,120.0,,306.0,,84.0,,1.0,,3.0,,55.0,,24.0,,32.0,,36.0,,0.0,,9.0,,0.0,,9.0,,33.0,,19.0,,26.0,,24.0,,6315,32.0,37.107950630558946,88.0,31.906112267087632
6305,"Chignik Lake ANVSA, AK",51.0,,19.0,,4.0,,6.0,,0.0,,9.0,,47.0,,19.0,,0.0,,9.0,,0.0,,9.0,,0.0,,9.0,,0.0,,9.0,,0.0,,9.0,,6305,0.0,9.0,47.0,21.02379604162864
6300,"Chignik Lagoon ANVSA, AK",75.0,,30.0,,15.0,,12.0,,0.0,,9.0,,51.0,,23.0,,0.0,,9.0,,2.0,,5.0,,0.0,,9.0,,7.0,,6.0,,0.0,,9.0,,6300,2.0,10.295630140987,58.0,25.41653005427767
6330,"Chitina ANVSA, AK",73.0,,49.0,,28.0,,22.0,,0.0,,9.0,,45.0,,43.0,,0.0,,9.0,,0.0,,9.0,,0.0,,9.0,,0.0,,9.0,,0.0,,9.0,,6330,0.0,9.0,45.0,43.93176527297759
6385,"Craig ANVSA, AK",1613.0,,100.0,,1033.0,,86.0,,11.0,,11.0,,288.0,,43.0,,35.0,,17.0,,0.0,,9.0,,4.0,,5.0,,205.0,,33.0,,37.0,,22.0,,6385,35.0,19.235384061671343,497.0,54.433445601027316
6340,"Chulloonawick ANVSA, AK",0.0,,9.0,,0.0,,9.0,,0.0,,9.0,,0.0,,9.0,,0.0,,9.0,,0.0,,9.0,,0.0,,9.0,,0.0,,9.0,,0.0,,9.0,,6340,0.0,9.0,0.0,9.0
6310,"Chilkat ANVSA, AK",49.0,,14.0,,6.0,,5.0,,0.0,,9.0,,35.0,,16.0,,0.0,,9.0,,0.0,,9.0,,0.0,,9.0,,8.0,,6.0,,0.0,,9.0,,6310,0.0,9.0,43.0,19.313207915827967
6335,"Chuathbaluk ANVSA, AK",124.0,,37.0,,9.0,,7.0,,0.0,,9.0,,110.0,,34.0,,0.0,,9.0,,0.0,,9.0,,0.0,,9.0,,5.0,,5.0,,0.0,,9.0,,6335,0.0,9.0,115.0,35.52463933666322
6390,"Crooked Creek ANVSA, AK",90.0,,29.0,,4.0,,5.0,,1.0,,3.0,,76.0,,28.0,,0.0,,9.0,,0.0,,9.0,,0.0,,9.0,,9.0,,7.0,,0.0,,9.0,,6390,0.0,9.0,85.0,30.23243291566195
6225,"Bill Moore's ANVSA, AK",0.0,,9.0,,0.0,,9.0,,0.0,,9.0,,0.0,,9.0,,0.0,,9.0,,0.0,,9.0,,0.0,,9.0,,0.0,,9.0,,0.0,,9.0,,6225,0.0,9.0,0.0,9.0
6380,"Council ANVSA, AK",0.0,,9.0,,0.0,,9.0,,0.0,,9.0,,0.0,,9.0,,0.0,,9.0,,0.0,,9.0,,0.0,,9.0,,0.0,,9.0,,0.0,,9.0,,6380,0.0,9.0,0.0,9.0
6290,"Chickaloon ANVSA, AK",27331.0,,630.0,,21930.0,,552.0,,347.0,,105.0,,1468.0,,211.0,,331.0,,95.0,,82.0,,57.0,,35.0,,22.0,,1875.0,,259.0,,1263.0,,178.0,,6290,413.0,110.78808600206071,3378.0,334.792473033669
6235,"Birch Creek ANVSA, AK",2.0,,3.0,,0.0,,9.0,,0.0,,9.0,,2.0,,3.0,,0.0,,9.0,,0.0,,9.0,,0.0,,9.0,,0.0,,9.0,,0.0,,9.0,,6235,0.0,9.0,2.0,9.486832980505138
6257,"Canyon Village ANVSA, AK",0.0,,9.0,,0.0,,9.0,,0.0,,9.0,,0.0,,9.0,,0.0,,9.0,,0.0,,9.0,,0.0,,9.0,,0.0,,9.0,,0.0,,9.0,,6257,0.0,9.0,0.0,9.0
6295,"Chignik ANVSA, AK",61.0,,28.0,,15.0,,10.0,,0.0,,9.0,,30.0,,16.0,,8.0,,9.0,,0.0,,9.0,,0.0,,9.0,,8.0,,11.0,,0.0,,9.0,,6295,8.0,12.727922061357855,38.0,21.400934559032695
6240,"Brevig Mission ANVSA, AK",407.0,,41.0,,12.0,,9.0,,0.0,,9.0,,386.0,,45.0,,0.0,,9.0,,0.0,,9.0,,0.0,,9.0,,9.0,,12.0,,0.0,,9.0,,6240,0.0,9.0,395.0,47.43416490252569
6255,"Cantwell ANVSA, AK",183.0,,65.0,,142.0,,52.0,,3.0,,4.0,,13.0,,9.0,,0.0,,9.0,,0.0,,9.0,,0.0,,9.0,,25.0,,18.0,,0.0,,9.0,,6255,0.0,9.0,38.0,22.045407685048602
6285,"Chevak ANVSA, AK",1144.0,,161.0,,126.0,,108.0,,15.0,,18.0,,960.0,,110.0,,0.0,,9.0,,0.0,,9.0,,3.0,,4.0,,6.0,,8.0,,34.0,,43.0,,6285,0.0,9.0,969.0,110.36303729057116
6205,"Bethel ANVSA, AK",6424.0,,19.0,,1410.0,,182.0,,114.0,,36.0,,3950.0,,210.0,,180.0,,57.0,,1.0,,6.0,,0.0,,13.0,,417.0,,161.0,,352.0,,57.0,,6205,181.0,57.3149195236284,4367.0,264.93395403383084
6250,"Buckland ANVSA, AK",608.0,,63.0,,4.0,,6.0,,0.0,,9.0,,599.0,,62.0,,1.0,,2.0,,0.0,,9.0,,0.0,,9.0,,2.0,,3.0,,2.0,,3.0,,6250,1.0,9.219544457292887,601.0,62.72160712226688
6280,"Chenega ANVSA, AK",48.0,,37.0,,15.0,,14.0,,0.0,,9.0,,27.0,,30.0,,0.0,,9.0,,0.0,,9.0,,0.0,,9.0,,3.0,,5.0,,3.0,,6.0,,6280,0.0,9.0,30.0,31.71750305430741
6265,"Chalkyitsik ANVSA, AK",115.0,,35.0,,24.0,,16.0,,0.0,,9.0,,83.0,,25.0,,0.0,,9.0,,0.0,,9.0,,0.0,,9.0,,2.0,,3.0,,6.0,,14.0,,6265,0.0,9.0,85.0,26.739483914241877
6275,"Chefornak ANVSA, AK",501.0,,69.0,,0.0,,9.0,,0.0,,9.0,,495.0,,67.0,,0.0,,9.0,,0.0,,9.0,,0.0,,9.0,,6.0,,5.0,,0.0,,9.0,,6275,0.0,9.0,501.0,67.7864293203293
6190,"Beaver ANVSA, AK",46.0,,23.0,,0.0,,9.0,,0.0,,9.0,,46.0,,23.0,,0.0,,9.0,,0.0,,9.0,,0.0,,9.0,,0.0,,9.0,,0.0,,9.0,,6190,0.0,9.0,46.0,24.698178070456937
6175,"Barrow ANVSA, AK",4408.0,,123.0,,422.0,,459.0,,35.0,,31.0,,2776.0,,366.0,,492.0,,50.0,,154.0,,19.0,,0.0,,9.0,,461.0,,207.0,,68.0,,48.0,,6175,646.0,53.48831648126533,3237.0,420.57817347075917
6160,"Atmautluak ANVSA, AK",209.0,,45.0,,0.0,,9.0,,0.0,,9.0,,209.0,,45.0,,0.0,,9.0,,0.0,,9.0,,0.0,,9.0,,0.0,,9.0,,0.0,,9.0,,6160,0.0,9.0,209.0,45.89117562233506
6105,"Aniak ANVSA, AK",525.0,,81.0,,90.0,,42.0,,0.0,,9.0,,371.0,,59.0,,0.0,,9.0,,0.0,,9.0,,0.0,,9.0,,52.0,,20.0,,12.0,,18.0,,6105,0.0,9.0,423.0,62.94441992742486
6150,"Atka ANVSA, AK",35.0,,19.0,,1.0,,9.0,,0.0,,9.0,,29.0,,16.0,,0.0,,9.0,,0.0,,9.0,,0.0,,9.0,,5.0,,5.0,,0.0,,9.0,,6150,0.0,9.0,34.0,19.026297590440446
6100,"Angoon ANVSA, AK",523.0,,120.0,,92.0,,52.0,,58.0,,46.0,,227.0,,53.0,,22.0,,36.0,,3.0,,5.0,,0.0,,9.0,,47.0,,21.0,,74.0,,55.0,,6100,25.0,36.345563690772494,274.0,57.7148161220323
6125,"Anvik ANVSA, AK",104.0,,25.0,,0.0,,9.0,,0.0,,9.0,,97.0,,27.0,,0.0,,9.0,,0.0,,9.0,,0.0,,9.0,,7.0,,5.0,,0.0,,9.0,,6125,0.0,9.0,104.0,28.89636655359978
6165,"Atqasuk ANVSA, AK",164.0,,56.0,,4.0,,10.0,,0.0,,9.0,,156.0,,50.0,,0.0,,9.0,,0.0,,9.0,,0.0,,9.0,,4.0,,5.0,,0.0,,9.0,,6165,0.0,9.0,160.0,51.048996072400875
6140,"Arctic Village ANVSA, AK",153.0,,32.0,,10.0,,9.0,,0.0,,9.0,,119.0,,29.0,,0.0,,9.0,,0.0,,9.0,,0.0,,9.0,,24.0,,16.0,,0.0,,9.0,,6140,0.0,9.0,143.0,34.322004603461025
6195,"Belkofski ANVSA, AK",0.0,,9.0,,0.0,,9.0,,0.0,,9.0,,0.0,,9.0,,0.0,,9.0,,0.0,,9.0,,0.0,,9.0,,0.0,,9.0,,0.0,,9.0,,6195,0.0,9.0,0.0,9.0
6585,"Holy Cross ANVSA, AK",183.0,,32.0,,8.0,,7.0,,0.0,,9.0,,172.0,,32.0,,3.0,,4.0,,0.0,,9.0,,0.0,,9.0,,0.0,,9.0,,0.0,,9.0,,6585,3.0,9.848857801796104,172.0,33.24154027718932
6535,"Georgetown ANVSA, AK",0.0,,9.0,,0.0,,9.0,,0.0,,9.0,,0.0,,9.0,,0.0,,9.0,,0.0,,9.0,,0.0,,9.0,,0.0,,9.0,,0.0,,9.0,,6535,0.0,9.0,0.0,9.0
6525,"Galena ANVSA, AK",510.0,,67.0,,168.0,,41.0,,0.0,,9.0,,301.0,,50.0,,6.0,,7.0,,0.0,,9.0,,0.0,,9.0,,29.0,,11.0,,6.0,,5.0,,6525,6.0,11.40175425099138,330.0,51.980765673468106
6530,"Gambell ANVSA, AK",601.0,,55.0,,3.0,,6.0,,0.0,,9.0,,584.0,,58.0,,0.0,,9.0,,2.0,,3.0,,0.0,,9.0,,10.0,,11.0,,2.0,,3.0,,6530,2.0,9.486832980505138,594.0,59.715994507334464
6575,"Healy Lake ANVSA, AK",4.0,,6.0,,0.0,,9.0,,0.0,,9.0,,0.0,,9.0,,0.0,,9.0,,0.0,,9.0,,0.0,,9.0,,4.0,,6.0,,0.0,,9.0,,6575,0.0,9.0,4.0,10.816653826391969
6545,"Goodnews Bay ANVSA, AK",192.0,,42.0,,9.0,,9.0,,0.0,,9.0,,170.0,,38.0,,0.0,,9.0,,0.0,,9.0,,0.0,,9.0,,13.0,,13.0,,0.0,,9.0,,6545,0.0,9.0,183.0,41.15823125451335
6560,"Gulkana ANVSA, AK",76.0,,56.0,,32.0,,33.0,,0.0,,9.0,,44.0,,44.0,,0.0,,9.0,,0.0,,9.0,,0.0,,9.0,,0.0,,9.0,,0.0,,9.0,,6560,0.0,9.0,44.0,44.91102314577124
6500,"False Pass ANVSA, AK",78.0,,25.0,,31.0,,19.0,,0.0,,9.0,,36.0,,22.0,,6.0,,7.0,,0.0,,9.0,,0.0,,9.0,,0.0,,9.0,,5.0,,6.0,,6500,6.0,11.40175425099138,36.0,23.769728648009426
6540,"Golovin ANVSA, AK",128.0,,33.0,,5.0,,6.0,,0.0,,9.0,,121.0,,32.0,,0.0,,9.0,,0.0,,9.0,,0.0,,9.0,,0.0,,9.0,,2.0,,3.0,,6540,0.0,9.0,121.0,33.24154027718932
6590,"Hoonah ANVSA, AK",800.0,,105.0,,190.0,,43.0,,7.0,,5.0,,428.0,,79.0,,38.0,,31.0,,0.0,,9.0,,0.0,,9.0,,89.0,,23.0,,48.0,,30.0,,6590,38.0,32.28002478313795,517.0,82.77076778670111
6520,"Gakona ANVSA, AK",103.0,,51.0,,65.0,,42.0,,0.0,,9.0,,36.0,,30.0,,0.0,,9.0,,0.0,,9.0,,0.0,,9.0,,2.0,,7.0,,0.0,,9.0,,6520,0.0,9.0,38.0,32.09361307176243
6570,"Hamilton ANVSA, AK",0.0,,9.0,,0.0,,9.0,,0.0,,9.0,,0.0,,9.0,,0.0,,9.0,,0.0,,9.0,,0.0,,9.0,,0.0,,9.0,,0.0,,9.0,,6570,0.0,9.0,0.0,9.0
6515,"Fort Yukon ANVSA, AK",533.0,,64.0,,57.0,,35.0,,0.0,,9.0,,452.0,,66.0,,12.0,,14.0,,0.0,,9.0,,0.0,,9.0,,12.0,,9.0,,0.0,,9.0,,6515,12.0,16.64331697709324,464.0,67.21606950722423
6550,"Grayling ANVSA, AK",176.0,,37.0,,1.0,,2.0,,0.0,,9.0,,160.0,,35.0,,0.0,,9.0,,0.0,,9.0,,0.0,,9.0,,0.0,,9.0,,15.0,,14.0,,6550,0.0,9.0,160.0,36.138621999185304
6595,"Hooper Bay ANVSA, AK",1101.0,,122.0,,27.0,,40.0,,3.0,,4.0,,1059.0,,109.0,,0.0,,9.0,,0.0,,9.0,,0.0,,9.0,,12.0,,10.0,,0.0,,9.0,,6595,0.0,9.0,1071.0,109.82713690158731
6490,"Evansville ANVSA, AK",77.0,,137.0,,48.0,,91.0,,0.0,,9.0,,27.0,,46.0,,0.0,,9.0,,0.0,,9.0,,0.0,,9.0,,2.0,,3.0,,0.0,,9.0,,6490,0.0,9.0,29.0,46.968074263269514
6445,"Egegik ANVSA, AK",83.0,,32.0,,27.0,,19.0,,8.0,,17.0,,18.0,,11.0,,14.0,,17.0,,0.0,,9.0,,0.0,,9.0,,8.0,,17.0,,8.0,,18.0,,6445,14.0,19.235384061671343,26.0,22.15851980616034
6480,"Emmonak ANVSA, AK",761.0,,86.0,,9.0,,18.0,,2.0,,3.0,,741.0,,87.0,,7.0,,9.0,,0.0,,9.0,,0.0,,9.0,,2.0,,3.0,,0.0,,9.0,,6480,7.0,12.727922061357855,743.0,87.51571287488893
6420,"Douglas ANVSA, AK",6134.0,,321.0,,4424.0,,265.0,,51.0,,39.0,,480.0,,131.0,,224.0,,102.0,,61.0,,52.0,,6.0,,10.0,,482.0,,120.0,,406.0,,162.0,,6420,285.0,114.49017425089369,968.0,177.93538152936307
6470,"Elim ANVSA, AK",303.0,,45.0,,2.0,,4.0,,0.0,,9.0,,297.0,,44.0,,0.0,,9.0,,0.0,,9.0,,0.0,,9.0,,4.0,,4.0,,0.0,,9.0,,6470,0.0,9.0,301.0,45.088801270381985
6400,"Deering ANVSA, AK",154.0,,31.0,,1.0,,3.0,,0.0,,9.0,,149.0,,32.0,,4.0,,6.0,,0.0,,9.0,,0.0,,9.0,,0.0,,9.0,,0.0,,9.0,,6400,4.0,10.816653826391969,149.0,33.24154027718932
6450,"Eklutna ANVSA, AK",43.0,,38.0,,2.0,,4.0,,0.0,,9.0,,38.0,,37.0,,0.0,,9.0,,0.0,,9.0,,0.0,,9.0,,3.0,,5.0,,0.0,,9.0,,6450,0.0,9.0,41.0,38.40572873934304
6430,"Eagle ANVSA, AK",25.0,,12.0,,11.0,,10.0,,0.0,,9.0,,7.0,,7.0,,0.0,,9.0,,0.0,,9.0,,0.0,,9.0,,7.0,,5.0,,0.0,,9.0,,6430,0.0,9.0,14.0,12.449899597988733
6495,"Eyak ANVSA, AK",257.0,,104.0,,194.0,,88.0,,0.0,,9.0,,6.0,,16.0,,3.0,,8.0,,0.0,,9.0,,0.0,,9.0,,44.0,,43.0,,10.0,,13.0,,6495,3.0,12.041594578792296,50.0,46.75467891024384
6440,"Eek ANVSA, AK",518.0,,54.0,,0.0,,9.0,,0.0,,9.0,,501.0,,55.0,,0.0,,9.0,,0.0,,9.0,,0.0,,9.0,,0.0,,9.0,,17.0,,17.0,,6440,0.0,9.0,501.0,55.731499172371095
6405,"Dillingham ANVSA, AK",2315.0,,169.0,,576.0,,117.0,,26.0,,19.0,,1271.0,,119.0,,36.0,,57.0,,3.0,,5.0,,0.0,,9.0,,230.0,,73.0,,173.0,,2.0,,6405,39.0,57.21887800367987,1501.0,139.89639023220005
6460,"Ekwok ANVSA, AK",80.0,,25.0,,0.0,,9.0,,0.0,,9.0,,80.0,,25.0,,0.0,,9.0,,0.0,,9.0,,0.0,,9.0,,0.0,,9.0,,0.0,,9.0,,6460,0.0,9.0,80.0,26.570660511172846
6455,"Ekuk ANVSA, AK",0.0,,9.0,,0.0,,9.0,,0.0,,9.0,,0.0,,9.0,,0.0,,9.0,,0.0,,9.0,,0.0,,9.0,,0.0,,9.0,,0.0,,9.0,,6455,0.0,9.0,0.0,9.0
6415,"Dot Lake ANVSA, AK",38.0,,23.0,,3.0,,4.0,,0.0,,9.0,,24.0,,17.0,,0.0,,9.0,,0.0,,9.0,,0.0,,9.0,,11.0,,13.0,,0.0,,9.0,,6415,0.0,9.0,35.0,23.2163735324878
6670,"Kake ANVSA, AK",578.0,,82.0,,85.0,,37.0,,6.0,,10.0,,415.0,,69.0,,15.0,,16.0,,0.0,,9.0,,0.0,,9.0,,52.0,,32.0,,5.0,,7.0,,6670,15.0,18.35755975068582,467.0,76.58981655546643
6605,"Hughes ANVSA, AK",90.0,,24.0,,0.0,,9.0,,0.0,,9.0,,83.0,,21.0,,7.0,,11.0,,0.0,,9.0,,0.0,,9.0,,0.0,,9.0,,0.0,,9.0,,6605,7.0,14.212670403551895,83.0,22.847319317591726
6690,"Kaltag ANVSA, AK",172.0,,52.0,,27.0,,24.0,,0.0,,9.0,,131.0,,28.0,,0.0,,9.0,,0.0,,9.0,,0.0,,9.0,,14.0,,22.0,,0.0,,9.0,,6690,0.0,9.0,145.0,36.72873534441391
6615,"Hydaburg ANVSA, AK",330.0,,59.0,,41.0,,23.0,,4.0,,6.0,,237.0,,47.0,,0.0,,9.0,,29.0,,19.0,,0.0,,9.0,,19.0,,15.0,,0.0,,9.0,,6615,29.0,21.02379604162864,256.0,50.149775672479336
6680,"Kaktovik ANVSA, AK",178.0,,60.0,,6.0,,10.0,,2.0,,5.0,,160.0,,52.0,,0.0,,9.0,,0.0,,9.0,,0.0,,9.0,,10.0,,9.0,,0.0,,9.0,,6680,0.0,9.0,170.0,53.53503525729669
6610,"Huslia ANVSA, AK",404.0,,50.0,,22.0,,13.0,,0.0,,9.0,,349.0,,52.0,,0.0,,9.0,,0.0,,9.0,,0.0,,9.0,,21.0,,16.0,,12.0,,10.0,,6610,0.0,9.0,370.0,55.14526271584895
6650,"Ivanof Bay ANVSA, AK",0.0,,9.0,,0.0,,9.0,,0.0,,9.0,,0.0,,9.0,,0.0,,9.0,,0.0,,9.0,,0.0,,9.0,,0.0,,9.0,,0.0,,9.0,,6650,0.0,9.0,0.0,9.0
6630,"Inalik ANVSA, AK",94.0,,26.0,,0.0,,9.0,,0.0,,9.0,,94.0,,26.0,,0.0,,9.0,,0.0,,9.0,,0.0,,9.0,,0.0,,9.0,,0.0,,9.0,,6630,0.0,9.0,94.0,27.51363298439521
6685,"Kalskag ANVSA, AK",222.0,,34.0,,10.0,,8.0,,0.0,,9.0,,200.0,,36.0,,0.0,,9.0,,0.0,,9.0,,0.0,,9.0,,10.0,,8.0,,2.0,,3.0,,6685,0.0,9.0,210.0,37.960505792204614
6620,"Igiugig ANVSA, AK",62.0,,22.0,,5.0,,4.0,,0.0,,9.0,,55.0,,20.0,,0.0,,9.0,,0.0,,9.0,,0.0,,9.0,,0.0,,9.0,,2.0,,3.0,,6620,0.0,9.0,55.0,21.93171219946131
6625,"Iliamna ANVSA, AK",63.0,,31.0,,12.0,,11.0,,0.0,,9.0,,44.0,,22.0,,0.0,,9.0,,0.0,,9.0,,0.0,,9.0,,7.0,,8.0,,0.0,,9.0,,6625,0.0,9.0,51.0,25.079872407968907
6945,"Mentasta Lake ANVSA, AK",184.0,,72.0,,0.0,,9.0,,0.0,,9.0,,184.0,,72.0,,0.0,,9.0,,0.0,,9.0,,0.0,,9.0,,0.0,,9.0,,0.0,,9.0,,6945,0.0,9.0,184.0,72.56031973468694
6910,"Marshall ANVSA, AK",299.0,,48.0,,0.0,,9.0,,0.0,,9.0,,288.0,,47.0,,0.0,,9.0,,0.0,,9.0,,0.0,,9.0,,11.0,,13.0,,0.0,,9.0,,6910,0.0,9.0,299.0,49.58830507286975
6965,"Minto ANVSA, AK",229.0,,38.0,,5.0,,5.0,,0.0,,9.0,,212.0,,37.0,,0.0,,9.0,,0.0,,9.0,,0.0,,9.0,,12.0,,7.0,,0.0,,9.0,,6965,0.0,9.0,224.0,38.71692136521188
6935,"Mekoryuk ANVSA, AK",226.0,,35.0,,1.0,,4.0,,0.0,,9.0,,220.0,,34.0,,0.0,,9.0,,0.0,,9.0,,0.0,,9.0,,5.0,,5.0,,0.0,,9.0,,6935,0.0,9.0,225.0,35.52463933666322
6900,"Manley Hot Springs ANVSA, AK",80.0,,29.0,,47.0,,18.0,,0.0,,9.0,,8.0,,7.0,,0.0,,9.0,,0.0,,9.0,,0.0,,9.0,,11.0,,11.0,,14.0,,15.0,,6900,0.0,9.0,19.0,15.84297951775486
6905,"Manokotak ANVSA, AK",804.0,,156.0,,133.0,,125.0,,0.0,,9.0,,632.0,,61.0,,34.0,,73.0,,0.0,,9.0,,0.0,,9.0,,5.0,,8.0,,0.0,,9.0,,6905,34.0,73.55270219373317,637.0,62.177166226839255
6995,"Nanwalek ANVSA, AK",212.0,,64.0,,20.0,,11.0,,0.0,,9.0,,142.0,,51.0,,1.0,,2.0,,0.0,,9.0,,0.0,,9.0,,39.0,,28.0,,10.0,,12.0,,6995,1.0,9.219544457292887,181.0,58.872744118140105
6975,"Mountain Village ANVSA, AK",828.0,,243.0,,82.0,,158.0,,0.0,,9.0,,662.0,,69.0,,0.0,,9.0,,0.0,,9.0,,0.0,,9.0,,38.0,,18.0,,46.0,,79.0,,6975,0.0,9.0,700.0,71.87489130426563
6990,"Naknek ANVSA, AK",464.0,,81.0,,209.0,,50.0,,0.0,,9.0,,183.0,,39.0,,0.0,,9.0,,2.0,,4.0,,0.0,,9.0,,52.0,,22.0,,18.0,,13.0,,6990,2.0,9.848857801796104,235.0,45.67274898667694
6915,"Mary's Igloo ANVSA, AK",0.0,,9.0,,0.0,,9.0,,0.0,,9.0,,0.0,,9.0,,0.0,,9.0,,0.0,,9.0,,0.0,,9.0,,0.0,,9.0,,0.0,,9.0,,6915,0.0,9.0,0.0,9.0
6765,"Klawock ANVSA, AK",675.0,,75.0,,226.0,,42.0,,3.0,,5.0,,336.0,,59.0,,0.0,,9.0,,7.0,,11.0,,0.0,,9.0,,77.0,,24.0,,26.0,,18.0,,6765,7.0,14.212670403551895,413.0,64.32728814430156
6710,"Kasigluk ANVSA, AK",574.0,,66.0,,0.0,,9.0,,0.0,,9.0,,572.0,,66.0,,0.0,,9.0,,0.0,,9.0,,0.0,,9.0,,2.0,,2.0,,0.0,,9.0,,6710,0.0,9.0,574.0,66.64082832618455
6725,"Ketchikan ANVSA, AK",13208.0,,116.0,,8574.0,,94.0,,95.0,,26.0,,1677.0,,146.0,,1024.0,,73.0,,5.0,,8.0,,60.0,,51.0,,1087.0,,157.0,,686.0,,12.0,,6725,1029.0,73.43704787094863,2824.0,220.37694979284925
6740,"King Salmon ANVSA, AK",179.0,,35.0,,85.0,,23.0,,0.0,,9.0,,62.0,,21.0,,3.0,,4.0,,0.0,,9.0,,0.0,,9.0,,22.0,,12.0,,7.0,,7.0,,6740,3.0,9.848857801796104,84.0,25.80697580112788
6795,"Kodiak ANVSA, AK",0.0,,9.0,,0.0,,9.0,,0.0,,9.0,,0.0,,9.0,,0.0,,9.0,,0.0,,9.0,,0.0,,9.0,,0.0,,9.0,,0.0,,9.0,,6795,0.0,9.0,0.0,9.0
6700,"Karluk ANVSA, AK",44.0,,31.0,,0.0,,9.0,,0.0,,9.0,,39.0,,29.0,,0.0,,9.0,,0.0,,9.0,,0.0,,9.0,,5.0,,8.0,,0.0,,9.0,,6700,0.0,9.0,44.0,31.400636936215164
6750,"Kipnuk ANVSA, AK",613.0,,65.0,,2.0,,4.0,,2.0,,3.0,,601.0,,64.0,,0.0,,9.0,,0.0,,9.0,,0.0,,9.0,,8.0,,9.0,,0.0,,9.0,,6750,0.0,9.0,609.0,65.25335240430181
6730,"Kiana ANVSA, AK",299.0,,51.0,,9.0,,8.0,,0.0,,9.0,,267.0,,51.0,,2.0,,4.0,,0.0,,9.0,,0.0,,9.0,,21.0,,21.0,,0.0,,9.0,,6730,2.0,9.848857801796104,288.0,55.883808030591474
6785,"Knik ANVSA, AK",76056.0,,633.0,,60213.0,,544.0,,675.0,,204.0,,4283.0,,418.0,,1102.0,,184.0,,113.0,,54.0,,172.0,,192.0,,5817.0,,483.0,,3681.0,,178.0,,6785,1215.0,191.7602670002313,10272.0,666.9910044370913
6755,"Kivalina ANVSA, AK",688.0,,84.0,,34.0,,55.0,,0.0,,9.0,,652.0,,67.0,,0.0,,9.0,,0.0,,9.0,,0.0,,9.0,,2.0,,4.0,,0.0,,9.0,,6755,0.0,9.0,654.0,67.72001181334805
6720,"Kenaitze ANVSA, AK",35097.0,,676.0,,28855.0,,656.0,,166.0,,91.0,,2312.0,,383.0,,436.0,,193.0,,88.0,,90.0,,64.0,,71.0,,1868.0,,375.0,,1308.0,,246.0,,6720,524.0,212.9530464679949,4244.0,540.6986221547082
6735,"King Cove ANVSA, AK",1074.0,,168.0,,97.0,,32.0,,17.0,,16.0,,544.0,,102.0,,321.0,,113.0,,0.0,,9.0,,0.0,,9.0,,37.0,,19.0,,58.0,,66.0,,6735,321.0,113.35784048754634,581.0,104.14413089560064
6790,"Kobuk ANVSA, AK",143.0,,43.0,,10.0,,8.0,,0.0,,9.0,,130.0,,41.0,,0.0,,9.0,,0.0,,9.0,,0.0,,9.0,,0.0,,9.0,,3.0,,6.0,,6790,0.0,9.0,130.0,41.97618372363071
6705,"Kasaan ANVSA, AK",75.0,,29.0,,48.0,,23.0,,0.0,,9.0,,23.0,,15.0,,0.0,,9.0,,0.0,,9.0,,0.0,,9.0,,4.0,,6.0,,0.0,,9.0,,6705,0.0,9.0,27.0,18.49324200890693
6895,"McGrath ANVSA, AK",283.0,,45.0,,96.0,,27.0,,6.0,,7.0,,117.0,,29.0,,0.0,,9.0,,0.0,,9.0,,0.0,,9.0,,50.0,,22.0,,14.0,,12.0,,6895,0.0,9.0,167.0,37.49666651850535
6830,"Koyukuk ANVSA, AK",62.0,,19.0,,0.0,,9.0,,0.0,,9.0,,60.0,,18.0,,0.0,,9.0,,0.0,,9.0,,0.0,,9.0,,2.0,,3.0,,0.0,,9.0,,6830,0.0,9.0,62.0,20.346989949375804
6850,"Lake Minchumina ANVSA, AK",14.0,,11.0,,14.0,,11.0,,0.0,,9.0,,0.0,,9.0,,0.0,,9.0,,0.0,,9.0,,0.0,,9.0,,0.0,,9.0,,0.0,,9.0,,6850,0.0,9.0,0.0,9.0
6860,"Lesnoi ANVSA, AK",0.0,,9.0,,0.0,,9.0,,0.0,,9.0,,0.0,,9.0,,0.0,,9.0,,0.0,,9.0,,0.0,,9.0,,0.0,,9.0,,0.0,,9.0,,6860,0.0,9.0,0.0,9.0
6855,"Larsen Bay ANVSA, AK",52.0,,26.0,,18.0,,16.0,,0.0,,9.0,,27.0,,21.0,,0.0,,9.0,,0.0,,9.0,,0.0,,9.0,,4.0,,6.0,,3.0,,5.0,,6855,0.0,9.0,31.0,23.62202362203543
6835,"Kwethluk ANVSA, AK",653.0,,68.0,,1.0,,4.0,,0.0,,9.0,,646.0,,68.0,,3.0,,4.0,,0.0,,9.0,,0.0,,9.0,,3.0,,3.0,,0.0,,9.0,,6835,3.0,9.848857801796104,649.0,68.65857557508748
6890,"Lower Kalskag ANVSA, AK",283.0,,43.0,,7.0,,9.0,,0.0,,9.0,,268.0,,42.0,,0.0,,9.0,,0.0,,9.0,,0.0,,9.0,,8.0,,6.0,,0.0,,9.0,,6890,0.0,9.0,276.0,43.37049688440288
6810,"Kongiganak ANVSA, AK",441.0,,68.0,,2.0,,3.0,,0.0,,9.0,,405.0,,59.0,,0.0,,9.0,,0.0,,9.0,,0.0,,9.0,,3.0,,4.0,,31.0,,34.0,,6810,0.0,9.0,408.0,59.81638571495272
6865,"Levelock ANVSA, AK",76.0,,32.0,,3.0,,3.0,,0.0,,9.0,,72.0,,32.0,,0.0,,9.0,,0.0,,9.0,,0.0,,9.0,,0.0,,9.0,,1.0,,2.0,,6865,0.0,9.0,72.0,33.24154027718932
6825,"Koyuk ANVSA, AK",271.0,,46.0,,2.0,,5.0,,0.0,,9.0,,253.0,,42.0,,1.0,,3.0,,0.0,,9.0,,0.0,,9.0,,15.0,,15.0,,0.0,,9.0,,6825,1.0,9.486832980505138,268.0,45.4972526643093
6845,"Kwinhagak ANVSA, AK",796.0,,203.0,,112.0,,209.0,,0.0,,9.0,,676.0,,64.0,,2.0,,3.0,,0.0,,9.0,,0.0,,9.0,,6.0,,4.0,,0.0,,9.0,,6845,2.0,9.486832980505138,682.0,64.7533782902483
6840,"Kwigillingok ANVSA, AK",379.0,,61.0,,1.0,,3.0,,0.0,,9.0,,378.0,,60.0,,0.0,,9.0,,0.0,,9.0,,0.0,,9.0,,0.0,,9.0,,0.0,,9.0,,6840,0.0,9.0,378.0,60.67124524847005
6875,"Lime Village ANVSA, AK",8.0,,7.0,,0.0,,9.0,,0.0,,9.0,,6.0,,8.0,,0.0,,9.0,,0.0,,9.0,,0.0,,9.0,,2.0,,3.0,,0.0,,9.0,,6875,0.0,9.0,8.0,12.409673645990857
6800,"Kokhanok ANVSA, AK",150.0,,56.0,,12.0,,12.0,,0.0,,9.0,,138.0,,49.0,,0.0,,9.0,,0.0,,9.0,,0.0,,9.0,,0.0,,9.0,,0.0,,9.0,,6800,0.0,9.0,138.0,49.8196748283246
6820,"Kotzebue ANVSA, AK",3288.0,,25.0,,634.0,,59.0,,59.0,,35.0,,2269.0,,87.0,,50.0,,32.0,,0.0,,9.0,,0.0,,9.0,,208.0,,72.0,,68.0,,38.0,,6820,50.0,33.24154027718932,2477.0,113.28724553099524
6815,"Kotlik ANVSA, AK",811.0,,76.0,,6.0,,16.0,,3.0,,4.0,,794.0,,75.0,,0.0,,9.0,,0.0,,9.0,,0.0,,9.0,,8.0,,7.0,,0.0,,9.0,,6815,0.0,9.0,802.0,75.8617163001207
7025,"Nelson Lagoon ANVSA, AK",74.0,,28.0,,12.0,,9.0,,0.0,,9.0,,55.0,,27.0,,0.0,,9.0,,0.0,,9.0,,0.0,,9.0,,0.0,,9.0,,7.0,,11.0,,7025,0.0,9.0,55.0,28.460498941515414
7095,"Nome ANVSA, AK",4014.0,,71.0,,1109.0,,105.0,,69.0,,17.0,,2083.0,,179.0,,20.0,,87.0,,41.0,,31.0,,0.0,,9.0,,445.0,,105.0,,247.0,,6.0,,7095,61.0,92.35799911215054,2528.0,207.71855959446665
7035,"Newhalen ANVSA, AK",121.0,,46.0,,11.0,,8.0,,0.0,,9.0,,94.0,,38.0,,0.0,,9.0,,0.0,,9.0,,0.0,,9.0,,8.0,,7.0,,8.0,,9.0,,7035,0.0,9.0,102.0,39.67366884975475
7055,"Newtok ANVSA, AK",360.0,,53.0,,2.0,,4.0,,0.0,,9.0,,356.0,,52.0,,0.0,,9.0,,2.0,,2.0,,0.0,,9.0,,0.0,,9.0,,0.0,,9.0,,7055,2.0,9.219544457292887,356.0,52.773099207835045
7050,"New Stuyahok ANVSA, AK",557.0,,96.0,,3.0,,4.0,,36.0,,79.0,,503.0,,64.0,,1.0,,3.0,,0.0,,9.0,,0.0,,9.0,,14.0,,11.0,,0.0,,9.0,,7050,1.0,9.486832980505138,517.0,65.55913361233506
7020,"Napaskiak ANVSA, AK",356.0,,57.0,,1.0,,3.0,,0.0,,9.0,,351.0,,58.0,,0.0,,9.0,,0.0,,9.0,,0.0,,9.0,,4.0,,5.0,,0.0,,9.0,,7020,0.0,9.0,355.0,58.90670590009256
7065,"Nightmute ANVSA, AK",189.0,,34.0,,0.0,,9.0,,0.0,,9.0,,189.0,,34.0,,0.0,,9.0,,0.0,,9.0,,0.0,,9.0,,0.0,,9.0,,0.0,,9.0,,7065,0.0,9.0,189.0,35.17101079013795
7040,"New Koliganek ANVSA, AK",161.0,,38.0,,12.0,,11.0,,0.0,,9.0,,144.0,,38.0,,0.0,,9.0,,0.0,,9.0,,0.0,,9.0,,5.0,,6.0,,0.0,,9.0,,7040,0.0,9.0,149.0,39.50949253027682
7010,"Napakiak ANVSA, AK",369.0,,47.0,,13.0,,9.0,,0.0,,9.0,,356.0,,48.0,,0.0,,9.0,,0.0,,9.0,,0.0,,9.0,,0.0,,9.0,,0.0,,9.0,,7010,0.0,9.0,356.0,48.83646178829912
7070,"Nikolai ANVSA, AK",114.0,,30.0,,8.0,,6.0,,0.0,,9.0,,100.0,,29.0,,0.0,,9.0,,0.0,,9.0,,0.0,,9.0,,3.0,,4.0,,3.0,,4.0,,7070,0.0,9.0,103.0,30.62678566222711
7005,"Napaimute ANVSA, AK",0.0,,9.0,,0.0,,9.0,,0.0,,9.0,,0.0,,9.0,,0.0,,9.0,,0.0,,9.0,,0.0,,9.0,,0.0,,9.0,,0.0,,9.0,,7005,0.0,9.0,0.0,9.0
7085,"Noatak ANVSA, AK",422.0,,48.0,,4.0,,6.0,,2.0,,3.0,,408.0,,48.0,,0.0,,9.0,,0.0,,9.0,,0.0,,9.0,,8.0,,9.0,,0.0,,9.0,,7085,0.0,9.0,416.0,49.658836071740545
7030,"Nenana ANVSA, AK",383.0,,62.0,,189.0,,41.0,,0.0,,9.0,,152.0,,36.0,,0.0,,9.0,,0.0,,9.0,,0.0,,9.0,,38.0,,15.0,,4.0,,4.0,,7030,0.0,9.0,190.0,40.024992192379
7080,"Ninilchik ANVSA, AK",15103.0,,476.0,,12873.0,,419.0,,52.0,,38.0,,673.0,,146.0,,144.0,,65.0,,19.0,,31.0,,31.0,,19.0,,707.0,,115.0,,604.0,,172.0,,7080,163.0,72.01388754955533,1411.0,186.82076972328318
7075,"Nikolski ANVSA, AK",26.0,,12.0,,6.0,,6.0,,0.0,,9.0,,17.0,,11.0,,0.0,,9.0,,0.0,,9.0,,0.0,,9.0,,3.0,,3.0,,0.0,,9.0,,7075,0.0,9.0,20.0,14.52583904633395
7100,"Nondalton ANVSA, AK",114.0,,44.0,,13.0,,9.0,,0.0,,9.0,,90.0,,34.0,,0.0,,9.0,,3.0,,4.0,,2.0,,3.0,,6.0,,6.0,,0.0,,9.0,,7100,3.0,9.848857801796104,98.0,34.655446902326915
7145,"Ohogamiut ANVSA, AK",0.0,,9.0,,0.0,,9.0,,0.0,,9.0,,0.0,,9.0,,0.0,,9.0,,0.0,,9.0,,0.0,,9.0,,0.0,,9.0,,0.0,,9.0,,7145,0.0,9.0,0.0,9.0
7185,"Paimiut ANVSA, AK",0.0,,9.0,,0.0,,9.0,,0.0,,9.0,,0.0,,9.0,,0.0,,9.0,,0.0,,9.0,,0.0,,9.0,,0.0,,9.0,,0.0,,9.0,,7185,0.0,9.0,0.0,9.0
7150,"Old Harbor ANVSA, AK",249.0,,71.0,,46.0,,19.0,,0.0,,9.0,,157.0,,58.0,,0.0,,9.0,,6.0,,10.0,,0.0,,9.0,,34.0,,30.0,,6.0,,7.0,,7150,6.0,13.45362404707371,191.0,65.91661399070799
7180,"Ouzinkie ANVSA, AK",180.0,,63.0,,21.0,,16.0,,0.0,,9.0,,117.0,,54.0,,0.0,,9.0,,0.0,,9.0,,0.0,,9.0,,42.0,,25.0,,0.0,,9.0,,7180,0.0,9.0,159.0,60.18305409332431
7135,"Nunapitchuk ANVSA, AK",869.0,,283.0,,0.0,,9.0,,0.0,,9.0,,848.0,,285.0,,0.0,,9.0,,0.0,,9.0,,0.0,,9.0,,21.0,,13.0,,0.0,,9.0,,7135,0.0,9.0,869.0,285.4382595238417
7175,"Oscarville ANVSA, AK",64.0,,25.0,,11.0,,10.0,,0.0,,9.0,,53.0,,22.0,,0.0,,9.0,,0.0,,9.0,,0.0,,9.0,,0.0,,9.0,,0.0,,9.0,,7175,0.0,9.0,53.0,23.769728648009426
7110,"Noorvik ANVSA, AK",597.0,,82.0,,29.0,,55.0,,0.0,,9.0,,561.0,,63.0,,0.0,,9.0,,0.0,,9.0,,0.0,,9.0,,7.0,,7.0,,0.0,,9.0,,7110,0.0,9.0,568.0,64.02343321003646
7133,"Nunam Iqua ANVSA, AK",167.0,,42.0,,0.0,,9.0,,0.0,,9.0,,159.0,,40.0,,8.0,,10.0,,0.0,,9.0,,0.0,,9.0,,0.0,,9.0,,0.0,,9.0,,7133,8.0,13.45362404707371,159.0,41.0
7130,"Nulato ANVSA, AK",257.0,,36.0,,6.0,,7.0,,0.0,,9.0,,247.0,,34.0,,0.0,,9.0,,0.0,,9.0,,0.0,,9.0,,4.0,,4.0,,0.0,,9.0,,7130,0.0,9.0,251.0,35.397740040855716
7115,"Northway ANVSA, AK",262.0,,83.0,,26.0,,21.0,,0.0,,9.0,,229.0,,71.0,,0.0,,9.0,,0.0,,9.0,,0.0,,9.0,,7.0,,10.0,,0.0,,9.0,,7115,0.0,9.0,236.0,72.26340706055866
5620,"Creek OTSA, OK",792241.0,,1465.0,,526946.0,,1409.0,,54465.0,,1131.0,,55267.0,,1150.0,,20783.0,,642.0,,504.0,,140.0,,1231.0,,304.0,,58548.0,,1547.0,,74497.0,,919.0,,5620,21287.0,657.0875131974432,115046.0,1951.4417746886531
5690,"Kaw OTSA, OK",5834.0,,225.0,,4870.0,,218.0,,28.0,,19.0,,396.0,,59.0,,46.0,,30.0,,0.0,,13.0,,0.0,,13.0,,346.0,,75.0,,148.0,,41.0,,5690,46.0,32.69556544854363,742.0,96.30680142129111
7125,"Nuiqsut ANVSA, AK",469.0,,171.0,,84.0,,126.0,,0.0,,9.0,,373.0,,105.0,,0.0,,9.0,,4.0,,6.0,,0.0,,9.0,,8.0,,11.0,,0.0,,9.0,,7125,4.0,10.816653826391969,381.0,105.95753866525968
5600,"Citizen Potawatomi Nation-Absentee Shawnee OTSA, OK",124874.0,,1161.0,,97404.0,,1571.0,,6324.0,,669.0,,8584.0,,552.0,,935.0,,180.0,,68.0,,48.0,,36.0,,32.0,,6080.0,,523.0,,5443.0,,631.0,,5600,1003.0,186.29009635512028,14700.0,761.0893508649297
5640,"Eastern Shawnee OTSA, OK",874.0,,60.0,,553.0,,49.0,,15.0,,13.0,,166.0,,38.0,,4.0,,4.0,,0.0,,9.0,,0.0,,9.0,,99.0,,25.0,,37.0,,13.0,,5640,4.0,9.848857801796104,265.0,46.36809247747852
5670,"Iowa OTSA, OK",6590.0,,461.0,,5711.0,,406.0,,158.0,,66.0,,299.0,,89.0,,3.0,,6.0,,0.0,,13.0,,1.0,,2.0,,195.0,,59.0,,223.0,,72.0,,5670,3.0,14.317821063276353,495.0,106.7988763985839
7425,"Scammon Bay ANVSA, AK",585.0,,70.0,,3.0,,6.0,,0.0,,9.0,,581.0,,71.0,,0.0,,9.0,,0.0,,9.0,,0.0,,9.0,,1.0,,3.0,,0.0,,9.0,,7425,0.0,9.0,582.0,71.63099887618489
7475,"Sitka ANVSA, AK",4701.0,,219.0,,2572.0,,190.0,,31.0,,30.0,,752.0,,114.0,,455.0,,96.0,,0.0,,9.0,,3.0,,5.0,,568.0,,98.0,,320.0,,69.0,,7475,455.0,96.42095207992918,1323.0,150.41608956491322
7485,"Skagway ANVSA, AK",1061.0,,123.0,,887.0,,153.0,,7.0,,12.0,,45.0,,35.0,,19.0,,16.0,,0.0,,9.0,,3.0,,4.0,,45.0,,25.0,,55.0,,31.0,,7485,19.0,18.35755975068582,93.0,43.197222132910355
7415,"Savoonga ANVSA, AK",921.0,,81.0,,27.0,,21.0,,3.0,,5.0,,881.0,,80.0,,0.0,,9.0,,0.0,,9.0,,0.0,,9.0,,10.0,,9.0,,0.0,,9.0,,7415,0.0,9.0,891.0,81.00617260431454
7470,"Shungnak ANVSA, AK",288.0,,44.0,,32.0,,30.0,,0.0,,9.0,,248.0,,40.0,,1.0,,2.0,,0.0,,9.0,,0.0,,9.0,,7.0,,8.0,,0.0,,9.0,,7470,1.0,9.219544457292887,255.0,41.773197148410844
7400,"Salamatof ANVSA, AK",1015.0,,141.0,,667.0,,104.0,,33.0,,24.0,,187.0,,53.0,,14.0,,15.0,,5.0,,10.0,,0.0,,9.0,,70.0,,36.0,,39.0,,25.0,,7400,19.0,18.027756377319946,257.0,64.69930447848725
7410,"Sand Point ANVSA, AK",1372.0,,160.0,,217.0,,53.0,,4.0,,4.0,,574.0,,97.0,,308.0,,81.0,,14.0,,16.0,,0.0,,9.0,,160.0,,34.0,,95.0,,53.0,,7410,322.0,82.56512580987206,734.0,103.17945531936094
7435,"Seldovia ANVSA, AK",400.0,,60.0,,281.0,,45.0,,0.0,,9.0,,57.0,,28.0,,1.0,,2.0,,0.0,,9.0,,8.0,,10.0,,48.0,,23.0,,5.0,,6.0,,7435,1.0,9.219544457292887,113.0,37.589892258425
7465,"Shishmaref ANVSA, AK",525.0,,57.0,,37.0,,20.0,,2.0,,3.0,,470.0,,55.0,,1.0,,3.0,,0.0,,9.0,,0.0,,9.0,,15.0,,12.0,,0.0,,9.0,,7465,1.0,9.486832980505138,485.0,57.0087712549569
7420,"Saxman ANVSA, AK",360.0,,58.0,,49.0,,18.0,,0.0,,9.0,,257.0,,53.0,,1.0,,2.0,,0.0,,9.0,,0.0,,9.0,,41.0,,17.0,,12.0,,13.0,,7420,1.0,9.219544457292887,298.0,56.382621436041795
7495,"Sleetmute ANVSA, AK",83.0,,23.0,,14.0,,10.0,,0.0,,9.0,,65.0,,23.0,,0.0,,9.0,,0.0,,9.0,,0.0,,9.0,,2.0,,2.0,,2.0,,3.0,,7495,0.0,9.0,67.0,24.779023386727733
7440,"Shageluk ANVSA, AK",75.0,,22.0,,9.0,,7.0,,0.0,,9.0,,57.0,,21.0,,2.0,,4.0,,0.0,,9.0,,0.0,,9.0,,4.0,,5.0,,3.0,,4.0,,7440,2.0,9.848857801796104,61.0,23.388031127053
7450,"Shaktoolik ANVSA, AK",294.0,,40.0,,1.0,,2.0,,0.0,,9.0,,290.0,,40.0,,0.0,,9.0,,0.0,,9.0,,0.0,,9.0,,3.0,,4.0,,0.0,,9.0,,7450,0.0,9.0,293.0,41.19465984809196
7430,"Selawik ANVSA, AK",839.0,,94.0,,17.0,,14.0,,0.0,,9.0,,806.0,,96.0,,0.0,,9.0,,0.0,,9.0,,0.0,,9.0,,16.0,,13.0,,0.0,,9.0,,7430,0.0,9.0,822.0,97.29337079164233
7230,"Pilot Station ANVSA, AK",576.0,,64.0,,2.0,,6.0,,0.0,,9.0,,561.0,,62.0,,3.0,,6.0,,0.0,,9.0,,0.0,,9.0,,10.0,,8.0,,0.0,,9.0,,7230,3.0,10.816653826391969,571.0,63.15853069855251
7220,"Petersburg ANVSA, AK",2448.0,,253.0,,1560.0,,178.0,,23.0,,13.0,,183.0,,43.0,,284.0,,75.0,,17.0,,13.0,,1.0,,3.0,,279.0,,68.0,,101.0,,48.0,,7220,301.0,76.11832893594026,463.0,80.51086883148137
7263,"Port Alsworth ANVSA, AK",151.0,,62.0,,119.0,,50.0,,1.0,,2.0,,13.0,,10.0,,0.0,,9.0,,0.0,,9.0,,0.0,,9.0,,18.0,,20.0,,0.0,,9.0,,7263,0.0,9.0,31.0,24.1039415863879
7215,"Perryville ANVSA, AK",86.0,,31.0,,1.0,,2.0,,0.0,,9.0,,85.0,,31.0,,0.0,,9.0,,0.0,,9.0,,0.0,,9.0,,0.0,,9.0,,0.0,,9.0,,7215,0.0,9.0,85.0,32.28002478313795
7275,"Port Lions ANVSA, AK",190.0,,64.0,,62.0,,26.0,,0.0,,9.0,,109.0,,45.0,,0.0,,9.0,,0.0,,9.0,,0.0,,9.0,,15.0,,13.0,,4.0,,9.0,,7275,0.0,9.0,124.0,47.69696007084728
7225,"Pilot Point ANVSA, AK",83.0,,44.0,,20.0,,38.0,,0.0,,9.0,,57.0,,22.0,,0.0,,9.0,,0.0,,9.0,,0.0,,9.0,,6.0,,7.0,,0.0,,9.0,,7225,0.0,9.0,63.0,24.779023386727733
7235,"Pitkas Point ANVSA, AK",122.0,,31.0,,0.0,,9.0,,0.0,,9.0,,122.0,,31.0,,0.0,,9.0,,0.0,,9.0,,0.0,,9.0,,0.0,,9.0,,0.0,,9.0,,7235,0.0,9.0,122.0,32.28002478313795
7245,"Platinum ANVSA, AK",13.0,,7.0,,0.0,,9.0,,0.0,,9.0,,13.0,,7.0,,0.0,,9.0,,0.0,,9.0,,0.0,,9.0,,0.0,,9.0,,0.0,,9.0,,7245,0.0,9.0,13.0,11.40175425099138
7250,"Point Hope ANVSA, AK",592.0,,154.0,,28.0,,39.0,,1.0,,2.0,,495.0,,114.0,,4.0,,6.0,,0.0,,9.0,,0.0,,9.0,,56.0,,22.0,,8.0,,7.0,,7250,4.0,10.816653826391969,551.0,116.45170672858342
7270,"Port Heiden ANVSA, AK",78.0,,34.0,,15.0,,12.0,,0.0,,9.0,,60.0,,28.0,,0.0,,9.0,,0.0,,9.0,,0.0,,9.0,,3.0,,3.0,,0.0,,9.0,,7270,0.0,9.0,63.0,29.563490998188964
7255,"Point Lay ANVSA, AK",251.0,,65.0,,11.0,,17.0,,0.0,,9.0,,214.0,,54.0,,0.0,,9.0,,4.0,,5.0,,0.0,,9.0,,22.0,,13.0,,0.0,,9.0,,7255,4.0,10.295630140987,236.0,56.2672195865408
7260,"Portage Creek ANVSA, AK",0.0,,9.0,,0.0,,9.0,,0.0,,9.0,,0.0,,9.0,,0.0,,9.0,,0.0,,9.0,,0.0,,9.0,,0.0,,9.0,,0.0,,9.0,,7260,0.0,9.0,0.0,9.0
7265,"Port Graham ANVSA, AK",192.0,,46.0,,24.0,,15.0,,0.0,,9.0,,148.0,,40.0,,0.0,,9.0,,0.0,,9.0,,0.0,,9.0,,17.0,,12.0,,3.0,,5.0,,7265,0.0,9.0,165.0,42.720018726587654
7205,"Pedro Bay ANVSA, AK",20.0,,14.0,,0.0,,9.0,,0.0,,9.0,,12.0,,10.0,,0.0,,9.0,,0.0,,9.0,,0.0,,9.0,,8.0,,9.0,,0.0,,9.0,,7205,0.0,9.0,20.0,16.186414056238647
7300,"Rampart ANVSA, AK",60.0,,26.0,,0.0,,9.0,,0.0,,9.0,,33.0,,15.0,,0.0,,9.0,,0.0,,9.0,,0.0,,9.0,,14.0,,12.0,,13.0,,14.0,,7300,0.0,9.0,47.0,21.213203435596427
7340,"St. George ANVSA, AK",78.0,,25.0,,8.0,,6.0,,0.0,,9.0,,68.0,,25.0,,0.0,,9.0,,0.0,,9.0,,0.0,,9.0,,0.0,,9.0,,2.0,,3.0,,7340,0.0,9.0,68.0,26.570660511172846
7390,"St. Paul ANVSA, AK",425.0,,84.0,,49.0,,67.0,,9.0,,20.0,,341.0,,33.0,,0.0,,9.0,,1.0,,1.0,,4.0,,4.0,,10.0,,7.0,,11.0,,26.0,,7390,1.0,9.055385138137417,355.0,33.97057550292606
7310,"Ruby ANVSA, AK",207.0,,36.0,,25.0,,19.0,,0.0,,9.0,,175.0,,36.0,,0.0,,9.0,,0.0,,9.0,,0.0,,9.0,,7.0,,5.0,,0.0,,9.0,,7310,0.0,9.0,182.0,37.44329045369811
7375,"St. Michael ANVSA, AK",468.0,,57.0,,6.0,,5.0,,0.0,,9.0,,455.0,,59.0,,0.0,,9.0,,0.0,,9.0,,0.0,,9.0,,7.0,,10.0,,0.0,,9.0,,7375,0.0,9.0,462.0,60.51446108162907
7315,"Russian Mission ANVSA, AK",318.0,,60.0,,5.0,,11.0,,0.0,,9.0,,146.0,,48.0,,0.0,,9.0,,0.0,,9.0,,0.0,,9.0,,167.0,,47.0,,0.0,,9.0,,7315,0.0,9.0,313.0,67.77905281132217
7305,"Red Devil ANVSA, AK",21.0,,15.0,,5.0,,5.0,,0.0,,9.0,,12.0,,12.0,,0.0,,9.0,,0.0,,9.0,,0.0,,9.0,,4.0,,5.0,,0.0,,9.0,,7305,0.0,9.0,16.0,15.811388300841896
7565,"Telida ANVSA, AK",0.0,,9.0,,0.0,,9.0,,0.0,,9.0,,0.0,,9.0,,0.0,,9.0,,0.0,,9.0,,0.0,,9.0,,0.0,,9.0,,0.0,,9.0,,7565,0.0,9.0,0.0,9.0
7560,"Tazlina ANVSA, AK",354.0,,139.0,,212.0,,112.0,,0.0,,9.0,,114.0,,64.0,,2.0,,5.0,,0.0,,9.0,,0.0,,9.0,,3.0,,4.0,,23.0,,30.0,,7560,2.0,10.295630140987,117.0,64.7533782902483
7530,"Takotna ANVSA, AK",23.0,,15.0,,3.0,,5.0,,0.0,,9.0,,6.0,,7.0,,0.0,,9.0,,0.0,,9.0,,0.0,,9.0,,0.0,,9.0,,14.0,,12.0,,7530,0.0,9.0,6.0,11.40175425099138
7580,"Tetlin ANVSA, AK",144.0,,55.0,,21.0,,25.0,,0.0,,9.0,,121.0,,51.0,,0.0,,9.0,,0.0,,9.0,,0.0,,9.0,,2.0,,3.0,,0.0,,9.0,,7580,0.0,9.0,123.0,51.87484939737175
7525,"Stony River ANVSA, AK",41.0,,20.0,,0.0,,9.0,,0.0,,9.0,,41.0,,20.0,,0.0,,9.0,,0.0,,9.0,,0.0,,9.0,,0.0,,9.0,,0.0,,9.0,,7525,0.0,9.0,41.0,21.93171219946131
7520,"Stevens Village ANVSA, AK",11.0,,6.0,,0.0,,9.0,,0.0,,9.0,,11.0,,6.0,,0.0,,9.0,,0.0,,9.0,,0.0,,9.0,,0.0,,9.0,,0.0,,9.0,,7520,0.0,9.0,11.0,10.816653826391969
7505,"South Naknek ANVSA, AK",41.0,,20.0,,5.0,,5.0,,0.0,,9.0,,36.0,,19.0,,0.0,,9.0,,0.0,,9.0,,0.0,,9.0,,0.0,,9.0,,0.0,,9.0,,7505,0.0,9.0,36.0,21.02379604162864
7570,"Teller ANVSA, AK",182.0,,30.0,,0.0,,9.0,,2.0,,4.0,,171.0,,31.0,,0.0,,9.0,,0.0,,9.0,,0.0,,9.0,,9.0,,6.0,,0.0,,9.0,,7570,0.0,9.0,180.0,32.83291031876401
7500,"Solomon ANVSA, AK",0.0,,9.0,,0.0,,9.0,,0.0,,9.0,,0.0,,9.0,,0.0,,9.0,,0.0,,9.0,,0.0,,9.0,,0.0,,9.0,,0.0,,9.0,,7500,0.0,9.0,0.0,9.0
7510,"Stebbins ANVSA, AK",473.0,,64.0,,26.0,,27.0,,7.0,,15.0,,425.0,,59.0,,1.0,,3.0,,0.0,,9.0,,0.0,,9.0,,14.0,,13.0,,0.0,,9.0,,7510,1.0,9.486832980505138,439.0,61.08191221630181
7535,"Tanacross ANVSA, AK",141.0,,50.0,,10.0,,10.0,,0.0,,9.0,,131.0,,51.0,,0.0,,9.0,,0.0,,9.0,,0.0,,9.0,,0.0,,9.0,,0.0,,9.0,,7535,0.0,9.0,131.0,51.78802950489621
7540,"Tanana ANVSA, AK",242.0,,38.0,,29.0,,12.0,,1.0,,2.0,,195.0,,36.0,,0.0,,9.0,,0.0,,9.0,,0.0,,9.0,,14.0,,10.0,,3.0,,4.0,,7540,0.0,9.0,209.0,38.43175770115127
7555,"Tatitlek ANVSA, AK",78.0,,46.0,,4.0,,8.0,,0.0,,9.0,,64.0,,37.0,,0.0,,9.0,,0.0,,9.0,,0.0,,9.0,,10.0,,13.0,,0.0,,9.0,,7555,0.0,9.0,74.0,40.23679907746142
7695,"Unalaska ANVSA, AK",4781.0,,132.0,,1186.0,,92.0,,205.0,,61.0,,162.0,,28.0,,2207.0,,95.0,,114.0,,20.0,,0.0,,9.0,,223.0,,41.0,,684.0,,58.0,,7695,2321.0,97.082439194738,385.0,50.457903246171455
7690,"Unalakleet ANVSA, AK",702.0,,169.0,,107.0,,91.0,,0.0,,9.0,,413.0,,61.0,,132.0,,154.0,,0.0,,9.0,,0.0,,9.0,,48.0,,18.0,,2.0,,3.0,,7690,132.0,154.26276284314372,461.0,64.2339474110069
7650,"Twin Hills ANVSA, AK",63.0,,22.0,,0.0,,9.0,,0.0,,9.0,,56.0,,19.0,,0.0,,9.0,,0.0,,9.0,,0.0,,9.0,,7.0,,7.0,,0.0,,9.0,,7650,0.0,9.0,63.0,22.15851980616034
7665,"Ugashik ANVSA, AK",8.0,,8.0,,1.0,,3.0,,0.0,,9.0,,7.0,,7.0,,0.0,,9.0,,0.0,,9.0,,0.0,,9.0,,0.0,,9.0,,0.0,,9.0,,7665,0.0,9.0,7.0,11.40175425099138
7630,"Tuluksak ANVSA, AK",415.0,,58.0,,37.0,,44.0,,0.0,,9.0,,373.0,,63.0,,2.0,,3.0,,0.0,,9.0,,0.0,,9.0,,3.0,,3.0,,0.0,,9.0,,7630,2.0,9.486832980505138,376.0,63.7102817447859
7640,"Tuntutuliak ANVSA, AK",566.0,,65.0,,2.0,,4.0,,0.0,,9.0,,562.0,,65.0,,0.0,,9.0,,0.0,,9.0,,0.0,,9.0,,2.0,,3.0,,0.0,,9.0,,7640,0.0,9.0,564.0,65.68865959965997
7625,"Toksook Bay ANVSA, AK",506.0,,65.0,,14.0,,9.0,,0.0,,9.0,,459.0,,64.0,,0.0,,9.0,,0.0,,9.0,,0.0,,9.0,,31.0,,17.0,,2.0,,3.0,,7625,0.0,9.0,490.0,66.82813778641449
7735,"Wainwright ANVSA, AK",508.0,,139.0,,40.0,,32.0,,0.0,,9.0,,437.0,,115.0,,0.0,,9.0,,0.0,,9.0,,0.0,,9.0,,28.0,,15.0,,3.0,,3.0,,7735,0.0,9.0,465.0,116.32282665066217
7645,"Tununak ANVSA, AK",339.0,,60.0,,2.0,,4.0,,0.0,,9.0,,312.0,,55.0,,0.0,,9.0,,0.0,,9.0,,0.0,,9.0,,25.0,,17.0,,0.0,,9.0,,7645,0.0,9.0,337.0,58.26662852782886
7605,"Togiak ANVSA, AK",705.0,,75.0,,37.0,,21.0,,3.0,,4.0,,625.0,,72.0,,5.0,,22.0,,0.0,,9.0,,0.0,,9.0,,35.0,,20.0,,0.0,,9.0,,7605,5.0,23.769728648009426,660.0,75.26619427073486
7655,"Tyonek ANVSA, AK",348.0,,85.0,,7.0,,6.0,,0.0,,9.0,,272.0,,67.0,,8.0,,7.0,,0.0,,9.0,,0.0,,9.0,,14.0,,14.0,,47.0,,39.0,,7655,8.0,11.40175425099138,286.0,69.03622237637282
7765,"Yakutat ANVSA, AK",665.0,,80.0,,280.0,,60.0,,2.0,,3.0,,189.0,,40.0,,45.0,,29.0,,16.0,,14.0,,0.0,,9.0,,83.0,,21.0,,50.0,,29.0,,7765,61.0,32.202484376209235,272.0,46.06517122512408
7725,"Venetie ANVSA, AK",134.0,,27.0,,0.0,,9.0,,0.0,,9.0,,132.0,,27.0,,0.0,,9.0,,0.0,,9.0,,0.0,,9.0,,2.0,,2.0,,0.0,,9.0,,7725,0.0,9.0,134.0,28.53068523537421
7755,"Wrangell ANVSA, AK",1323.0,,134.0,,831.0,,106.0,,2.0,,3.0,,262.0,,58.0,,53.0,,40.0,,9.0,,11.0,,0.0,,9.0,,133.0,,40.0,,33.0,,23.0,,7755,62.0,41.48493702538308,395.0,71.02816342831905
7740,"Wales ANVSA, AK",170.0,,35.0,,0.0,,9.0,,0.0,,9.0,,159.0,,35.0,,0.0,,9.0,,0.0,,9.0,,0.0,,9.0,,11.0,,11.0,,0.0,,9.0,,7740,0.0,9.0,170.0,37.77565353504821
7745,"White Mountain ANVSA, AK",186.0,,28.0,,16.0,,10.0,,0.0,,9.0,,168.0,,28.0,,0.0,,9.0,,0.0,,9.0,,0.0,,9.0,,2.0,,3.0,,0.0,,9.0,,7745,0.0,9.0,170.0,29.563490998188964
8300,"Ione Band of Miwok TDSA, CA",6.0,,9.0,,6.0,,9.0,,0.0,,12.0,,0.0,,12.0,,0.0,,12.0,,0.0,,12.0,,0.0,,12.0,,0.0,,12.0,,0.0,,12.0,,8300,0.0,12.0,0.0,12.0
8100,"Cayuga Nation TDSA, NY",3081.0,,270.0,,2937.0,,260.0,,27.0,,32.0,,5.0,,5.0,,16.0,,20.0,,0.0,,12.0,,1.0,,2.0,,59.0,,31.0,,36.0,,25.0,,8100,16.0,23.323807579381203,65.0,31.464265445104548
8450,"Mechoopda TDSA, CA",3344.0,,341.0,,1887.0,,257.0,,160.0,,98.0,,53.0,,28.0,,135.0,,72.0,,20.0,,22.0,,3.0,,6.0,,94.0,,34.0,,992.0,,166.0,,8450,155.0,75.28612089887484,150.0,44.45222154178574
8750,"Samish TDSA, WA",38296.0,,229.0,,34015.0,,330.0,,211.0,,60.0,,291.0,,68.0,,793.0,,118.0,,64.0,,24.0,,48.0,,26.0,,878.0,,114.0,,1996.0,,186.0,,8750,857.0,120.41594578792295,1217.0,135.26270735128733
0080,"Allegany Reservation, NY",6127.0,,180.0,,3573.0,,158.0,,150.0,,66.0,,1631.0,,125.0,,53.0,,44.0,,0.0,,17.0,,12.0,,12.0,,326.0,,73.0,,382.0,,117.0,,0080,53.0,47.16990566028302,1969.0,145.25150601628886
0010,"Acoma Pueblo and Off-Reservation Trust Land, NM",2784.0,,256.0,,25.0,,25.0,,26.0,,37.0,,2599.0,,249.0,,0.0,,12.0,,6.0,,10.0,,0.0,,12.0,,15.0,,17.0,,113.0,,75.0,,0010,6.0,15.620499351813308,2614.0,249.86796513358811
0020,"Agua Caliente Indian Reservation and Off-Reservation Trust Land, CA",26028.0,,729.0,,19063.0,,589.0,,721.0,,134.0,,167.0,,51.0,,986.0,,147.0,,80.0,,35.0,,26.0,,16.0,,553.0,,108.0,,4432.0,,339.0,,0020,1066.0,151.10923201446033,746.0,120.50311199301038
0050,"Alabama-Coushatta Reservation and Off-Reservation Trust Land, TX",606.0,,117.0,,18.0,,18.0,,0.0,,13.0,,512.0,,98.0,,14.0,,24.0,,0.0,,13.0,,0.0,,13.0,,6.0,,8.0,,56.0,,54.0,,0050,14.0,27.294688127912362,518.0,99.18165152889924
0095,"Alturas Indian Rancheria, CA",0.0,,12.0,,0.0,,12.0,,0.0,,12.0,,0.0,,12.0,,0.0,,12.0,,0.0,,12.0,,0.0,,12.0,,0.0,,12.0,,0.0,,12.0,,0095,0.0,12.0,0.0,12.0
0125,"Augustine Reservation, CA",0.0,,12.0,,0.0,,12.0,,0.0,,12.0,,0.0,,12.0,,0.0,,12.0,,0.0,,12.0,,0.0,,12.0,,0.0,,12.0,,0.0,,12.0,,0125,0.0,12.0,0.0,12.0
0170,"Bay Mills Reservation and Off-Reservation Trust Land, MI",1263.0,,121.0,,162.0,,44.0,,20.0,,27.0,,841.0,,120.0,,19.0,,26.0,,0.0,,10.0,,0.0,,10.0,,173.0,,61.0,,48.0,,33.0,,0170,19.0,27.85677655436824,1014.0,134.98518437221176
0110,"Annette Island Reserve, AK",1635.0,,122.0,,216.0,,69.0,,0.0,,9.0,,1169.0,,97.0,,22.0,,17.0,,0.0,,9.0,,5.0,,7.0,,107.0,,66.0,,116.0,,43.0,,0110,22.0,19.235384061671343,1281.0,117.53297409663384
0115,"Aroostook Band of Micmac Trust Land, ME",250.0,,69.0,,47.0,,25.0,,2.0,,4.0,,174.0,,54.0,,3.0,,5.0,,1.0,,4.0,,0.0,,10.0,,12.0,,11.0,,11.0,,11.0,,0115,4.0,6.4031242374328485,186.0,56.00892785976178
0120,"Auburn Rancheria and Off-Reservation Trust Land, CA",0.0,,12.0,,0.0,,12.0,,0.0,,12.0,,0.0,,12.0,,0.0,,12.0,,0.0,,12.0,,0.0,,12.0,,0.0,,12.0,,0.0,,12.0,,0120,0.0,12.0,0.0,12.0
0185,"Benton Paiute Reservation and Off-Reservation Trust Land, CA",109.0,,55.0,,0.0,,12.0,,0.0,,12.0,,102.0,,54.0,,3.0,,7.0,,0.0,,12.0,,0.0,,12.0,,0.0,,12.0,,4.0,,6.0,,0185,3.0,13.892443989449804,102.0,55.31726674375732
0165,"Battle Mountain Reservation and Off-Reservation Trust Land, NV",407.0,,197.0,,56.0,,40.0,,0.0,,12.0,,237.0,,104.0,,4.0,,6.0,,0.0,,12.0,,0.0,,12.0,,4.0,,6.0,,106.0,,141.0,,0165,4.0,13.416407864998739,241.0,104.86181383134664
0155,"Barona Reservation and Off-Reservation Trust Land, CA",876.0,,112.0,,142.0,,35.0,,0.0,,12.0,,452.0,,93.0,,5.0,,6.0,,0.0,,12.0,,2.0,,3.0,,72.0,,32.0,,203.0,,65.0,,0155,5.0,13.416407864998739,526.0,98.39715443040006
0140,"Bad River Reservation, WI",1595.0,,153.0,,280.0,,52.0,,5.0,,10.0,,1124.0,,133.0,,10.0,,12.0,,0.0,,9.0,,0.0,,9.0,,36.0,,17.0,,140.0,,61.0,,0140,10.0,15.0,1160.0,134.3837787830064
0360,"Brighton Reservation, FL",661.0,,71.0,,96.0,,45.0,,16.0,,16.0,,494.0,,23.0,,3.0,,6.0,,0.0,,13.0,,0.0,,13.0,,26.0,,32.0,,26.0,,20.0,,0360,3.0,14.317821063276353,520.0,41.49698784249286
0325,"Blue Lake Rancheria and Off-Reservation Trust Land, CA",72.0,,29.0,,25.0,,13.0,,0.0,,12.0,,30.0,,18.0,,3.0,,4.0,,0.0,,12.0,,0.0,,12.0,,11.0,,8.0,,3.0,,4.0,,0325,3.0,12.649110640673518,41.0,23.065125189341593
0335,"Bois Forte Reservation and Off-Reservation Trust Land, MN",1383.0,,221.0,,282.0,,68.0,,6.0,,8.0,,724.0,,135.0,,6.0,,9.0,,0.0,,9.0,,0.0,,9.0,,358.0,,228.0,,7.0,,9.0,,0335,6.0,12.727922061357855,1082.0,265.1226131434284
0350,"Bridgeport Reservation and Off-Reservation Trust Land, CA",62.0,,48.0,,0.0,,12.0,,0.0,,12.0,,53.0,,46.0,,6.0,,19.0,,0.0,,12.0,,0.0,,12.0,,0.0,,12.0,,3.0,,5.0,,0350,6.0,22.47220505424423,53.0,47.53945729601885
0305,"Blackfeet Indian Reservation and Off-Reservation Trust Land, MT",10772.0,,233.0,,1821.0,,276.0,,33.0,,23.0,,8560.0,,236.0,,15.0,,11.0,,14.0,,17.0,,0.0,,16.0,,98.0,,62.0,,231.0,,143.0,,0305,29.0,20.248456731316587,8658.0,244.532206467778
0215,"Big Bend Rancheria, CA",0.0,,12.0,,0.0,,12.0,,0.0,,12.0,,0.0,,12.0,,0.0,,12.0,,0.0,,12.0,,0.0,,12.0,,0.0,,12.0,,0.0,,12.0,,0215,0.0,12.0,0.0,12.0
0265,"Big Sandy Rancheria and Off-Reservation Trust Land, CA",148.0,,59.0,,2.0,,5.0,,1.0,,3.0,,116.0,,53.0,,0.0,,12.0,,2.0,,4.0,,0.0,,12.0,,6.0,,8.0,,21.0,,20.0,,0265,2.0,12.649110640673518,122.0,54.92722457943783
0250,"Big Pine Reservation and Off-Reservation Trust Land, CA",422.0,,61.0,,41.0,,18.0,,0.0,,12.0,,327.0,,63.0,,11.0,,19.0,,1.0,,3.0,,0.0,,12.0,,17.0,,13.0,,25.0,,17.0,,0250,12.0,19.235384061671343,344.0,65.43699259593154
0240,"Big Lagoon Rancheria, CA",4.0,,4.0,,4.0,,4.0,,0.0,,12.0,,0.0,,12.0,,0.0,,12.0,,0.0,,12.0,,0.0,,12.0,,0.0,,12.0,,0.0,,12.0,,0240,0.0,12.0,0.0,12.0
0290,"Bishop Reservation, CA",1693.0,,170.0,,214.0,,63.0,,1.0,,4.0,,1112.0,,94.0,,3.0,,6.0,,29.0,,11.0,,0.0,,12.0,,35.0,,33.0,,299.0,,127.0,,0290,32.0,12.529964086141668,1147.0,100.34440691936945
0275,"Big Valley Rancheria, CA",195.0,,100.0,,8.0,,11.0,,0.0,,12.0,,147.0,,94.0,,5.0,,11.0,,0.0,,12.0,,0.0,,12.0,,1.0,,4.0,,34.0,,30.0,,0275,5.0,16.278820596099706,148.0,94.847245611035
0225,"Big Cypress Reservation, FL",571.0,,69.0,,6.0,,7.0,,11.0,,14.0,,519.0,,59.0,,6.0,,12.0,,0.0,,13.0,,0.0,,13.0,,2.0,,4.0,,27.0,,23.0,,0225,6.0,17.69180601295413,521.0,60.54750201288241
0200,"Berry Creek Rancheria and Off-Reservation Trust Land, CA",259.0,,107.0,,40.0,,23.0,,6.0,,9.0,,71.0,,41.0,,6.0,,9.0,,24.0,,39.0,,0.0,,12.0,,73.0,,55.0,,39.0,,31.0,,0200,30.0,40.024992192379,144.0,69.6419413859206
0495,"Capitan Grande Reservation, CA",0.0,,12.0,,0.0,,12.0,,0.0,,12.0,,0.0,,12.0,,0.0,,12.0,,0.0,,12.0,,0.0,,12.0,,0.0,,12.0,,0.0,,12.0,,0495,0.0,12.0,0.0,12.0
0440,"Campbell Ranch, NV",461.0,,172.0,,28.0,,20.0,,12.0,,12.0,,279.0,,137.0,,13.0,,27.0,,22.0,,38.0,,0.0,,12.0,,24.0,,20.0,,83.0,,62.0,,0440,35.0,46.61544808322666,303.0,138.9712200421368
0415,"Cabazon Reservation, CA",725.0,,274.0,,65.0,,104.0,,17.0,,34.0,,20.0,,12.0,,0.0,,12.0,,0.0,,12.0,,0.0,,12.0,,0.0,,12.0,,623.0,,197.0,,0415,0.0,12.0,20.0,16.97056274847714
0435,"Cahuilla Reservation, CA",82.0,,40.0,,6.0,,6.0,,0.0,,12.0,,36.0,,28.0,,3.0,,5.0,,0.0,,12.0,,0.0,,12.0,,0.0,,12.0,,37.0,,33.0,,0435,3.0,13.0,36.0,30.463092423455635
0400,"Burns Paiute Indian Colony and Off-Reservation Trust Land, OR",96.0,,50.0,,4.0,,6.0,,0.0,,12.0,,77.0,,47.0,,0.0,,12.0,,1.0,,3.0,,0.0,,12.0,,0.0,,12.0,,14.0,,23.0,,0400,1.0,12.36931687685298,77.0,48.507731342539614
0450,"Campo Indian Reservation, CA",393.0,,120.0,,61.0,,34.0,,4.0,,6.0,,249.0,,83.0,,0.0,,12.0,,0.0,,12.0,,0.0,,12.0,,21.0,,16.0,,58.0,,47.0,,0450,0.0,12.0,270.0,85.37564055396598
0575,"Chehalis Reservation and Off-Reservation Trust Land, WA",922.0,,284.0,,346.0,,134.0,,1.0,,3.0,,395.0,,112.0,,0.0,,12.0,,13.0,,20.0,,0.0,,12.0,,16.0,,18.0,,151.0,,155.0,,0575,13.0,23.323807579381203,411.0,114.0701538527936
0510,"Carson Colony, NV",275.0,,89.0,,19.0,,12.0,,0.0,,12.0,,230.0,,80.0,,0.0,,12.0,,0.0,,12.0,,0.0,,12.0,,2.0,,4.0,,24.0,,19.0,,0510,0.0,12.0,232.0,80.99382692526635
0540,"Cattaraugus Reservation, NY",2208.0,,186.0,,158.0,,67.0,,0.0,,12.0,,1829.0,,213.0,,49.0,,51.0,,7.0,,10.0,,16.0,,24.0,,127.0,,68.0,,22.0,,25.0,,0540,56.0,51.97114584074513,1972.0,224.87552112224222
0525,"Catawba Reservation, SC",1247.0,,225.0,,214.0,,50.0,,27.0,,23.0,,836.0,,190.0,,18.0,,17.0,,18.0,,27.0,,2.0,,4.0,,90.0,,46.0,,42.0,,40.0,,0525,36.0,31.906112267087632,928.0,195.53004884160387
0555,"Cedarville Rancheria and Off-Reservation Trust Land, CA",28.0,,27.0,,2.0,,3.0,,0.0,,12.0,,26.0,,27.0,,0.0,,12.0,,0.0,,12.0,,0.0,,12.0,,0.0,,12.0,,0.0,,12.0,,0555,0.0,12.0,26.0,29.546573405388315
0560,"Celilo Village Trust Land, OR",61.0,,33.0,,0.0,,12.0,,0.0,,12.0,,61.0,,33.0,,0.0,,12.0,,0.0,,12.0,,0.0,,12.0,,0.0,,12.0,,0.0,,12.0,,0560,0.0,12.0,61.0,35.11409973215888
0585,"Chemehuevi Reservation, CA",352.0,,73.0,,65.0,,25.0,,3.0,,4.0,,195.0,,61.0,,16.0,,18.0,,0.0,,12.0,,0.0,,12.0,,1.0,,3.0,,72.0,,25.0,,0585,16.0,21.633307652783937,196.0,62.24146527838174
0690,"Coconut Creek Trust Land, FL",0.0,,13.0,,0.0,,13.0,,0.0,,13.0,,0.0,,13.0,,0.0,,13.0,,0.0,,13.0,,0.0,,13.0,,0.0,,13.0,,0.0,,13.0,,0690,0.0,13.0,0.0,13.0
0635,"Chitimacha Reservation, LA",601.0,,178.0,,152.0,,49.0,,14.0,,16.0,,270.0,,86.0,,3.0,,5.0,,4.0,,5.0,,5.0,,6.0,,146.0,,98.0,,7.0,,14.0,,0635,7.0,7.0710678118654755,421.0,130.52202879207786
0695,"Cocopah Reservation, AZ",1203.0,,197.0,,434.0,,65.0,,8.0,,12.0,,588.0,,163.0,,0.0,,12.0,,25.0,,31.0,,3.0,,4.0,,15.0,,13.0,,130.0,,51.0,,0695,25.0,33.24154027718932,606.0,163.5665002376709
0605,"Cheyenne River Reservation and Off-Reservation Trust Land, SD",8556.0,,21.0,,1800.0,,17.0,,6.0,,5.0,,6592.0,,58.0,,20.0,,19.0,,0.0,,13.0,,0.0,,13.0,,69.0,,29.0,,69.0,,44.0,,0605,20.0,23.021728866442675,6661.0,66.1362230551458
0620,"Chicken Ranch Rancheria and Off-Reservation Trust Land, CA",0.0,,12.0,,0.0,,12.0,,0.0,,12.0,,0.0,,12.0,,0.0,,12.0,,0.0,,12.0,,0.0,,12.0,,0.0,,12.0,,0.0,,12.0,,0620,0.0,12.0,0.0,12.0
0680,"Pueblo de Cochiti, NM",1661.0,,142.0,,385.0,,59.0,,21.0,,14.0,,754.0,,98.0,,6.0,,9.0,,0.0,,12.0,,0.0,,12.0,,26.0,,18.0,,469.0,,88.0,,0680,6.0,15.0,780.0,100.35935432235502
0760,"Colville Reservation and Off-Reservation Trust Land, WA",7228.0,,421.0,,2154.0,,234.0,,25.0,,34.0,,3694.0,,325.0,,95.0,,79.0,,29.0,,26.0,,0.0,,17.0,,514.0,,99.0,,717.0,,234.0,,0760,124.0,83.16850365372699,4208.0,340.1690756079982
0705,"Coeur d'Alene Reservation, ID",7805.0,,407.0,,5690.0,,344.0,,7.0,,5.0,,1400.0,,185.0,,16.0,,13.0,,14.0,,13.0,,10.0,,14.0,,247.0,,64.0,,421.0,,93.0,,0705,30.0,18.384776310850235,1657.0,196.25748393373436
0795,"Coushatta Reservation and Off-Reservation Trust Land, LA",113.0,,63.0,,18.0,,18.0,,9.0,,11.0,,55.0,,41.0,,0.0,,12.0,,0.0,,12.0,,0.0,,12.0,,21.0,,18.0,,10.0,,17.0,,0795,0.0,12.0,76.0,46.357307945997036
0775,"Coquille Reservation, OR",453.0,,138.0,,179.0,,40.0,,0.0,,12.0,,149.0,,69.0,,4.0,,6.0,,0.0,,12.0,,0.0,,12.0,,102.0,,55.0,,19.0,,22.0,,0775,4.0,13.416407864998739,251.0,89.05054744357274
0720,"Cold Springs Rancheria, CA",134.0,,62.0,,0.0,,12.0,,0.0,,12.0,,98.0,,50.0,,0.0,,12.0,,0.0,,12.0,,0.0,,12.0,,22.0,,35.0,,14.0,,12.0,,0720,0.0,12.0,120.0,62.20128616033595
0750,"Colusa Rancheria, CA",27.0,,21.0,,2.0,,5.0,,0.0,,12.0,,20.0,,19.0,,0.0,,12.0,,0.0,,12.0,,0.0,,12.0,,1.0,,3.0,,4.0,,6.0,,0750,0.0,12.0,21.0,22.67156809750927
0735,"Colorado River Indian Reservation, AZ--CA",9929.0,,367.0,,3054.0,,272.0,,175.0,,60.0,,2276.0,,133.0,,49.0,,57.0,,6.0,,9.0,,0.0,,16.0,,345.0,,125.0,,4024.0,,380.0,,0735,55.0,57.706152185014034,2621.0,183.22117781522965
0780,"Cortina Indian Rancheria, CA",31.0,,24.0,,0.0,,12.0,,0.0,,12.0,,26.0,,22.0,,0.0,,12.0,,0.0,,12.0,,0.0,,12.0,,0.0,,12.0,,5.0,,7.0,,0780,0.0,12.0,26.0,25.059928172283335
0770,"Coos, Lower Umpqua, and Siuslaw Reservation and Off-Reservation Trust Land, OR",100.0,,53.0,,22.0,,19.0,,0.0,,12.0,,58.0,,35.0,,0.0,,12.0,,0.0,,12.0,,0.0,,12.0,,15.0,,19.0,,5.0,,9.0,,0770,0.0,12.0,73.0,41.593268686170845
0815,"Cow Creek Reservation and Off-Reservation Trust Land, OR",182.0,,62.0,,80.0,,31.0,,0.0,,12.0,,73.0,,39.0,,0.0,,12.0,,0.0,,12.0,,0.0,,12.0,,15.0,,13.0,,14.0,,14.0,,0815,0.0,12.0,88.0,42.82522621072771
0820,"Cowlitz Reservation, WA",0.0,,12.0,,0.0,,12.0,,0.0,,12.0,,0.0,,12.0,,0.0,,12.0,,0.0,,12.0,,0.0,,12.0,,0.0,,12.0,,0.0,,12.0,,0820,0.0,12.0,0.0,12.0
0855,"Crow Creek Reservation, SD",2164.0,,101.0,,163.0,,54.0,,19.0,,26.0,,1854.0,,104.0,,0.0,,9.0,,22.0,,30.0,,0.0,,9.0,,20.0,,22.0,,86.0,,66.0,,0855,22.0,31.32091952673165,1874.0,106.68176976409794
0845,"Crow Reservation and Off-Reservation Trust Land, MT",7184.0,,327.0,,1154.0,,163.0,,7.0,,11.0,,5599.0,,283.0,,10.0,,19.0,,3.0,,5.0,,0.0,,14.0,,131.0,,79.0,,280.0,,156.0,,0845,13.0,19.6468827043885,5730.0,294.1530214021267
0825,"Coyote Valley Reservation, CA",300.0,,103.0,,3.0,,6.0,,0.0,,12.0,,224.0,,90.0,,0.0,,12.0,,0.0,,12.0,,0.0,,12.0,,4.0,,7.0,,69.0,,42.0,,0825,0.0,12.0,228.0,91.0659101969557
0990,"Eastern Cherokee Reservation, NC",9191.0,,605.0,,1432.0,,292.0,,53.0,,42.0,,6727.0,,561.0,,107.0,,79.0,,0.0,,17.0,,0.0,,17.0,,457.0,,203.0,,415.0,,200.0,,0990,107.0,80.8084154033477,7184.0,596.8408498083891
0955,"Dry Creek Rancheria and Off-Reservation Trust Land, CA",0.0,,12.0,,0.0,,12.0,,0.0,,12.0,,0.0,,12.0,,0.0,,12.0,,0.0,,12.0,,0.0,,12.0,,0.0,,12.0,,0.0,,12.0,,0955,0.0,12.0,0.0,12.0
0940,"Dresslerville Colony, NV",452.0,,127.0,,16.0,,10.0,,0.0,,12.0,,356.0,,113.0,,5.0,,6.0,,0.0,,12.0,,0.0,,12.0,,12.0,,10.0,,63.0,,37.0,,0940,5.0,13.416407864998739,368.0,114.07453703609758
0975,"Duckwater Reservation, NV",299.0,,105.0,,12.0,,12.0,,0.0,,12.0,,243.0,,99.0,,8.0,,8.0,,9.0,,12.0,,0.0,,12.0,,13.0,,13.0,,14.0,,14.0,,0975,17.0,14.422205101855956,256.0,100.56838469419701
0965,"Duck Valley Reservation, NV--ID",1351.0,,234.0,,41.0,,21.0,,2.0,,4.0,,1235.0,,218.0,,4.0,,9.0,,0.0,,11.0,,0.0,,11.0,,15.0,,23.0,,54.0,,37.0,,0965,4.0,14.212670403551895,1250.0,219.4857626362129
1010,"Elk Valley Rancheria and Off-Reservation Trust Land, CA",78.0,,34.0,,45.0,,27.0,,0.0,,12.0,,25.0,,17.0,,0.0,,12.0,,0.0,,12.0,,0.0,,12.0,,7.0,,6.0,,1.0,,2.0,,1010,0.0,12.0,32.0,21.656407827707714
1065,"Ewiiaapaayp Reservation, CA",0.0,,12.0,,0.0,,12.0,,0.0,,12.0,,0.0,,12.0,,0.0,,12.0,,0.0,,12.0,,0.0,,12.0,,0.0,,12.0,,0.0,,12.0,,1065,0.0,12.0,0.0,12.0
1055,"Enterprise Rancheria and Off-Reservation Trust Land, CA",0.0,,12.0,,0.0,,12.0,,0.0,,12.0,,0.0,,12.0,,0.0,,12.0,,0.0,,12.0,,0.0,,12.0,,0.0,,12.0,,0.0,,12.0,,1055,0.0,12.0,0.0,12.0
1040,"Ely Reservation, NV",230.0,,72.0,,52.0,,30.0,,0.0,,12.0,,141.0,,58.0,,3.0,,5.0,,2.0,,4.0,,0.0,,12.0,,10.0,,9.0,,22.0,,20.0,,1040,5.0,6.4031242374328485,151.0,59.90826320300064
1005,"Elko Colony, NV",1194.0,,174.0,,53.0,,31.0,,0.0,,12.0,,981.0,,136.0,,4.0,,6.0,,0.0,,12.0,,5.0,,7.0,,67.0,,47.0,,84.0,,49.0,,1005,4.0,13.416407864998739,1053.0,144.06248644251562
1075,"Fallon Paiute-Shoshone Reservation and Off-Reservation Trust Land, NV",745.0,,108.0,,46.0,,21.0,,10.0,,12.0,,593.0,,98.0,,3.0,,4.0,,0.0,,12.0,,0.0,,12.0,,40.0,,21.0,,53.0,,33.0,,1075,3.0,12.649110640673518,633.0,100.94057657849989
1070,"Fallon Paiute-Shoshone Colony and Off-Reservation Trust Land, NV",74.0,,51.0,,2.0,,4.0,,0.0,,12.0,,58.0,,43.0,,0.0,,12.0,,0.0,,12.0,,0.0,,12.0,,13.0,,17.0,,1.0,,3.0,,1070,0.0,12.0,71.0,47.77028364998475
1100,"Flandreau Reservation, SD",509.0,,115.0,,29.0,,15.0,,2.0,,4.0,,408.0,,101.0,,0.0,,9.0,,0.0,,9.0,,0.0,,9.0,,44.0,,23.0,,26.0,,23.0,,1100,0.0,9.0,452.0,103.9759587597056
1170,"Fort Bidwell Reservation and Off-Reservation Trust Land, CA",119.0,,60.0,,12.0,,15.0,,2.0,,4.0,,93.0,,54.0,,5.0,,12.0,,0.0,,12.0,,0.0,,12.0,,0.0,,12.0,,7.0,,10.0,,1170,5.0,16.97056274847714,93.0,55.31726674375732
1125,"Fond du Lac Reservation and Off-Reservation Trust Land, MN--WI",3944.0,,259.0,,2124.0,,160.0,,20.0,,18.0,,1451.0,,180.0,,42.0,,21.0,,9.0,,9.0,,3.0,,4.0,,230.0,,77.0,,65.0,,43.0,,1125,51.0,22.847319317591726,1684.0,195.8187937865005
1110,"Flathead Reservation, MT",29717.0,,332.0,,18608.0,,299.0,,92.0,,44.0,,7764.0,,403.0,,114.0,,45.0,,51.0,,41.0,,11.0,,20.0,,1789.0,,368.0,,1288.0,,66.0,,1110,165.0,60.876925020897694,9564.0,546.1071323467585
1185,"Fort Hall Reservation and Off-Reservation Trust Land, ID",5894.0,,513.0,,1615.0,,235.0,,4.0,,6.0,,3384.0,,327.0,,38.0,,36.0,,0.0,,17.0,,0.0,,17.0,,86.0,,56.0,,767.0,,259.0,,1185,38.0,39.81205847478876,3470.0,332.1957254390851
1140,"Fort Apache Reservation, AZ",15515.0,,799.0,,221.0,,60.0,,65.0,,62.0,,14309.0,,763.0,,54.0,,52.0,,39.0,,53.0,,0.0,,19.0,,251.0,,154.0,,576.0,,208.0,,1140,93.0,74.24957912338628,14560.0,778.6180064704387
1195,"Fort Independence Reservation, CA",74.0,,22.0,,28.0,,17.0,,0.0,,12.0,,33.0,,15.0,,2.0,,6.0,,3.0,,7.0,,0.0,,12.0,,8.0,,10.0,,0.0,,12.0,,1195,5.0,9.219544457292887,41.0,21.656407827707714
1160,"Fort Berthold Reservation, ND",7260.0,,322.0,,1960.0,,215.0,,29.0,,26.0,,4496.0,,219.0,,15.0,,14.0,,2.0,,3.0,,0.0,,13.0,,227.0,,74.0,,531.0,,207.0,,1160,17.0,14.317821063276353,4723.0,231.52969571957718
1135,"Forest County Potawatomi Community and Off-Reservation Trust Land, WI",704.0,,130.0,,72.0,,36.0,,25.0,,18.0,,524.0,,100.0,,0.0,,9.0,,0.0,,9.0,,25.0,,33.0,,21.0,,19.0,,37.0,,36.0,,1135,0.0,9.0,570.0,107.00467279516349
1150,"Fort Belknap Reservation and Off-Reservation Trust Land, MT",3187.0,,146.0,,166.0,,71.0,,7.0,,12.0,,2849.0,,128.0,,0.0,,10.0,,0.0,,10.0,,0.0,,10.0,,29.0,,28.0,,136.0,,58.0,,1150,0.0,10.0,2878.0,131.40776232780163
1260,"Fort Pierce Reservation, FL",87.0,,67.0,,5.0,,8.0,,9.0,,9.0,,66.0,,63.0,,0.0,,13.0,,0.0,,13.0,,0.0,,13.0,,7.0,,10.0,,0.0,,13.0,,1260,0.0,13.0,73.0,65.09992319503918
1270,"Fort Sill Apache Indian Reservation, NM",0.0,,12.0,,0.0,,12.0,,0.0,,12.0,,0.0,,12.0,,0.0,,12.0,,0.0,,12.0,,0.0,,12.0,,0.0,,12.0,,0.0,,12.0,,1270,0.0,12.0,0.0,12.0
1235,"Fort Mojave Reservation and Off-Reservation Trust Land, AZ--CA--NV",1754.0,,331.0,,662.0,,109.0,,6.0,,9.0,,764.0,,263.0,,17.0,,15.0,,8.0,,19.0,,2.0,,4.0,,19.0,,15.0,,276.0,,118.0,,1235,25.0,24.20743687382041,785.0,263.45777650318087
1210,"Fort McDermitt Indian Reservation, NV--OR",336.0,,133.0,,8.0,,7.0,,0.0,,11.0,,325.0,,131.0,,1.0,,2.0,,0.0,,11.0,,0.0,,11.0,,0.0,,11.0,,2.0,,5.0,,1210,1.0,11.180339887498949,325.0,131.4610208388783
1220,"Fort McDowell Yavapai Nation Reservation, AZ",1104.0,,90.0,,49.0,,25.0,,4.0,,4.0,,859.0,,87.0,,7.0,,9.0,,0.0,,12.0,,0.0,,12.0,,61.0,,27.0,,124.0,,45.0,,1220,7.0,15.0,920.0,91.88035698668132
1250,"Fort Peck Indian Reservation and Off-Reservation Trust Land, MT",10319.0,,205.0,,2879.0,,160.0,,34.0,,29.0,,6526.0,,151.0,,51.0,,38.0,,0.0,,16.0,,0.0,,16.0,,451.0,,113.0,,378.0,,77.0,,1250,51.0,41.23105625617661,6977.0,189.27757394894937
1280,"Fort Yuma Indian Reservation, CA--AZ",1265.0,,278.0,,55.0,,32.0,,31.0,,33.0,,711.0,,180.0,,7.0,,13.0,,0.0,,11.0,,0.0,,11.0,,56.0,,43.0,,405.0,,141.0,,1280,7.0,17.029386365926403,767.0,185.39147768977946
1450,"Ho-Chunk Nation Reservation and Off-Reservation Trust Land, WI--MN",1632.0,,211.0,,169.0,,44.0,,34.0,,30.0,,1212.0,,164.0,,20.0,,15.0,,0.0,,11.0,,3.0,,8.0,,95.0,,42.0,,99.0,,37.0,,1450,20.0,18.601075237738275,1310.0,169.4815624190431
1460,"Hoh Indian Reservation and Off-Reservation Trust Land, WA",106.0,,40.0,,4.0,,9.0,,0.0,,12.0,,84.0,,38.0,,1.0,,2.0,,0.0,,12.0,,0.0,,12.0,,4.0,,5.0,,13.0,,17.0,,1460,1.0,12.165525060596439,88.0,40.162171256046406
1490,"Hoopa Valley Reservation, CA",3573.0,,388.0,,272.0,,102.0,,16.0,,21.0,,2741.0,,390.0,,0.0,,12.0,,200.0,,172.0,,0.0,,12.0,,276.0,,148.0,,68.0,,52.0,,1490,200.0,172.41809649801846,3017.0,417.31043600657773
1400,"Guidiville Rancheria and Off-Reservation Trust Land, CA",58.0,,48.0,,8.0,,11.0,,0.0,,12.0,,48.0,,46.0,,0.0,,12.0,,1.0,,4.0,,0.0,,12.0,,0.0,,12.0,,1.0,,3.0,,1400,1.0,12.649110640673518,48.0,47.53945729601885
1440,"Havasupai Reservation, AZ",15.0,,22.0,,0.0,,12.0,,0.0,,12.0,,15.0,,22.0,,0.0,,12.0,,0.0,,12.0,,0.0,,12.0,,0.0,,12.0,,0.0,,12.0,,1440,0.0,12.0,15.0,25.059928172283335
1410,"Hannahville Indian Community and Off-Reservation Trust Land, MI",656.0,,89.0,,46.0,,16.0,,0.0,,10.0,,447.0,,72.0,,37.0,,27.0,,0.0,,10.0,,2.0,,4.0,,104.0,,39.0,,20.0,,17.0,,1410,37.0,28.792360097775937,553.0,81.9817052762383
1475,"Hollywood Reservation, FL",989.0,,217.0,,201.0,,53.0,,15.0,,12.0,,404.0,,157.0,,49.0,,31.0,,1.0,,2.0,,0.0,,13.0,,126.0,,76.0,,193.0,,70.0,,1475,50.0,31.064449134018133,530.0,174.91140614608298
1340,"Goshute Reservation, NV--UT",140.0,,56.0,,5.0,,5.0,,0.0,,11.0,,128.0,,55.0,,0.0,,11.0,,4.0,,7.0,,0.0,,11.0,,3.0,,7.0,,0.0,,11.0,,1340,4.0,13.038404810405298,131.0,56.52433104425032
1370,"Grand Traverse Reservation and Off-Reservation Trust Land, MI",725.0,,117.0,,112.0,,35.0,,9.0,,11.0,,411.0,,90.0,,6.0,,9.0,,3.0,,5.0,,0.0,,10.0,,69.0,,30.0,,115.0,,59.0,,1370,9.0,10.295630140987,480.0,95.39392014169457
1355,"Grand Portage Reservation and Off-Reservation Trust Land, MN",722.0,,96.0,,178.0,,73.0,,2.0,,5.0,,406.0,,42.0,,47.0,,13.0,,0.0,,9.0,,0.0,,9.0,,76.0,,36.0,,13.0,,13.0,,1355,47.0,15.811388300841896,482.0,56.04462507680822
1380,"Greenville Rancheria, CA",28.0,,19.0,,11.0,,8.0,,0.0,,12.0,,17.0,,18.0,,0.0,,12.0,,0.0,,12.0,,0.0,,12.0,,0.0,,12.0,,0.0,,12.0,,1380,0.0,12.0,17.0,21.633307652783937
1310,"Gila River Indian Reservation, AZ",11150.0,,881.0,,353.0,,127.0,,67.0,,63.0,,9309.0,,888.0,,48.0,,39.0,,43.0,,41.0,,5.0,,8.0,,226.0,,196.0,,1099.0,,283.0,,1310,91.0,56.586217403180434,9540.0,909.408599035659
1610,"Isabella Reservation, MI",27617.0,,531.0,,22691.0,,571.0,,466.0,,118.0,,1694.0,,248.0,,204.0,,73.0,,8.0,,12.0,,60.0,,61.0,,1133.0,,277.0,,1361.0,,166.0,,1610,212.0,73.97972695272672,2887.0,376.7678330218757
1365,"Grand Ronde Community, OR",518.0,,125.0,,95.0,,33.0,,1.0,,3.0,,322.0,,98.0,,0.0,,12.0,,1.0,,2.0,,0.0,,12.0,,61.0,,32.0,,38.0,,20.0,,1365,1.0,12.165525060596439,383.0,103.78824596263297
1395,"Grindstone Indian Rancheria, CA",256.0,,93.0,,18.0,,22.0,,0.0,,12.0,,225.0,,90.0,,0.0,,12.0,,0.0,,12.0,,0.0,,12.0,,4.0,,7.0,,9.0,,10.0,,1395,0.0,12.0,229.0,91.0659101969557
1655,"Jamestown S'Klallam Reservation and Off-Reservation Trust Land, WA",9.0,,10.0,,2.0,,4.0,,0.0,,12.0,,7.0,,10.0,,0.0,,12.0,,0.0,,12.0,,0.0,,12.0,,0.0,,12.0,,0.0,,12.0,,1655,0.0,12.0,7.0,15.620499351813308
1685,"Jemez Pueblo, NM",2049.0,,197.0,,5.0,,4.0,,0.0,,12.0,,2010.0,,198.0,,0.0,,12.0,,0.0,,12.0,,0.0,,12.0,,19.0,,19.0,,15.0,,21.0,,1685,0.0,12.0,2029.0,199.27117202445515
1690,"Jena Band of Choctaw Reservation, LA",0.0,,12.0,,0.0,,12.0,,0.0,,12.0,,0.0,,12.0,,0.0,,12.0,,0.0,,12.0,,0.0,,12.0,,0.0,,12.0,,0.0,,12.0,,1690,0.0,12.0,0.0,12.0
1670,"Jamul Indian Village, CA",0.0,,12.0,,0.0,,12.0,,0.0,,12.0,,0.0,,12.0,,0.0,,12.0,,0.0,,12.0,,0.0,,12.0,,0.0,,12.0,,0.0,,12.0,,1670,0.0,12.0,0.0,12.0
1640,"Jackson Rancheria, CA",0.0,,12.0,,0.0,,12.0,,0.0,,12.0,,0.0,,12.0,,0.0,,12.0,,0.0,,12.0,,0.0,,12.0,,0.0,,12.0,,0.0,,12.0,,1640,0.0,12.0,0.0,12.0
1625,"Isleta Pueblo, NM",3809.0,,385.0,,81.0,,38.0,,0.0,,12.0,,3134.0,,365.0,,27.0,,33.0,,0.0,,12.0,,0.0,,12.0,,35.0,,37.0,,532.0,,158.0,,1625,27.0,35.11409973215888,3169.0,367.0667514226806
1575,"Indian Township Reservation, ME",753.0,,107.0,,80.0,,29.0,,6.0,,9.0,,586.0,,97.0,,5.0,,7.0,,0.0,,10.0,,0.0,,10.0,,70.0,,30.0,,6.0,,7.0,,1575,5.0,12.206555615733702,656.0,102.02450685987166
1545,"Hualapai Indian Reservation and Off-Reservation Trust Land, AZ",1590.0,,181.0,,72.0,,53.0,,7.0,,8.0,,1458.0,,187.0,,0.0,,12.0,,0.0,,12.0,,6.0,,9.0,,0.0,,12.0,,47.0,,20.0,,1545,0.0,12.0,1464.0,187.6006396577581
1590,"Iowa (KS-NE) Reservation and Off-Reservation Trust Land, KS--NE",173.0,,36.0,,73.0,,19.0,,0.0,,11.0,,70.0,,26.0,,5.0,,8.0,,0.0,,11.0,,0.0,,11.0,,15.0,,13.0,,10.0,,10.0,,1590,5.0,13.601470508735444,85.0,31.080540535840107
1560,"Inaja and Cosmit Reservation, CA",0.0,,12.0,,0.0,,12.0,,0.0,,12.0,,0.0,,12.0,,0.0,,12.0,,0.0,,12.0,,0.0,,12.0,,0.0,,12.0,,0.0,,12.0,,1560,0.0,12.0,0.0,12.0
1550,"Huron Potawatomi Reservation and Off-Reservation Trust Land, MI",62.0,,30.0,,8.0,,12.0,,3.0,,6.0,,31.0,,22.0,,3.0,,5.0,,0.0,,10.0,,0.0,,10.0,,15.0,,15.0,,2.0,,3.0,,1550,3.0,11.180339887498949,46.0,28.442925306655784
1530,"Houlton Maliseet Reservation and Off-Reservation Trust Land, ME",325.0,,102.0,,47.0,,31.0,,5.0,,8.0,,220.0,,83.0,,4.0,,10.0,,0.0,,10.0,,0.0,,10.0,,46.0,,30.0,,3.0,,4.0,,1530,4.0,14.142135623730951,266.0,88.82004278314665
1515,"Hopland Rancheria, CA",281.0,,92.0,,54.0,,29.0,,0.0,,12.0,,170.0,,76.0,,7.0,,11.0,,0.0,,12.0,,0.0,,12.0,,11.0,,20.0,,39.0,,46.0,,1515,7.0,16.278820596099706,181.0,79.49842765740716
1505,"Hopi Reservation and Off-Reservation Trust Land, AZ",9227.0,,613.0,,108.0,,55.0,,29.0,,29.0,,8869.0,,596.0,,119.0,,75.0,,20.0,,26.0,,0.0,,17.0,,0.0,,17.0,,82.0,,61.0,,1505,139.0,79.37883848986453,8869.0,596.2424003708559
1555,"Immokalee Reservation, FL",447.0,,165.0,,14.0,,28.0,,0.0,,13.0,,369.0,,138.0,,0.0,,13.0,,0.0,,13.0,,0.0,,13.0,,4.0,,6.0,,60.0,,51.0,,1555,0.0,13.0,373.0,138.74076545846214
1720,"Kaibab Indian Reservation, AZ",253.0,,88.0,,23.0,,15.0,,0.0,,12.0,,199.0,,73.0,,0.0,,12.0,,0.0,,12.0,,0.0,,12.0,,8.0,,9.0,,23.0,,32.0,,1720,0.0,12.0,207.0,74.52516353554684
1735,"Kalispel Reservation and Off-Reservation Trust Land, WA",210.0,,77.0,,18.0,,17.0,,1.0,,3.0,,182.0,,71.0,,0.0,,12.0,,0.0,,12.0,,0.0,,12.0,,6.0,,7.0,,3.0,,6.0,,1735,0.0,12.0,188.0,72.34638899074369
1700,"Jicarilla Apache Nation Reservation and Off-Reservation Trust Land, NM",3195.0,,337.0,,74.0,,42.0,,13.0,,16.0,,2522.0,,262.0,,0.0,,12.0,,0.0,,12.0,,10.0,,15.0,,51.0,,37.0,,525.0,,243.0,,1700,0.0,12.0,2583.0,265.0245271668266
1775,"Kickapoo (TX) Reservation and Off-Reservation Trust Land, TX",430.0,,167.0,,0.0,,13.0,,0.0,,13.0,,389.0,,164.0,,0.0,,13.0,,0.0,,13.0,,0.0,,13.0,,0.0,,13.0,,41.0,,33.0,,1775,0.0,13.0,389.0,164.51443705644803
1785,"Klamath Reservation, OR",38.0,,19.0,,8.0,,9.0,,0.0,,12.0,,28.0,,11.0,,0.0,,12.0,,0.0,,12.0,,0.0,,12.0,,2.0,,5.0,,0.0,,12.0,,1785,0.0,12.0,30.0,17.029386365926403
1770,"Kickapoo (KS) Reservation, KS",3983.0,,279.0,,3121.0,,238.0,,60.0,,45.0,,437.0,,78.0,,41.0,,18.0,,10.0,,10.0,,0.0,,10.0,,95.0,,34.0,,219.0,,77.0,,1770,51.0,20.591260281974,532.0,85.67379996241559
1750,"Karuk Reservation and Off-Reservation Trust Land, CA",513.0,,124.0,,48.0,,19.0,,3.0,,5.0,,311.0,,91.0,,1.0,,3.0,,0.0,,12.0,,15.0,,25.0,,64.0,,29.0,,71.0,,38.0,,1750,1.0,12.36931687685298,390.0,98.72689603142601
1840,"Laguna Pueblo and Off-Reservation Trust Land, NM",3924.0,,311.0,,37.0,,27.0,,0.0,,12.0,,3666.0,,314.0,,10.0,,16.0,,0.0,,12.0,,0.0,,12.0,,76.0,,72.0,,135.0,,78.0,,1840,10.0,20.0,3742.0,322.3724553990306
1800,"Kootenai Reservation and Off-Reservation Trust Land, ID",67.0,,37.0,,14.0,,12.0,,0.0,,12.0,,46.0,,30.0,,0.0,,12.0,,0.0,,12.0,,0.0,,12.0,,4.0,,7.0,,3.0,,5.0,,1800,0.0,12.0,50.0,33.06055050963308
1860,"Lake Traverse Reservation and Off-Reservation Trust Land, SD--ND",11052.0,,260.0,,5706.0,,241.0,,63.0,,24.0,,4257.0,,152.0,,5.0,,8.0,,0.0,,18.0,,9.0,,11.0,,361.0,,131.0,,651.0,,126.0,,1860,5.0,19.697715603592208,4627.0,200.96268310310748
1895,"La Posta Indian Reservation, CA",31.0,,19.0,,19.0,,16.0,,0.0,,12.0,,5.0,,9.0,,0.0,,12.0,,0.0,,12.0,,0.0,,12.0,,0.0,,12.0,,7.0,,14.0,,1895,0.0,12.0,5.0,15.0
1880,"L'Anse Reservation and Off-Reservation Trust Land, MI",3564.0,,291.0,,2251.0,,190.0,,46.0,,38.0,,721.0,,153.0,,33.0,,9.0,,2.0,,5.0,,5.0,,9.0,,444.0,,102.0,,62.0,,49.0,,1880,35.0,10.295630140987,1170.0,184.1032319107951
1850,"La Jolla Reservation, CA",538.0,,154.0,,61.0,,31.0,,6.0,,9.0,,322.0,,114.0,,21.0,,23.0,,0.0,,12.0,,0.0,,12.0,,46.0,,52.0,,82.0,,38.0,,1850,21.0,25.942243542145693,368.0,125.8729518204765
1815,"Lac Courte Oreilles Reservation and Off-Reservation Trust Land, WI",2721.0,,211.0,,548.0,,69.0,,22.0,,20.0,,1926.0,,183.0,,57.0,,23.0,,5.0,,7.0,,3.0,,4.0,,104.0,,46.0,,56.0,,38.0,,1815,62.0,24.041630560342615,2033.0,188.73526432545668
1825,"Lac du Flambeau Reservation, WI",3413.0,,76.0,,1556.0,,225.0,,19.0,,27.0,,1673.0,,216.0,,32.0,,39.0,,6.0,,9.0,,0.0,,9.0,,65.0,,42.0,,62.0,,45.0,,1825,38.0,40.024992192379,1738.0,220.22942582679545
1830,"Lac Vieux Desert Reservation, MI",226.0,,63.0,,2.0,,3.0,,9.0,,22.0,,207.0,,55.0,,0.0,,10.0,,2.0,,3.0,,0.0,,10.0,,6.0,,12.0,,0.0,,10.0,,1830,2.0,10.44030650891055,213.0,57.175169435691224
1915,"Las Vegas Indian Colony, NV",126.0,,98.0,,2.0,,4.0,,0.0,,12.0,,108.0,,88.0,,0.0,,12.0,,0.0,,12.0,,0.0,,12.0,,0.0,,12.0,,16.0,,40.0,,1915,0.0,12.0,108.0,88.81441324469807
1963,"Little Traverse Bay Reservation and Off-Reservation Trust Land, MI",73.0,,46.0,,20.0,,17.0,,0.0,,10.0,,20.0,,12.0,,0.0,,10.0,,1.0,,3.0,,0.0,,10.0,,30.0,,28.0,,2.0,,3.0,,1963,1.0,10.44030650891055,50.0,32.0624390837628
1960,"Little River Reservation and Off-Reservation Trust Land, MI",107.0,,53.0,,24.0,,17.0,,0.0,,10.0,,57.0,,42.0,,3.0,,5.0,,0.0,,10.0,,0.0,,10.0,,12.0,,13.0,,11.0,,11.0,,1960,3.0,11.180339887498949,69.0,45.088801270381985
1955,"Likely Rancheria, CA",0.0,,12.0,,0.0,,12.0,,0.0,,12.0,,0.0,,12.0,,0.0,,12.0,,0.0,,12.0,,0.0,,12.0,,0.0,,12.0,,0.0,,12.0,,1955,0.0,12.0,0.0,12.0
1925,"Laytonville Rancheria, CA",251.0,,76.0,,16.0,,13.0,,5.0,,7.0,,195.0,,67.0,,2.0,,5.0,,0.0,,12.0,,0.0,,12.0,,31.0,,26.0,,2.0,,3.0,,1925,2.0,13.0,226.0,72.86288492778748
1970,"Lone Pine Reservation, CA",157.0,,48.0,,24.0,,18.0,,0.0,,12.0,,120.0,,41.0,,0.0,,12.0,,0.0,,12.0,,0.0,,12.0,,0.0,,12.0,,13.0,,16.0,,1970,0.0,12.0,120.0,42.720018726587654
1940,"Leech Lake Reservation and Off-Reservation Trust Land, MN",11229.0,,306.0,,5716.0,,206.0,,49.0,,28.0,,4515.0,,236.0,,84.0,,32.0,,4.0,,5.0,,0.0,,14.0,,555.0,,113.0,,306.0,,91.0,,1940,88.0,32.38826948140329,5070.0,262.0324407396916
1980,"Lookout Rancheria, CA",17.0,,10.0,,4.0,,7.0,,0.0,,12.0,,13.0,,10.0,,0.0,,12.0,,0.0,,12.0,,0.0,,12.0,,0.0,,12.0,,0.0,,12.0,,1980,0.0,12.0,13.0,15.620499351813308
1995,"Los Coyotes Reservation, CA",105.0,,39.0,,8.0,,7.0,,0.0,,12.0,,80.0,,37.0,,0.0,,12.0,,0.0,,12.0,,0.0,,12.0,,6.0,,6.0,,11.0,,10.0,,1995,0.0,12.0,86.0,39.35733730830886
2030,"Lower Brule Reservation and Off-Reservation Trust Land, SD",1631.0,,74.0,,111.0,,46.0,,3.0,,4.0,,1451.0,,48.0,,4.0,,5.0,,5.0,,5.0,,0.0,,9.0,,20.0,,13.0,,37.0,,29.0,,2030,9.0,7.0710678118654755,1471.0,50.53711507397311
2040,"Lower Elwha Reservation and Off-Reservation Trust Land, WA",603.0,,138.0,,58.0,,23.0,,0.0,,12.0,,411.0,,92.0,,5.0,,12.0,,10.0,,14.0,,0.0,,12.0,,40.0,,22.0,,79.0,,65.0,,2040,15.0,18.439088914585774,451.0,95.35197952848173
2015,"Lovelock Indian Colony, NV",53.0,,48.0,,9.0,,10.0,,0.0,,12.0,,42.0,,44.0,,0.0,,12.0,,0.0,,12.0,,0.0,,12.0,,2.0,,5.0,,0.0,,12.0,,2015,0.0,12.0,44.0,45.880278987817846
2055,"Lower Sioux Indian Community, MN",551.0,,100.0,,41.0,,14.0,,6.0,,6.0,,333.0,,86.0,,9.0,,11.0,,0.0,,9.0,,0.0,,9.0,,40.0,,20.0,,122.0,,60.0,,2055,9.0,14.212670403551895,373.0,88.75246475450696
2075,"Lytton Rancheria, CA",0.0,,12.0,,0.0,,12.0,,0.0,,12.0,,0.0,,12.0,,0.0,,12.0,,0.0,,12.0,,0.0,,12.0,,0.0,,12.0,,0.0,,12.0,,2075,0.0,12.0,0.0,12.0
2085,"Makah Indian Reservation, WA",1632.0,,170.0,,120.0,,34.0,,0.0,,12.0,,1321.0,,159.0,,0.0,,12.0,,0.0,,12.0,,0.0,,12.0,,131.0,,61.0,,60.0,,37.0,,2085,0.0,12.0,1452.0,170.72199623950044
2070,"Lummi Reservation, WA",5583.0,,392.0,,2219.0,,175.0,,43.0,,45.0,,2743.0,,343.0,,64.0,,32.0,,51.0,,43.0,,4.0,,7.0,,174.0,,78.0,,285.0,,125.0,,2070,115.0,53.600373133029585,2921.0,351.82666186632304
2145,"Mashantucket Pequot Reservation, CT",216.0,,77.0,,27.0,,14.0,,1.0,,4.0,,155.0,,69.0,,1.0,,2.0,,0.0,,12.0,,1.0,,5.0,,24.0,,18.0,,7.0,,9.0,,2145,1.0,12.165525060596439,180.0,71.48426400264607
2175,"Menominee Reservation, WI",3390.0,,241.0,,100.0,,42.0,,22.0,,18.0,,3079.0,,241.0,,0.0,,9.0,,0.0,,9.0,,0.0,,9.0,,87.0,,48.0,,102.0,,80.0,,2175,0.0,9.0,3166.0,245.89835298350414
2190,"Mesa Grande Reservation, CA",78.0,,27.0,,2.0,,3.0,,0.0,,12.0,,44.0,,25.0,,8.0,,12.0,,0.0,,12.0,,0.0,,12.0,,3.0,,6.0,,21.0,,16.0,,2190,8.0,16.97056274847714,47.0,28.372521918222215
2115,"Manzanita Reservation and Off-Reservation Trust Land, CA",61.0,,36.0,,1.0,,3.0,,0.0,,12.0,,40.0,,27.0,,0.0,,12.0,,0.0,,12.0,,0.0,,12.0,,7.0,,16.0,,13.0,,13.0,,2115,0.0,12.0,47.0,33.60059523282288
2130,"Maricopa (Ak Chin) Indian Reservation and Off-Reservation Trust Land, AZ",1348.0,,320.0,,20.0,,20.0,,8.0,,10.0,,1027.0,,268.0,,0.0,,12.0,,0.0,,12.0,,0.0,,12.0,,54.0,,54.0,,239.0,,82.0,,2130,0.0,12.0,1081.0,273.64941074301623
2285,"Minnesota Chippewa Trust Land, MN",0.0,,9.0,,0.0,,9.0,,0.0,,9.0,,0.0,,9.0,,0.0,,9.0,,0.0,,9.0,,0.0,,9.0,,0.0,,9.0,,0.0,,9.0,,2285,0.0,9.0,0.0,9.0
2147,"Mashpee Wampanoag Trust Land, MA",0.0,,12.0,,0.0,,12.0,,0.0,,12.0,,0.0,,12.0,,0.0,,12.0,,0.0,,12.0,,0.0,,12.0,,0.0,,12.0,,0.0,,12.0,,2147,0.0,12.0,0.0,12.0
2150,"Match-e-be-nash-she-wish Band of Pottawatomi Reservation and Off-Reservation Trust Land, MI",39.0,,59.0,,21.0,,33.0,,0.0,,10.0,,18.0,,26.0,,0.0,,10.0,,0.0,,10.0,,0.0,,10.0,,0.0,,10.0,,0.0,,10.0,,2150,0.0,10.0,18.0,27.85677655436824
2100,"Manchester-Point Arena Rancheria, CA",365.0,,117.0,,13.0,,15.0,,0.0,,12.0,,198.0,,97.0,,5.0,,8.0,,1.0,,3.0,,0.0,,12.0,,33.0,,29.0,,115.0,,48.0,,2100,6.0,8.54400374531753,231.0,101.95096860746347
2240,"Miccosukee Reservation and Off-Reservation Trust Land, FL",6.0,,11.0,,0.0,,13.0,,0.0,,13.0,,0.0,,13.0,,0.0,,13.0,,0.0,,13.0,,0.0,,13.0,,0.0,,13.0,,6.0,,11.0,,2240,0.0,13.0,0.0,13.0
2205,"Mescalero Reservation, NM",3730.0,,313.0,,121.0,,54.0,,1.0,,2.0,,3280.0,,294.0,,0.0,,12.0,,0.0,,12.0,,0.0,,12.0,,0.0,,12.0,,328.0,,117.0,,2205,0.0,12.0,3280.0,294.24479604574145
2255,"Middletown Rancheria, CA",0.0,,12.0,,0.0,,12.0,,0.0,,12.0,,0.0,,12.0,,0.0,,12.0,,0.0,,12.0,,0.0,,12.0,,0.0,,12.0,,0.0,,12.0,,2255,0.0,12.0,0.0,12.0
2315,"Moapa River Indian Reservation, NV",294.0,,71.0,,4.0,,5.0,,8.0,,10.0,,215.0,,60.0,,0.0,,12.0,,19.0,,23.0,,0.0,,12.0,,4.0,,4.0,,44.0,,22.0,,2315,19.0,25.942243542145693,219.0,61.318838867023565
2270,"Mille Lacs Reservation and Off-Reservation Trust Land, MN",4425.0,,205.0,,2733.0,,160.0,,51.0,,34.0,,1266.0,,137.0,,33.0,,18.0,,0.0,,9.0,,10.0,,10.0,,184.0,,62.0,,148.0,,59.0,,2270,33.0,20.12461179749811,1460.0,150.7083275734954
2375,"Muckleshoot Reservation and Off-Reservation Trust Land, WA",4049.0,,421.0,,1752.0,,248.0,,178.0,,60.0,,922.0,,216.0,,133.0,,47.0,,96.0,,56.0,,4.0,,7.0,,190.0,,55.0,,774.0,,145.0,,2375,229.0,73.10950690573696,1116.0,223.0022421411946
2300,"Mississippi Choctaw Reservation, MS",7867.0,,490.0,,177.0,,96.0,,217.0,,156.0,,6951.0,,393.0,,104.0,,56.0,,8.0,,13.0,,0.0,,18.0,,257.0,,160.0,,153.0,,133.0,,2300,112.0,57.48912940721924,7208.0,424.7034259339098
2320,"Mohegan Reservation and Off-Reservation Trust Land, CT",283.0,,228.0,,77.0,,61.0,,0.0,,12.0,,41.0,,32.0,,1.0,,3.0,,0.0,,12.0,,10.0,,17.0,,154.0,,175.0,,0.0,,12.0,,2320,1.0,12.36931687685298,205.0,178.712058910416
2340,"Mooretown Rancheria and Off-Reservation Trust Land, CA",160.0,,60.0,,24.0,,14.0,,0.0,,12.0,,56.0,,41.0,,0.0,,12.0,,0.0,,12.0,,3.0,,5.0,,34.0,,16.0,,43.0,,28.0,,2340,0.0,12.0,93.0,44.294469180700204
2360,"Morongo Reservation and Off-Reservation Trust Land, CA",777.0,,187.0,,207.0,,109.0,,6.0,,10.0,,380.0,,114.0,,12.0,,16.0,,0.0,,12.0,,0.0,,12.0,,38.0,,20.0,,134.0,,63.0,,2360,12.0,20.0,418.0,116.36150566231085
2330,"Montgomery Creek Rancheria, CA",4.0,,7.0,,0.0,,12.0,,0.0,,12.0,,4.0,,7.0,,0.0,,12.0,,0.0,,12.0,,0.0,,12.0,,0.0,,12.0,,0.0,,12.0,,2330,0.0,12.0,4.0,13.892443989449804
2490,"Northern Cheyenne Indian Reservation and Off-Reservation Trust Land, MT--SD",4931.0,,323.0,,224.0,,57.0,,10.0,,11.0,,4476.0,,316.0,,1.0,,3.0,,0.0,,11.0,,0.0,,11.0,,49.0,,33.0,,171.0,,135.0,,2490,1.0,11.40175425099138,4525.0,317.9087919514023
2495,"North Fork Rancheria and Off-Reservation Trust Land, CA",138.0,,50.0,,8.0,,6.0,,0.0,,12.0,,114.0,,47.0,,2.0,,4.0,,0.0,,12.0,,0.0,,12.0,,0.0,,12.0,,14.0,,24.0,,2495,2.0,12.649110640673518,114.0,48.507731342539614
2415,"Narragansett Reservation, RI",0.0,,13.0,,0.0,,13.0,,0.0,,13.0,,0.0,,13.0,,0.0,,13.0,,0.0,,13.0,,0.0,,13.0,,0.0,,13.0,,0.0,,13.0,,2415,0.0,13.0,0.0,13.0
2445,"Nez Perce Reservation, ID",18770.0,,442.0,,14623.0,,389.0,,40.0,,27.0,,2507.0,,222.0,,120.0,,33.0,,16.0,,18.0,,14.0,,16.0,,491.0,,97.0,,959.0,,149.0,,2445,136.0,37.589892258425,3012.0,242.79415149463549
2430,"Navajo Nation Reservation and Off-Reservation Trust Land, AZ--NM--UT",172875.0,,2223.0,,2650.0,,278.0,,527.0,,196.0,,164734.0,,1987.0,,566.0,,150.0,,120.0,,59.0,,37.0,,39.0,,1536.0,,230.0,,2705.0,,313.0,,2430,686.0,161.1862276995153,166307.0,2000.6473952198573
2400,"Nambe Pueblo and Off-Reservation Trust Land, NM",1613.0,,122.0,,260.0,,56.0,,4.0,,6.0,,315.0,,68.0,,0.0,,12.0,,0.0,,12.0,,3.0,,4.0,,29.0,,21.0,,1002.0,,107.0,,2400,0.0,12.0,347.0,71.28113354878694
2475,"Nooksack Reservation and Off-Reservation Trust Land, WA",1139.0,,190.0,,193.0,,93.0,,3.0,,5.0,,643.0,,125.0,,25.0,,22.0,,11.0,,11.0,,0.0,,12.0,,200.0,,81.0,,64.0,,37.0,,2475,36.0,24.596747752497688,843.0,149.43225890014511
2460,"Nisqually Reservation, WA",666.0,,144.0,,135.0,,30.0,,14.0,,11.0,,426.0,,114.0,,9.0,,9.0,,16.0,,25.0,,0.0,,12.0,,18.0,,12.0,,48.0,,40.0,,2460,25.0,26.570660511172846,444.0,115.25623627379127
2505,"Northwestern Shoshone Reservation, UT",0.0,,11.0,,0.0,,11.0,,0.0,,11.0,,0.0,,11.0,,0.0,,11.0,,0.0,,11.0,,0.0,,11.0,,0.0,,11.0,,0.0,,11.0,,2505,0.0,11.0,0.0,11.0
2560,"Oneida (WI) Reservation and Off-Reservation Trust Land, WI",24800.0,,412.0,,18110.0,,614.0,,223.0,,110.0,,4012.0,,468.0,,504.0,,377.0,,0.0,,16.0,,0.0,,16.0,,1273.0,,368.0,,678.0,,186.0,,2560,504.0,377.3393697985939,5285.0,595.5703149083238
2550,"Omaha Reservation, NE--IA",4831.0,,152.0,,2276.0,,111.0,,11.0,,7.0,,2181.0,,133.0,,24.0,,14.0,,0.0,,11.0,,0.0,,11.0,,38.0,,16.0,,301.0,,64.0,,2550,24.0,17.804493814764857,2219.0,134.40982106974178
2595,"Osage Reservation, OK",47311.0,,-555555555.0,*****,30067.0,,9.0,,5322.0,,109.0,,6012.0,,298.0,,183.0,,40.0,,12.0,,17.0,,0.0,,20.0,,4047.0,,330.0,,1668.0,,-555555555.0,*****,2595,195.0,43.46262762420146,10059.0,445.0887551938377
2580,"Ontonagon Reservation, MI",0.0,,10.0,,0.0,,10.0,,0.0,,10.0,,0.0,,10.0,,0.0,,10.0,,0.0,,10.0,,0.0,,10.0,,0.0,,10.0,,0.0,,10.0,,2580,0.0,10.0,0.0,10.0
2535,"Oil Springs Reservation, NY",2.0,,3.0,,1.0,,2.0,,0.0,,12.0,,0.0,,12.0,,0.0,,12.0,,0.0,,12.0,,0.0,,12.0,,1.0,,3.0,,0.0,,12.0,,2535,0.0,12.0,1.0,12.36931687685298
2555,"Oneida Nation Reservation, NY",0.0,,12.0,,0.0,,12.0,,0.0,,12.0,,0.0,,12.0,,0.0,,12.0,,0.0,,12.0,,0.0,,12.0,,0.0,,12.0,,0.0,,12.0,,2555,0.0,12.0,0.0,12.0
2570,"Onondaga Nation Reservation, NY",134.0,,111.0,,0.0,,12.0,,0.0,,12.0,,88.0,,23.0,,33.0,,77.0,,0.0,,12.0,,0.0,,12.0,,0.0,,12.0,,13.0,,31.0,,2570,33.0,77.92945527847606,88.0,25.942243542145693
2510,"Ohkay Owingeh, NM",6541.0,,495.0,,531.0,,114.0,,47.0,,26.0,,1352.0,,225.0,,46.0,,39.0,,2.0,,2.0,,21.0,,28.0,,66.0,,46.0,,4476.0,,427.0,,2510,48.0,39.05124837953327,1439.0,231.3547060251855
2625,"Paiute (UT) Reservation, UT",378.0,,132.0,,18.0,,12.0,,0.0,,11.0,,322.0,,116.0,,0.0,,11.0,,2.0,,4.0,,0.0,,11.0,,10.0,,9.0,,26.0,,37.0,,2625,2.0,11.704699910719626,332.0,116.86744627996283
2685,"Paskenta Rancheria, CA",0.0,,12.0,,0.0,,12.0,,0.0,,12.0,,0.0,,12.0,,0.0,,12.0,,0.0,,12.0,,0.0,,12.0,,0.0,,12.0,,0.0,,12.0,,2685,0.0,12.0,0.0,12.0
2680,"Pascua Pueblo Yaqui Reservation and Off-Reservation Trust Land, AZ",4111.0,,272.0,,46.0,,27.0,,9.0,,7.0,,2765.0,,290.0,,0.0,,12.0,,0.0,,12.0,,4.0,,5.0,,91.0,,51.0,,1196.0,,153.0,,2680,0.0,12.0,2860.0,294.4927842919076
2635,"Pala Reservation, CA",1288.0,,256.0,,101.0,,59.0,,35.0,,37.0,,593.0,,145.0,,46.0,,80.0,,26.0,,22.0,,0.0,,12.0,,48.0,,29.0,,439.0,,126.0,,2635,72.0,82.96987405076617,641.0,148.35767590522573
2695,"Passamaquoddy Trust Land, ME",0.0,,10.0,,0.0,,10.0,,0.0,,10.0,,0.0,,10.0,,0.0,,10.0,,0.0,,10.0,,0.0,,10.0,,0.0,,10.0,,0.0,,10.0,,2695,0.0,10.0,0.0,10.0
9150,"Hassanamisco Reservation (state), MA",0.0,,12.0,,0.0,,12.0,,0.0,,12.0,,0.0,,12.0,,0.0,,12.0,,0.0,,12.0,,0.0,,12.0,,0.0,,12.0,,0.0,,12.0,,9150,0.0,12.0,0.0,12.0
9100,"Golden Hill Paugussett (state) Reservation, CT",1.0,,3.0,,1.0,,3.0,,0.0,,12.0,,0.0,,12.0,,0.0,,12.0,,0.0,,12.0,,0.0,,12.0,,0.0,,12.0,,0.0,,12.0,,9100,0.0,12.0,0.0,12.0
9230,"Mattaponi Reservation (state), VA",48.0,,24.0,,7.0,,6.0,,0.0,,12.0,,32.0,,20.0,,0.0,,12.0,,0.0,,12.0,,0.0,,12.0,,9.0,,8.0,,0.0,,12.0,,9230,0.0,12.0,41.0,24.657656011875904
9240,"MOWA Choctaw Reservation (state), AL",81.0,,40.0,,17.0,,14.0,,0.0,,12.0,,63.0,,36.0,,0.0,,12.0,,0.0,,12.0,,0.0,,12.0,,1.0,,2.0,,0.0,,12.0,,9240,0.0,12.0,64.0,38.0
9260,"Pamunkey Reservation (state), VA",87.0,,33.0,,17.0,,10.0,,0.0,,12.0,,56.0,,24.0,,5.0,,7.0,,0.0,,12.0,,0.0,,12.0,,9.0,,11.0,,0.0,,12.0,,9260,5.0,13.892443989449804,65.0,29.0
9280,"Paucatuck Eastern Pequot Reservation (state), CT",36.0,,21.0,,14.0,,10.0,,0.0,,12.0,,10.0,,11.0,,0.0,,12.0,,0.0,,12.0,,0.0,,12.0,,12.0,,9.0,,0.0,,12.0,,9280,0.0,12.0,22.0,18.601075237738275
9300,"Poospatuck Reservation (state), NY",692.0,,214.0,,56.0,,42.0,,130.0,,76.0,,434.0,,168.0,,0.0,,12.0,,0.0,,12.0,,0.0,,12.0,,26.0,,20.0,,46.0,,40.0,,9300,0.0,12.0,460.0,169.6113203769135
9350,"Schaghticoke Reservation (state), CT",11.0,,21.0,,3.0,,6.0,,0.0,,12.0,,4.0,,7.0,,0.0,,12.0,,0.0,,12.0,,0.0,,12.0,,4.0,,8.0,,0.0,,12.0,,9350,0.0,12.0,8.0,16.0312195418814
9370,"Shinnecock Reservation (state), NY",16.0,,20.0,,0.0,,12.0,,0.0,,12.0,,5.0,,8.0,,11.0,,19.0,,0.0,,12.0,,0.0,,12.0,,0.0,,12.0,,0.0,,12.0,,9370,11.0,22.47220505424423,5.0,14.422205101855956
9400,"Tama Reservation (state), GA",11.0,,12.0,,0.0,,13.0,,0.0,,13.0,,11.0,,12.0,,0.0,,13.0,,0.0,,13.0,,0.0,,13.0,,0.0,,13.0,,0.0,,13.0,,9400,0.0,13.0,11.0,17.69180601295413
9510,"Adais Caddo (state) SDTSA, LA",2269.0,,274.0,,1495.0,,211.0,,423.0,,110.0,,65.0,,32.0,,20.0,,18.0,,0.0,,12.0,,81.0,,44.0,,81.0,,47.0,,104.0,,55.0,,9510,20.0,21.633307652783937,227.0,71.89575787207477
9515,"Apache Choctaw (state) SDTSA, LA",6903.0,,401.0,,3361.0,,280.0,,919.0,,160.0,,1250.0,,179.0,,64.0,,22.0,,0.0,,17.0,,4.0,,6.0,,751.0,,196.0,,554.0,,130.0,,9515,64.0,27.80287754891569,2005.0,265.5051788572118
9560,"Cherokee Tribe of Northeast Alabama (state) SDTSA, AL",14453.0,,719.0,,12030.0,,493.0,,165.0,,86.0,,96.0,,52.0,,120.0,,71.0,,1.0,,3.0,,3.0,,6.0,,181.0,,78.0,,1857.0,,509.0,,9560,121.0,71.06335201775947,280.0,93.93614852653903
9580,"Chickahominy (state) SDTSA, VA",3601.0,,189.0,,1494.0,,117.0,,1447.0,,149.0,,395.0,,39.0,,19.0,,14.0,,0.0,,12.0,,21.0,,14.0,,125.0,,39.0,,100.0,,21.0,,9580,19.0,18.439088914585774,541.0,56.90342696182718
9525,"Beaver Creek SDTSA, SC",1005.0,,209.0,,272.0,,84.0,,653.0,,170.0,,55.0,,57.0,,0.0,,12.0,,0.0,,12.0,,0.0,,12.0,,14.0,,19.0,,11.0,,22.0,,9525,0.0,12.0,69.0,61.26989472816156
9550,"Cher-O-Creek SDTSA, AL",86566.0,,550.0,,54599.0,,572.0,,26124.0,,357.0,,272.0,,77.0,,830.0,,56.0,,13.0,,20.0,,46.0,,19.0,,1562.0,,183.0,,3120.0,,137.0,,9550,843.0,59.464274989274024,1880.0,199.44673474389094
9630,"Clifton Choctaw (state) SDTSA, LA",476.0,,106.0,,272.0,,68.0,,5.0,,6.0,,157.0,,52.0,,3.0,,7.0,,0.0,,12.0,,2.0,,4.0,,10.0,,11.0,,27.0,,19.0,,9630,3.0,13.892443989449804,169.0,53.301031884945715
9635,"Coharie (state) SDTSA, NC",62167.0,,1865.0,,33628.0,,1180.0,,16735.0,,996.0,,1020.0,,190.0,,546.0,,132.0,,123.0,,54.0,,125.0,,112.0,,1899.0,,276.0,,8091.0,,837.0,,9635,669.0,142.61837188805654,3044.0,353.29874044496677
9745,"Haliwa-Saponi (state) SDTSA, NC",8713.0,,646.0,,1208.0,,224.0,,4195.0,,516.0,,2618.0,,162.0,,84.0,,51.0,,16.0,,19.0,,12.0,,14.0,,294.0,,104.0,,286.0,,164.0,,9745,100.0,54.42425929675111,2924.0,193.0181338631166
9675,"Eastern Chickahominy (state) SDTSA, VA",251.0,,83.0,,175.0,,89.0,,9.0,,8.0,,42.0,,32.0,,1.0,,2.0,,0.0,,12.0,,0.0,,12.0,,22.0,,27.0,,2.0,,5.0,,9675,1.0,12.165525060596439,64.0,43.55456348076513
9680,"Echota Cherokee (state) SDTSA, AL",56691.0,,1716.0,,44942.0,,1635.0,,5497.0,,819.0,,1963.0,,353.0,,686.0,,361.0,,124.0,,111.0,,113.0,,109.0,,2125.0,,500.0,,1241.0,,436.0,,9680,810.0,377.6797585256589,4201.0,621.6831990652474
9720,"Four Winds Cherokee (state) SDTSA, LA",31380.0,,1242.0,,18946.0,,997.0,,7892.0,,395.0,,210.0,,73.0,,588.0,,102.0,,150.0,,57.0,,19.0,,14.0,,933.0,,181.0,,2642.0,,329.0,,9720,738.0,116.84605256490268,1162.0,195.66808630944394
9960,"United Houma Nation (state) SDTSA, LA",203711.0,,1480.0,,141526.0,,1216.0,,35422.0,,987.0,,7823.0,,636.0,,1939.0,,349.0,,23.0,,32.0,,145.0,,97.0,,4703.0,,922.0,,12130.0,,436.0,,9960,1962.0,350.46397817750113,12671.0,1124.272653763312
9970,"Waccamaw Siouan (state) SDTSA, NC",2008.0,,278.0,,328.0,,88.0,,297.0,,93.0,,1299.0,,190.0,,10.0,,21.0,,2.0,,5.0,,0.0,,12.0,,58.0,,30.0,,14.0,,17.0,,9970,12.0,21.587033144922902,1357.0,192.72778730634562
9950,"United Cherokee Ani-Yun-Wiya Nation SDTSA, AL",6496.0,,524.0,,4987.0,,448.0,,847.0,,200.0,,21.0,,18.0,,77.0,,75.0,,3.0,,5.0,,0.0,,17.0,,119.0,,54.0,,442.0,,208.0,,9950,80.0,75.16648189186454,140.0,59.405386961116584
9963,"Upper South Carolina Pee Dee SDTSA, SC",1363.0,,194.0,,610.0,,109.0,,512.0,,149.0,,127.0,,57.0,,1.0,,2.0,,2.0,,4.0,,0.0,,12.0,,44.0,,28.0,,67.0,,61.0,,9963,3.0,4.47213595499958,171.0,64.6297145282261
9967,"Waccamaw SDTSA, SC",9.0,,6.0,,7.0,,6.0,,0.0,,12.0,,2.0,,3.0,,0.0,,12.0,,0.0,,12.0,,0.0,,12.0,,0.0,,12.0,,0.0,,12.0,,9967,0.0,12.0,2.0,12.36931687685298
9975,"Wassamasaw SDTSA, SC",2188.0,,290.0,,1602.0,,209.0,,346.0,,139.0,,82.0,,55.0,,19.0,,15.0,,0.0,,12.0,,4.0,,6.0,,62.0,,29.0,,73.0,,40.0,,9975,19.0,19.209372712298546,148.0,62.465990746965666
9815,"Lumbee (state) SDTSA, NC",503825.0,,1605.0,,185743.0,,1215.0,,173706.0,,1291.0,,64099.0,,607.0,,8928.0,,497.0,,771.0,,177.0,,1077.0,,305.0,,18581.0,,1179.0,,50920.0,,647.0,,9815,9699.0,527.5774824611074,83757.0,1360.7038619773223
9820,"MaChis Lower Creek (state) SDTSA, AL",22625.0,,562.0,,19209.0,,580.0,,1156.0,,165.0,,418.0,,98.0,,79.0,,34.0,,4.0,,7.0,,5.0,,5.0,,629.0,,212.0,,1125.0,,243.0,,9820,83.0,34.713109915419565,1052.0,233.60864710023043
9825,"Meherrin (state) SDTSA, NC",7630.0,,459.0,,2041.0,,261.0,,4804.0,,435.0,,153.0,,37.0,,110.0,,57.0,,4.0,,3.0,,15.0,,19.0,,169.0,,56.0,,334.0,,167.0,,9825,114.0,57.07889277132134,337.0,69.75672010638115
9830,"Nanticoke Indian Tribe (state) SDTSA, DE",8546.0,,476.0,,6476.0,,351.0,,812.0,,130.0,,278.0,,107.0,,191.0,,108.0,,0.0,,16.0,,15.0,,21.0,,253.0,,97.0,,521.0,,115.0,,9830,191.0,109.17875251164945,546.0,145.94176920950355
9835,"Nanticoke Lenni Lenape (state) SDTSA, NJ",5932.0,,447.0,,1502.0,,200.0,,3022.0,,336.0,,282.0,,90.0,,29.0,,27.0,,0.0,,17.0,,10.0,,8.0,,285.0,,88.0,,802.0,,182.0,,9835,29.0,31.906112267087632,577.0,126.1269202034205
9850,"Ramapough (state) SDTSA, NJ",994.0,,167.0,,442.0,,76.0,,85.0,,69.0,,181.0,,92.0,,45.0,,24.0,,0.0,,12.0,,25.0,,36.0,,44.0,,31.0,,172.0,,72.0,,9850,45.0,26.832815729997478,250.0,103.54226190305097
9880,"Star Muskogee Creek (state) SDTSA, AL",6190.0,,499.0,,3348.0,,338.0,,2481.0,,368.0,,15.0,,13.0,,30.0,,36.0,,3.0,,5.0,,0.0,,17.0,,183.0,,71.0,,130.0,,65.0,,9880,33.0,36.345563690772494,198.0,74.15524256584965
9800,"Lenape Indian Tribe of Delaware SDTSA, DE",667.0,,135.0,,326.0,,70.0,,78.0,,33.0,,200.0,,83.0,,8.0,,10.0,,0.0,,11.0,,6.0,,7.0,,40.0,,28.0,,9.0,,11.0,,9800,8.0,14.866068747318506,246.0,87.87491109526086
9838,"Occaneechi-Saponi SDTSA, NC",9522.0,,532.0,,5947.0,,379.0,,2426.0,,258.0,,94.0,,55.0,,12.0,,8.0,,8.0,,11.0,,12.0,,13.0,,260.0,,107.0,,763.0,,193.0,,9838,20.0,13.601470508735444,366.0,121.00826418059222
9844,"Pee Dee SDTSA, SC",3210.0,,366.0,,839.0,,175.0,,1717.0,,229.0,,119.0,,69.0,,10.0,,15.0,,0.0,,12.0,,0.0,,12.0,,60.0,,39.0,,465.0,,115.0,,9844,10.0,19.209372712298546,179.0,80.16233529532433
9865,"Sappony SDTSA, NC",2611.0,,394.0,,1766.0,,283.0,,614.0,,148.0,,67.0,,45.0,,28.0,,33.0,,1.0,,2.0,,6.0,,8.0,,69.0,,45.0,,60.0,,57.0,,9865,29.0,33.06055050963308,142.0,64.1404708432983
9875,"Santee SDTSA, SC",560.0,,125.0,,140.0,,55.0,,294.0,,75.0,,88.0,,65.0,,0.0,,12.0,,0.0,,12.0,,0.0,,12.0,,30.0,,31.0,,8.0,,14.0,,9875,0.0,12.0,118.0,73.00684899377592
