geoid,name,universe,universe_annotation,universe_moe,universe_moe_annotation,white_alone,white_alone_annotation,white_alone_moe,white_alone_moe_annotation,black_alone,black_alone_annotation,black_alone_moe,black_alone_moe_annotation,american_indian_and_alaska_native,american_indian_and_alaska_native_annotation,american_indian_and_alaska_native_moe,american_indian_and_alaska_native_moe_annotation,asian_alone,asian_alone_annotation,asian_alone_moe,asian_alone_moe_annotation,native_hawaiian_and_pacific_islander,native_hawaiian_and_pacific_islander_annotation,native_hawaiian_and_pacific_islander_moe,native_hawaiian_and_pacific_islander_moe_annotation,other_alone,other_alone_annotation,other_alone_moe,other_alone_moe_annotation,two_or_more_races,two_or_more_races_annotation,two_or_more_races_moe,two_or_more_races_moe_annotation,latino_alone,latino_alone_annotation,latino_alone_moe,latino_alone_moe_annotation,state,school district (secondary),asians_all,asians_all_moe,other_all,other_all_moe
0400082,"Colorado River Union High School District, Arizona",65496.0,,963.0,,46495.0,,1301.0,,891.0,,305.0,,1032.0,,312.0,,842.0,,265.0,,400.0,,156.0,,37.0,,40.0,,1151.0,,270.0,,14648.0,,1076.0,,04,00082,1242.0,307.50772348024043,2220.0,414.5407097017131
0400450,"Agua Fria Union High School District, Arizona",142974.0,,2023.0,,71022.0,,2064.0,,10799.0,,1202.0,,1293.0,,439.0,,6512.0,,749.0,,251.0,,170.0,,202.0,,178.0,,4601.0,,726.0,,48294.0,,2506.0,,04,00450,6763.0,768.0501285723478,6096.0,866.8800378368394
0400720,"Antelope Union High School District, Arizona",6621.0,,634.0,,3092.0,,734.0,,0.0,,17.0,,1.0,,2.0,,45.0,,50.0,,9.0,,14.0,,4.0,,6.0,,89.0,,60.0,,3381.0,,695.0,,04,00720,54.0,51.92301994298868,94.0,60.332412515993425
0401160,"Bicentennial Union High School District, Arizona",9614.0,,406.0,,7808.0,,375.0,,0.0,,17.0,,31.0,,24.0,,114.0,,67.0,,0.0,,17.0,,0.0,,17.0,,97.0,,62.0,,1564.0,,423.0,,04,01160,114.0,69.12307863514182,128.0,68.62215385719105
0401410,"Buckeye Union High School District, Arizona",79340.0,,1738.0,,39177.0,,1492.0,,6031.0,,925.0,,968.0,,343.0,,1356.0,,539.0,,123.0,,74.0,,334.0,,433.0,,1332.0,,355.0,,30019.0,,1513.0,,04,01410,1479.0,544.056063287599,2634.0,656.6300328190906
0401740,"Casa Grande Union High School District, Arizona",93977.0,,2062.0,,39446.0,,1474.0,,2148.0,,520.0,,8673.0,,891.0,,1128.0,,276.0,,42.0,,58.0,,49.0,,51.0,,2096.0,,542.0,,40395.0,,2040.0,,04,01740,1170.0,282.02836736753983,10818.0,1044.1484568776607
0403450,"Glendale Union High School District, Arizona",354145.0,,3832.0,,159144.0,,3421.0,,25216.0,,1947.0,,5476.0,,779.0,,12305.0,,1185.0,,664.0,,261.0,,1221.0,,598.0,,8262.0,,1043.0,,141857.0,,3401.0,,04,03450,12969.0,1213.4026536974443,14959.0,1432.5829818897055
0405070,"Mingus Union High School District, Arizona",35614.0,,1150.0,,28110.0,,1154.0,,248.0,,130.0,,388.0,,141.0,,117.0,,80.0,,47.0,,72.0,,0.0,,26.0,,921.0,,306.0,,5783.0,,783.0,,04,05070,164.0,107.62899237658968,1309.0,337.92454779136716
0406030,"Patagonia Union High School District, Arizona",3023.0,,312.0,,2296.0,,256.0,,0.0,,12.0,,16.0,,31.0,,5.0,,8.0,,0.0,,12.0,,2.0,,3.0,,110.0,,100.0,,594.0,,219.0,,04,06030,5.0,14.422205101855956,128.0,104.7377677822093
0406330,"Phoenix Union High School District, Arizona",726465.0,,5344.0,,182807.0,,3369.0,,63230.0,,2321.0,,15751.0,,1453.0,,17281.0,,1538.0,,1171.0,,402.0,,787.0,,324.0,,12748.0,,1161.0,,432690.0,,4860.0,,04,06330,18452.0,1589.669147967589,29286.0,1887.8840006737703
0407530,"Santa Cruz Valley Union High School District, Arizona",20773.0,,914.0,,7116.0,,709.0,,1544.0,,339.0,,551.0,,225.0,,388.0,,105.0,,598.0,,205.0,,0.0,,23.0,,466.0,,204.0,,10110.0,,670.0,,04,07530,986.0,230.32585612562042,1017.0,304.58168034207176
0408340,"Tempe Union High School District, Arizona",323978.0,,2586.0,,183344.0,,3413.0,,20882.0,,1513.0,,8924.0,,1367.0,,24950.0,,1392.0,,662.0,,234.0,,603.0,,255.0,,9776.0,,1089.0,,74837.0,,3024.0,,04,08340,25612.0,1411.5310836109845,19303.0,1766.24884996424
0408520,"Tolleson Union High School District, Arizona",201239.0,,2996.0,,42439.0,,1755.0,,17409.0,,1940.0,,3385.0,,854.0,,4906.0,,889.0,,1048.0,,516.0,,125.0,,118.0,,4225.0,,951.0,,127702.0,,3441.0,,04,08520,5954.0,1027.8993141353874,7735.0,1283.6046899259911
0408910,"Valley Union High School District, Arizona",3820.0,,442.0,,2644.0,,277.0,,13.0,,25.0,,103.0,,87.0,,5.0,,6.0,,0.0,,12.0,,0.0,,12.0,,27.0,,23.0,,1028.0,,346.0,,04,08910,5.0,13.416407864998739,130.0,90.78546139112804
0409630,"Yuma Union High School District, Arizona",201208.0,,634.0,,62063.0,,739.0,,3569.0,,296.0,,1886.0,,203.0,,2374.0,,228.0,,90.0,,62.0,,57.0,,50.0,,2880.0,,411.0,,128289.0,,695.0,,04,09630,2464.0,236.2794955132586,4823.0,461.1182061033808
0499999,"Remainder of Arizona, Arizona",4678398.0,,5518.0,,2948883.0,,6427.0,,134634.0,,2778.0,,223468.0,,2337.0,,150149.0,,2651.0,,7418.0,,615.0,,5756.0,,841.0,,105969.0,,3306.0,,1102121.0,,5583.0,,04,99999,157567.0,2721.401477180462,335193.0,4135.03155973446
0602820,"Antelope Valley Union Joint High School District, California",381076.0,,2424.0,,109163.0,,2644.0,,57341.0,,2212.0,,1741.0,,563.0,,15556.0,,1097.0,,519.0,,234.0,,738.0,,264.0,,9233.0,,875.0,,186785.0,,3210.0,,06,02820,16075.0,1121.6795442549535,11712.0,1073.4477164724885
0606018,"Washington Unified School District (9-12), California",9657.0,,823.0,,1779.0,,273.0,,94.0,,76.0,,106.0,,98.0,,769.0,,271.0,,0.0,,17.0,,0.0,,17.0,,158.0,,125.0,,6751.0,,804.0,,06,06018,769.0,271.53268679847736,264.0,159.74354447050436
0606019,"Santa Barbara Unified School District (7-12), California",105853.0,,1450.0,,62601.0,,1566.0,,2314.0,,445.0,,228.0,,157.0,,10751.0,,573.0,,27.0,,44.0,,219.0,,111.0,,3012.0,,359.0,,26701.0,,1238.0,,06,06019,10778.0,574.6868712612113,3459.0,407.24808164066286
0606020,"Lammersville Joint Unified School District (9-12), California",295.0,,139.0,,193.0,,74.0,,0.0,,12.0,,1.0,,2.0,,6.0,,7.0,,0.0,,12.0,,1.0,,3.0,,11.0,,17.0,,83.0,,108.0,,06,06020,6.0,13.892443989449804,13.0,17.378147196982766
0619540,"Kern High School District, California",636879.0,,2139.0,,216606.0,,2379.0,,31295.0,,1457.0,,2828.0,,442.0,,29104.0,,1259.0,,867.0,,167.0,,848.0,,371.0,,12424.0,,1350.0,,342907.0,,1988.0,,06,19540,29971.0,1270.0275587561082,16100.0,1468.1638191972993
0606001,"Yosemite Unified School District (9-12), California",13463.0,,932.0,,10938.0,,884.0,,8.0,,10.0,,129.0,,90.0,,389.0,,261.0,,0.0,,19.0,,0.0,,19.0,,284.0,,139.0,,1715.0,,508.0,,06,06001,389.0,261.6906570743404,413.0,166.67933285203657
0606003,"Twin Rivers Unified School District (9-12), California",3248.0,,504.0,,2487.0,,406.0,,0.0,,12.0,,70.0,,67.0,,165.0,,233.0,,0.0,,12.0,,0.0,,12.0,,63.0,,54.0,,463.0,,241.0,,06,06003,165.0,233.30880823492285,133.0,86.88498144098322
0606004,"Twin Rivers Unified School District (7-12), California",19684.0,,1136.0,,4891.0,,532.0,,2637.0,,654.0,,41.0,,40.0,,3552.0,,628.0,,623.0,,288.0,,58.0,,51.0,,735.0,,343.0,,7147.0,,937.0,,06,06004,4175.0,690.8892820126825,834.0,349.07019351414124
0606005,"Scott Valley Unified School District (9-12), California",166.0,,55.0,,137.0,,53.0,,0.0,,12.0,,19.0,,14.0,,0.0,,12.0,,0.0,,12.0,,0.0,,12.0,,4.0,,5.0,,6.0,,6.0,,06,06005,0.0,12.0,23.0,19.1049731745428
0606006,"Trinity Alps Unified School District (9-12), California",4393.0,,363.0,,3674.0,,331.0,,54.0,,64.0,,220.0,,95.0,,108.0,,38.0,,0.0,,12.0,,3.0,,5.0,,152.0,,122.0,,182.0,,93.0,,06,06006,108.0,39.84971769034255,375.0,154.70617311536085
0606013,"Turlock Unified School District (9-12), California",9970.0,,962.0,,4056.0,,512.0,,14.0,,23.0,,25.0,,41.0,,62.0,,26.0,,0.0,,17.0,,60.0,,28.0,,220.0,,176.0,,5533.0,,910.0,,06,06013,62.0,31.064449134018133,305.0,182.86880543165364
0606015,"Santa Cruz City High School District (9-12), California",51794.0,,1331.0,,34427.0,,961.0,,272.0,,125.0,,92.0,,73.0,,1641.0,,372.0,,58.0,,60.0,,57.0,,60.0,,2009.0,,374.0,,13238.0,,1033.0,,06,06015,1699.0,376.807643234582,2158.0,385.75251133336775
0606016,"Dinuba Unified School District (9-12), California",4816.0,,587.0,,565.0,,161.0,,45.0,,40.0,,27.0,,35.0,,22.0,,20.0,,0.0,,12.0,,2.0,,5.0,,118.0,,107.0,,4037.0,,571.0,,06,06016,22.0,23.323807579381203,147.0,112.68983982595769
0606021,"Bishop Unified School District (9-12), California",1285.0,,177.0,,864.0,,137.0,,63.0,,46.0,,86.0,,51.0,,17.0,,23.0,,2.0,,5.0,,0.0,,12.0,,34.0,,42.0,,219.0,,69.0,,06,06021,19.0,23.53720459187964,120.0,67.14908785679818
0606022,"Santa Paula Unified School District (9-12), California",5009.0,,607.0,,1455.0,,227.0,,14.0,,13.0,,12.0,,17.0,,100.0,,98.0,,0.0,,17.0,,0.0,,17.0,,175.0,,81.0,,3253.0,,572.0,,06,06022,100.0,99.46356116689167,187.0,84.49260322655469
0606025,"Hamilton Unified School District (9-12), California",589.0,,105.0,,437.0,,82.0,,2.0,,4.0,,0.0,,12.0,,5.0,,7.0,,5.0,,7.0,,0.0,,12.0,,13.0,,13.0,,127.0,,70.0,,06,06025,10.0,9.899494936611665,13.0,17.69180601295413
0606034,"Perris Union High School District (9-12), California",136042.0,,2008.0,,59780.0,,1966.0,,8274.0,,1186.0,,543.0,,228.0,,7163.0,,832.0,,550.0,,305.0,,362.0,,361.0,,3861.0,,654.0,,55509.0,,2418.0,,06,06034,7713.0,886.1427650215286,4766.0,781.0384113473549
0606026,"Woodlake Unified School District (9-12), California",3309.0,,452.0,,2160.0,,308.0,,0.0,,12.0,,12.0,,21.0,,106.0,,119.0,,0.0,,12.0,,0.0,,12.0,,60.0,,74.0,,971.0,,292.0,,06,06026,106.0,119.60351165413162,72.0,77.85242449660768
0606028,"Exeter Unified School District (9-12), California",2679.0,,564.0,,1359.0,,199.0,,7.0,,12.0,,22.0,,24.0,,16.0,,15.0,,0.0,,12.0,,0.0,,12.0,,40.0,,28.0,,1235.0,,527.0,,06,06028,16.0,19.209372712298546,62.0,38.781438859330635
0606031,"Tracy Unified School District (9-12), California",21202.0,,1185.0,,7783.0,,794.0,,1629.0,,411.0,,125.0,,82.0,,2888.0,,609.0,,44.0,,32.0,,30.0,,31.0,,1549.0,,392.0,,7154.0,,883.0,,06,06031,2932.0,609.840142988308,1704.0,401.68271060626944
0606037,"Alhambra Unified School District (9-12), California",53106.0,,1601.0,,1548.0,,497.0,,102.0,,67.0,,147.0,,130.0,,33862.0,,1702.0,,173.0,,183.0,,0.0,,29.0,,252.0,,146.0,,17022.0,,1210.0,,06,06037,34035.0,1711.8098609366637,399.0,197.6284392490109
0606038,"Healdsburg Unified School District (7-12), California",1843.0,,287.0,,1285.0,,193.0,,0.0,,12.0,,0.0,,12.0,,27.0,,23.0,,6.0,,9.0,,45.0,,66.0,,15.0,,15.0,,465.0,,168.0,,06,06038,33.0,24.698178070456937,60.0,68.7386354243376
0606053,"Gonzales Unified School District (9-12), California",2886.0,,497.0,,400.0,,115.0,,0.0,,12.0,,0.0,,12.0,,17.0,,21.0,,0.0,,12.0,,11.0,,16.0,,10.0,,12.0,,2448.0,,502.0,,06,06053,17.0,24.186773244895647,21.0,23.323807579381203
0606107,"Porterville Unified School District (9-12), California",47959.0,,2017.0,,15677.0,,1067.0,,340.0,,212.0,,258.0,,134.0,,2392.0,,494.0,,38.0,,41.0,,519.0,,655.0,,619.0,,252.0,,28116.0,,2007.0,,06,06107,2430.0,495.69849707256526,1396.0,714.4823300824171
0619650,"South Monterey County Joint Union High School District, California",40243.0,,1346.0,,6123.0,,943.0,,502.0,,228.0,,39.0,,32.0,,437.0,,203.0,,0.0,,26.0,,23.0,,38.0,,572.0,,254.0,,32547.0,,813.0,,06,19650,437.0,204.65825172711703,634.0,258.812673569128
0699001,"Gridley Unified School District (9-12), California",1325.0,,315.0,,867.0,,176.0,,24.0,,36.0,,6.0,,9.0,,19.0,,24.0,,3.0,,6.0,,0.0,,12.0,,17.0,,14.0,,389.0,,220.0,,06,99001,22.0,24.73863375370596,23.0,20.518284528683193
0699002,"Caruthers Unified School District (9-12), California",3409.0,,489.0,,687.0,,194.0,,10.0,,13.0,,0.0,,12.0,,238.0,,170.0,,0.0,,12.0,,12.0,,16.0,,36.0,,23.0,,2426.0,,407.0,,06,99002,238.0,170.42300314218147,48.0,30.479501308256342
0699003,"Riverdale Joint Unified School District (9-12), California",1741.0,,252.0,,192.0,,101.0,,16.0,,16.0,,43.0,,80.0,,18.0,,38.0,,0.0,,12.0,,0.0,,12.0,,8.0,,14.0,,1464.0,,257.0,,06,99003,18.0,39.84971769034255,51.0,82.09750300709517
0699004,"Sierra Unified School District (9-12), California",1111.0,,159.0,,968.0,,150.0,,31.0,,23.0,,2.0,,5.0,,4.0,,6.0,,0.0,,12.0,,16.0,,17.0,,23.0,,28.0,,67.0,,47.0,,06,99004,4.0,13.416407864998739,41.0,33.13608305156178
0699005,"Orland Joint Unified School District (9-12), California",879.0,,163.0,,504.0,,96.0,,0.0,,12.0,,10.0,,12.0,,40.0,,47.0,,0.0,,12.0,,0.0,,12.0,,37.0,,39.0,,288.0,,127.0,,06,99005,40.0,48.507731342539614,47.0,42.532340636273474
0699006,"Eureka City Unified School District (7-12), California",15407.0,,936.0,,11987.0,,782.0,,42.0,,33.0,,224.0,,186.0,,585.0,,321.0,,0.0,,19.0,,0.0,,19.0,,865.0,,357.0,,1704.0,,627.0,,06,99006,585.0,321.5618136533006,1089.0,402.99627789844413
0699007,"Eureka City Unified School District (9-12), California",407.0,,91.0,,393.0,,91.0,,1.0,,2.0,,2.0,,5.0,,1.0,,2.0,,0.0,,12.0,,0.0,,12.0,,9.0,,10.0,,1.0,,2.0,,06,99007,1.0,12.165525060596439,11.0,16.401219466856727
0699008,"Upper Lake Unified School District (9-12), California",3316.0,,549.0,,2440.0,,476.0,,89.0,,71.0,,110.0,,110.0,,9.0,,14.0,,0.0,,12.0,,0.0,,12.0,,231.0,,208.0,,437.0,,203.0,,06,99008,9.0,18.439088914585774,341.0,235.60135823038033
0699009,"Coast Unified School District (9-12), California",2844.0,,361.0,,2459.0,,322.0,,0.0,,12.0,,0.0,,12.0,,72.0,,74.0,,0.0,,12.0,,9.0,,14.0,,20.0,,32.0,,284.0,,115.0,,06,99009,72.0,74.96665925596525,29.0,36.932370625238775
0699010,"Paso Robles Joint Unified School District (9-12), California",7756.0,,1084.0,,4491.0,,738.0,,262.0,,417.0,,96.0,,116.0,,70.0,,56.0,,0.0,,17.0,,0.0,,17.0,,229.0,,159.0,,2608.0,,1075.0,,06,99010,70.0,58.52349955359813,325.0,197.5499936724879
0699011,"Santa Cruz City High School District (6-12), California",66522.0,,485.0,,41755.0,,1086.0,,1136.0,,261.0,,112.0,,69.0,,6251.0,,436.0,,75.0,,64.0,,206.0,,114.0,,2976.0,,504.0,,14011.0,,1040.0,,06,99011,6326.0,440.67221378253475,3294.0,521.3185206761793
0699012,"Hughson Unified School District (9-12), California",2481.0,,306.0,,1586.0,,210.0,,0.0,,12.0,,21.0,,33.0,,50.0,,36.0,,0.0,,12.0,,0.0,,12.0,,40.0,,20.0,,784.0,,201.0,,06,99012,50.0,37.94733192202055,61.0,40.4103947023535
0699013,"Oakdale Joint Unified School District (9-12), California",2115.0,,251.0,,1625.0,,206.0,,16.0,,13.0,,4.0,,6.0,,6.0,,7.0,,0.0,,12.0,,0.0,,12.0,,11.0,,17.0,,453.0,,195.0,,06,99013,6.0,13.892443989449804,15.0,21.656407827707714
0699014,"Nevada Joint Union High School District (9-12), California",504.0,,112.0,,449.0,,110.0,,2.0,,3.0,,2.0,,3.0,,0.0,,12.0,,0.0,,12.0,,7.0,,11.0,,16.0,,16.0,,28.0,,28.0,,06,99014,0.0,12.0,25.0,19.6468827043885
0643410,"Yreka Union High School District, California",17816.0,,535.0,,14009.0,,571.0,,194.0,,87.0,,570.0,,125.0,,228.0,,98.0,,112.0,,61.0,,27.0,,31.0,,943.0,,158.0,,1733.0,,225.0,,06,43410,340.0,115.43396380615195,1540.0,203.8381711063951
0699999,"Remainder of California, California",28351717.0,,11349.0,,10434824.0,,11807.0,,1766530.0,,7129.0,,96558.0,,2649.0,,4072863.0,,9283.0,,99686.0,,2226.0,,74976.0,,2818.0,,858557.0,,11576.0,,10947723.0,,11026.0,,06,99999,4172549.0,9546.159699062237,1030091.0,12205.003113477685
0601650,"Acalanes Union High School District, California",118688.0,,1540.0,,85120.0,,1421.0,,1489.0,,330.0,,124.0,,74.0,,16357.0,,1080.0,,342.0,,130.0,,267.0,,192.0,,5646.0,,767.0,,9343.0,,1002.0,,06,01650,16699.0,1087.795936745491,6037.0,794.121527223636
0602630,"Anaheim Union High School District, California",401295.0,,2607.0,,89106.0,,2150.0,,10169.0,,1077.0,,643.0,,349.0,,83464.0,,2269.0,,2043.0,,619.0,,606.0,,213.0,,8254.0,,812.0,,207010.0,,3050.0,,06,02630,85507.0,2351.9187911150334,9503.0,909.1281537825126
0602670,"West Sonoma County Union High School District, California",52012.0,,1332.0,,42533.0,,1174.0,,537.0,,195.0,,97.0,,65.0,,1050.0,,280.0,,119.0,,117.0,,136.0,,108.0,,2073.0,,534.0,,5467.0,,886.0,,06,02670,1169.0,303.4616944525289,2306.0,548.6756783383058
0602700,"Anderson Union High School District, California",39264.0,,1011.0,,31470.0,,1065.0,,293.0,,241.0,,853.0,,279.0,,455.0,,205.0,,74.0,,75.0,,9.0,,15.0,,1396.0,,301.0,,4714.0,,591.0,,06,02700,529.0,218.28879952943075,2258.0,410.6908813207325
0603030,"Northern Humboldt Union High School District, California",46511.0,,1085.0,,36077.0,,1062.0,,516.0,,154.0,,1096.0,,266.0,,899.0,,225.0,,88.0,,112.0,,204.0,,149.0,,2547.0,,556.0,,5084.0,,574.0,,06,03030,987.0,251.33443854752576,3847.0,634.1080349593435
0605820,"Brawley Union High School District, California",29974.0,,382.0,,4010.0,,492.0,,474.0,,264.0,,90.0,,66.0,,281.0,,256.0,,104.0,,115.0,,60.0,,90.0,,488.0,,367.0,,24467.0,,693.0,,06,05820,385.0,280.6439024814186,638.0,383.59483833857826
0605940,"Bret Harte Union High School District, California",17833.0,,852.0,,15202.0,,769.0,,116.0,,120.0,,72.0,,52.0,,150.0,,62.0,,16.0,,27.0,,32.0,,52.0,,492.0,,212.0,,1753.0,,396.0,,06,05940,166.0,67.62396025078685,596.0,224.392513244092
0607230,"Campbell Union High School District, California",230015.0,,2286.0,,110822.0,,2179.0,,7112.0,,922.0,,387.0,,154.0,,53946.0,,1694.0,,978.0,,382.0,,774.0,,481.0,,9220.0,,870.0,,46776.0,,2247.0,,06,07230,54924.0,1736.5367833708563,10381.0,1005.9706755169358
0607920,"Centinela Valley Union High School District, California",149731.0,,1643.0,,13436.0,,923.0,,23379.0,,1403.0,,223.0,,150.0,,11521.0,,963.0,,647.0,,508.0,,615.0,,237.0,,4072.0,,805.0,,95838.0,,2395.0,,06,07920,12168.0,1088.7759181760036,4910.0,852.4634889542191
0608010,"Central Union High School District, California",60669.0,,976.0,,5440.0,,586.0,,807.0,,245.0,,70.0,,43.0,,1093.0,,308.0,,119.0,,119.0,,19.0,,21.0,,533.0,,251.0,,52588.0,,1018.0,,06,08010,1212.0,330.1893396219811,622.0,255.52103631599493
0608160,"Chaffey Joint Union High School District, California",422515.0,,2012.0,,105108.0,,2013.0,,30224.0,,1848.0,,1424.0,,468.0,,41114.0,,1486.0,,903.0,,414.0,,1038.0,,363.0,,10049.0,,1010.0,,232655.0,,3145.0,,06,08160,42017.0,1542.5926228269082,12511.0,1170.851399623368
0608550,"Chowchilla Union High School District, California",23477.0,,477.0,,8043.0,,735.0,,1417.0,,187.0,,434.0,,161.0,,663.0,,222.0,,128.0,,88.0,,46.0,,37.0,,550.0,,206.0,,12196.0,,732.0,,06,08550,791.0,238.8053600738476,1030.0,264.05681206891825
0609810,"Corning Union High School District, California",17118.0,,976.0,,9046.0,,772.0,,84.0,,100.0,,95.0,,76.0,,131.0,,141.0,,12.0,,15.0,,5.0,,10.0,,375.0,,191.0,,7370.0,,800.0,,06,09810,143.0,141.7956275771577,475.0,205.80816310341046
0610860,"Delano Joint Union High School District, California",68883.0,,993.0,,3367.0,,474.0,,2295.0,,349.0,,273.0,,180.0,,7082.0,,767.0,,83.0,,43.0,,7.0,,12.0,,518.0,,117.0,,55258.0,,1437.0,,06,10860,7165.0,768.2043998832602,798.0,215.01860384627187
0611700,"Dunsmuir Joint Union High School District, California",2114.0,,177.0,,1693.0,,158.0,,12.0,,11.0,,27.0,,22.0,,21.0,,20.0,,0.0,,12.0,,0.0,,12.0,,93.0,,62.0,,268.0,,86.0,,06,11700,21.0,23.323807579381203,120.0,66.87301398920195
0611780,"East Nicolaus Joint Union High School District, California",2661.0,,216.0,,1975.0,,172.0,,17.0,,26.0,,15.0,,12.0,,125.0,,51.0,,5.0,,9.0,,0.0,,12.0,,48.0,,24.0,,476.0,,126.0,,06,11780,130.0,51.78802950489621,63.0,29.393876913398138
0611820,"East Side Union High School District, California",559227.0,,3294.0,,82661.0,,2091.0,,13070.0,,1150.0,,936.0,,221.0,,237942.0,,2705.0,,2788.0,,751.0,,1256.0,,550.0,,14138.0,,1409.0,,206436.0,,2929.0,,06,11820,240730.0,2807.3165122586374,16330.0,1528.6013214700556
0613530,"Fallbrook Union High School District, California",66713.0,,2285.0,,37980.0,,1795.0,,2438.0,,629.0,,327.0,,107.0,,1621.0,,378.0,,183.0,,120.0,,104.0,,60.0,,974.0,,356.0,,23086.0,,1722.0,,06,13530,1804.0,396.5904688718578,1405.0,376.5434901840689
0612070,"El Dorado Union High School District, California",142359.0,,1267.0,,112835.0,,1209.0,,1074.0,,201.0,,787.0,,278.0,,6792.0,,518.0,,370.0,,143.0,,175.0,,145.0,,4812.0,,537.0,,15514.0,,858.0,,06,12070,7162.0,537.3760322158032,5774.0,621.8343830956921
0612120,"El Monte Union High School District, California",177207.0,,1560.0,,9287.0,,713.0,,767.0,,220.0,,227.0,,125.0,,58762.0,,1843.0,,674.0,,353.0,,102.0,,79.0,,1009.0,,271.0,,106379.0,,1850.0,,06,12120,59436.0,1876.5015321070218,1338.0,308.7183182125738
0612910,"Escondido Union High School District, California",172249.0,,1369.0,,68175.0,,2038.0,,3496.0,,658.0,,614.0,,428.0,,11541.0,,1094.0,,412.0,,216.0,,325.0,,220.0,,5046.0,,903.0,,82640.0,,2340.0,,06,12910,11953.0,1115.1197245139197,5985.0,1023.2267588369648
0614190,"Fortuna Union High School District, California",22601.0,,675.0,,17555.0,,877.0,,96.0,,68.0,,673.0,,192.0,,120.0,,70.0,,80.0,,119.0,,37.0,,41.0,,901.0,,262.0,,3139.0,,480.0,,06,14190,200.0,138.06158046321215,1611.0,327.3973121453504
0614430,"Fremont Union High School District, California",235574.0,,1670.0,,66230.0,,1818.0,,3190.0,,649.0,,451.0,,176.0,,130306.0,,2064.0,,420.0,,313.0,,174.0,,86.0,,7411.0,,718.0,,27392.0,,1438.0,,06,14430,130726.0,2087.597901895861,8036.0,744.2418961601127
0614760,"Fullerton Joint Union High School District, California",257293.0,,1874.0,,75117.0,,2185.0,,5626.0,,698.0,,664.0,,211.0,,55649.0,,1855.0,,723.0,,365.0,,317.0,,139.0,,5068.0,,668.0,,114129.0,,2343.0,,06,14760,56372.0,1890.568697508768,6049.0,714.1890506021498
0614820,"Galt Joint Union High School District, California",39875.0,,1019.0,,20018.0,,1067.0,,493.0,,218.0,,230.0,,198.0,,1923.0,,401.0,,31.0,,29.0,,143.0,,142.0,,1213.0,,358.0,,15824.0,,1311.0,,06,14820,1954.0,402.0472609034913,1586.0,433.04965073303083
0616230,"Grossmont Union High School District, California",480691.0,,3554.0,,273519.0,,2940.0,,27460.0,,1971.0,,2241.0,,396.0,,22364.0,,1482.0,,2481.0,,735.0,,788.0,,364.0,,19593.0,,1436.0,,132245.0,,3444.0,,06,16230,24845.0,1654.251794618945,22622.0,1533.4301418714842
0616500,"Hanford Joint Union High School District, California",70973.0,,805.0,,26604.0,,843.0,,3234.0,,557.0,,299.0,,134.0,,3034.0,,434.0,,165.0,,106.0,,130.0,,117.0,,1569.0,,428.0,,35938.0,,1076.0,,06,16500,3199.0,446.7572047544393,1998.0,463.4964940536228
0618060,"Huntington Beach Union High School District, California",322539.0,,1410.0,,164540.0,,2380.0,,3702.0,,689.0,,1051.0,,289.0,,72812.0,,1898.0,,1013.0,,334.0,,947.0,,323.0,,10535.0,,791.0,,67939.0,,2028.0,,06,18060,73825.0,1927.1637190441293,12533.0,901.9595334603432
0618930,"Jefferson Union High School District, California",151547.0,,1087.0,,37620.0,,1105.0,,4141.0,,553.0,,160.0,,95.0,,66949.0,,1985.0,,1647.0,,785.0,,182.0,,99.0,,5167.0,,672.0,,35681.0,,1660.0,,06,18930,68596.0,2134.5842686574824,5509.0,685.8644180885899
0619110,"Julian Union High School District, California",3168.0,,457.0,,2271.0,,348.0,,66.0,,74.0,,209.0,,116.0,,20.0,,22.0,,0.0,,12.0,,0.0,,12.0,,112.0,,101.0,,490.0,,224.0,,06,19110,20.0,25.059928172283335,321.0,154.27572718998928
0619830,"Kingsburg Joint Union High School District, California",18329.0,,806.0,,8232.0,,766.0,,34.0,,35.0,,35.0,,37.0,,585.0,,323.0,,0.0,,19.0,,39.0,,58.0,,674.0,,323.0,,8730.0,,1017.0,,06,19830,585.0,323.5583409526016,748.0,330.2453633285409
0621060,"Lassen Union High School District, California",25298.0,,445.0,,16183.0,,372.0,,2296.0,,146.0,,684.0,,123.0,,397.0,,58.0,,200.0,,76.0,,13.0,,20.0,,504.0,,131.0,,5021.0,,162.0,,06,21060,597.0,95.60334722173695,1201.0,180.8037610228283
0621270,"Le Grand Union High School District, California",7429.0,,580.0,,881.0,,158.0,,72.0,,60.0,,46.0,,49.0,,50.0,,32.0,,0.0,,17.0,,0.0,,17.0,,19.0,,13.0,,6361.0,,555.0,,06,21270,50.0,36.235341863986875,65.0,53.4696175411794
0621400,"Lemoore Union High School District, California",39998.0,,749.0,,16095.0,,866.0,,2743.0,,518.0,,561.0,,143.0,,2335.0,,368.0,,93.0,,64.0,,34.0,,38.0,,1608.0,,432.0,,16529.0,,818.0,,06,21400,2428.0,373.52376095772007,2203.0,456.6366170162003
0621600,"Liberty Union High School District, California",121939.0,,1610.0,,63985.0,,1680.0,,7881.0,,912.0,,545.0,,201.0,,10792.0,,1150.0,,465.0,,295.0,,431.0,,277.0,,6193.0,,931.0,,31647.0,,1643.0,,06,21600,11257.0,1187.2341807747955,7169.0,991.91279858665
0622800,"Los Gatos-Saratoga Joint Union School District, California",55627.0,,1082.0,,36539.0,,1227.0,,279.0,,162.0,,28.0,,43.0,,13548.0,,806.0,,13.0,,22.0,,45.0,,42.0,,1890.0,,414.0,,3285.0,,538.0,,06,22800,13561.0,806.3001922361175,1963.0,418.3407701862203
0624660,"Merced Union High School District, California",176044.0,,1325.0,,50859.0,,982.0,,6917.0,,513.0,,467.0,,151.0,,17770.0,,643.0,,274.0,,208.0,,416.0,,236.0,,3412.0,,526.0,,95929.0,,1572.0,,06,24660,18044.0,675.8054453761082,4295.0,595.9639250827184
0625150,"Modesto City High School District, California",277347.0,,1582.0,,118488.0,,1867.0,,8999.0,,870.0,,1164.0,,285.0,,18063.0,,1218.0,,2804.0,,413.0,,149.0,,93.0,,7537.0,,755.0,,120143.0,,2090.0,,06,25150,20867.0,1286.1154691550832,8850.0,812.3416768823325
0626310,"Mountain View-Los Altos Union School District, California",115752.0,,667.0,,56965.0,,1322.0,,1813.0,,520.0,,85.0,,63.0,,35135.0,,1308.0,,251.0,,212.0,,412.0,,174.0,,4866.0,,601.0,,16225.0,,1370.0,,06,26310,35386.0,1325.0690548043146,5363.0,628.8449729464329
0626880,"Nevada Joint Union High School District, California",82231.0,,191.0,,71191.0,,556.0,,546.0,,136.0,,561.0,,251.0,,786.0,,203.0,,131.0,,96.0,,130.0,,133.0,,2651.0,,355.0,,6235.0,,537.0,,06,26880,917.0,224.5551157288562,3342.0,454.65921303763326
0629130,"Oroville Union High School District, California",51952.0,,879.0,,33931.0,,1033.0,,1122.0,,319.0,,922.0,,231.0,,4711.0,,660.0,,120.0,,87.0,,77.0,,64.0,,3762.0,,479.0,,7307.0,,556.0,,06,29130,4831.0,665.7093960580697,4761.0,535.6286026716647
0629270,"Oxnard Union High School District, California",330182.0,,1194.0,,91968.0,,1906.0,,7564.0,,540.0,,861.0,,241.0,,24152.0,,1177.0,,874.0,,174.0,,414.0,,199.0,,7423.0,,818.0,,196926.0,,1932.0,,06,29270,25026.0,1189.7919986283316,8698.0,875.6745970964329
0630210,"Perris Union High School District, California",49237.0,,2040.0,,4798.0,,592.0,,3371.0,,742.0,,150.0,,171.0,,1172.0,,462.0,,0.0,,26.0,,95.0,,87.0,,252.0,,169.0,,39399.0,,2118.0,,06,30210,1172.0,462.73102338183463,497.0,255.677531277193
0630250,"Petaluma Joint Union High School District, California",77799.0,,966.0,,55003.0,,1249.0,,751.0,,227.0,,91.0,,55.0,,3191.0,,467.0,,31.0,,34.0,,845.0,,291.0,,2548.0,,485.0,,15339.0,,1253.0,,06,30250,3222.0,468.2360515808239,3484.0,568.2701822196902
0630750,"Placer Union High School District, California",91713.0,,1491.0,,76854.0,,1583.0,,731.0,,294.0,,436.0,,153.0,,1893.0,,424.0,,56.0,,44.0,,90.0,,84.0,,2989.0,,538.0,,8664.0,,841.0,,06,30750,1949.0,426.2769053092133,3515.0,565.6049858337531
0631230,"Point Arena Joint Union High School District, California",5709.0,,423.0,,4305.0,,388.0,,9.0,,16.0,,296.0,,113.0,,34.0,,26.0,,1.0,,3.0,,0.0,,17.0,,67.0,,57.0,,997.0,,284.0,,06,31230,35.0,26.1725046566048,363.0,127.69886452118516
0632010,"Red Bluff Joint Union High School District, California",43418.0,,1013.0,,32399.0,,788.0,,363.0,,109.0,,895.0,,256.0,,828.0,,188.0,,5.0,,9.0,,19.0,,29.0,,1372.0,,306.0,,7537.0,,825.0,,06,32010,833.0,188.2153022471871,2286.0,400.0162496699353
0633630,"Roseville Joint Union High School District, California",180781.0,,1379.0,,122416.0,,1729.0,,4562.0,,673.0,,444.0,,170.0,,18684.0,,851.0,,795.0,,432.0,,231.0,,179.0,,7519.0,,768.0,,26130.0,,1260.0,,06,33630,19479.0,954.3715209497819,8194.0,806.700068178998
0633980,"Salinas Union High School District, California",176461.0,,1095.0,,31430.0,,1235.0,,1871.0,,356.0,,341.0,,172.0,,9558.0,,715.0,,118.0,,88.0,,231.0,,151.0,,2234.0,,402.0,,130678.0,,1333.0,,06,33980,9676.0,720.3950305214494,2806.0,462.5894508092462
0634140,"San Benito High School District, California",53585.0,,362.0,,18028.0,,319.0,,434.0,,88.0,,193.0,,87.0,,1575.0,,154.0,,63.0,,46.0,,84.0,,72.0,,789.0,,198.0,,32419.0,,373.0,,06,34140,1638.0,160.72336482291553,1066.0,227.9407817833395
0634380,"San Dieguito Union High School District, California",178320.0,,2133.0,,130126.0,,2199.0,,2039.0,,952.0,,386.0,,232.0,,21798.0,,1454.0,,126.0,,83.0,,313.0,,269.0,,5322.0,,779.0,,18210.0,,1412.0,,06,34380,21924.0,1456.3670553813006,6021.0,856.1693757662674
0634980,"San Mateo Union High School District, California",240535.0,,652.0,,102424.0,,1518.0,,4064.0,,493.0,,395.0,,136.0,,72150.0,,1632.0,,3089.0,,745.0,,983.0,,329.0,,11514.0,,1019.0,,45916.0,,1690.0,,06,34980,75239.0,1794.003623184747,12892.0,1079.3970539148233
0635110,"San Rafael City High School District, California",76803.0,,808.0,,44962.0,,1119.0,,2246.0,,517.0,,120.0,,70.0,,4659.0,,697.0,,119.0,,98.0,,577.0,,297.0,,2872.0,,467.0,,21248.0,,947.0,,06,35110,4778.0,703.8558090972895,3569.0,557.8512346495255
0635850,"Santa Ynez Valley Union High School District, California",21069.0,,827.0,,14012.0,,718.0,,111.0,,94.0,,413.0,,227.0,,340.0,,168.0,,43.0,,67.0,,78.0,,83.0,,534.0,,211.0,,5538.0,,849.0,,06,35850,383.0,180.86735471057236,1025.0,320.8410821575068
0635600,"Santa Cruz City High School District, California",6715.0,,527.0,,5556.0,,413.0,,43.0,,43.0,,8.0,,11.0,,165.0,,51.0,,0.0,,17.0,,44.0,,44.0,,309.0,,178.0,,590.0,,179.0,,06,35600,165.0,53.75872022286245,361.0,183.6872341780996
0635670,"Santa Maria Joint Union High School District, California",151567.0,,1162.0,,40916.0,,1464.0,,1635.0,,430.0,,229.0,,105.0,,6342.0,,725.0,,110.0,,90.0,,167.0,,115.0,,2645.0,,444.0,,99523.0,,1686.0,,06,35670,6452.0,730.5648499620003,3041.0,470.5167372155851
0635830,"Santa Rosa High School District, California",215702.0,,1447.0,,121542.0,,2048.0,,4067.0,,549.0,,1344.0,,303.0,,10506.0,,791.0,,1159.0,,238.0,,432.0,,274.0,,7758.0,,928.0,,68894.0,,1791.0,,06,35830,11665.0,826.0296604844162,9534.0,1013.9373747919543
0636390,"Sequoia Union High School District, California",260823.0,,1132.0,,126464.0,,1395.0,,7150.0,,662.0,,522.0,,203.0,,36281.0,,1438.0,,4503.0,,881.0,,877.0,,339.0,,10005.0,,801.0,,75021.0,,1889.0,,06,36390,40784.0,1686.4178011394447,11404.0,893.1578807803243
0636600,"Shasta Union High School District, California",102215.0,,1206.0,,81645.0,,1230.0,,1471.0,,263.0,,2115.0,,404.0,,4045.0,,525.0,,88.0,,78.0,,142.0,,100.0,,3243.0,,459.0,,9466.0,,608.0,,06,36600,4133.0,530.7626588221896,5500.0,619.59422205182
0636940,"Siskiyou Union High School District, California",15413.0,,669.0,,12070.0,,617.0,,344.0,,99.0,,380.0,,105.0,,300.0,,180.0,,6.0,,11.0,,6.0,,7.0,,629.0,,149.0,,1678.0,,246.0,,06,36940,306.0,180.33579788827288,1015.0,182.414363469547
0636972,"Victor Valley Union High School District, California",163309.0,,2761.0,,40645.0,,1942.0,,25992.0,,2290.0,,279.0,,158.0,,5216.0,,822.0,,267.0,,194.0,,164.0,,103.0,,5050.0,,1069.0,,85696.0,,3142.0,,06,36972,5483.0,844.5827372140636,5493.0,1085.5109396040189
0637260,"Sonora Union High School District, California",39504.0,,978.0,,31235.0,,986.0,,825.0,,132.0,,541.0,,162.0,,511.0,,144.0,,88.0,,43.0,,40.0,,37.0,,1105.0,,193.0,,5159.0,,362.0,,06,37260,599.0,150.28306624500314,1686.0,254.68019161293248
0638280,"Summerville Union High School District, California",9562.0,,950.0,,7959.0,,917.0,,2.0,,4.0,,131.0,,77.0,,180.0,,123.0,,24.0,,36.0,,0.0,,17.0,,310.0,,127.0,,956.0,,335.0,,06,38280,204.0,128.16005617976296,441.0,149.48913003961192
0638610,"Sutter Union High School District, California",7806.0,,458.0,,5585.0,,391.0,,80.0,,56.0,,117.0,,82.0,,211.0,,140.0,,12.0,,17.0,,0.0,,17.0,,266.0,,136.0,,1535.0,,277.0,,06,38610,223.0,141.0283659410404,383.0,159.71537183377185
0638640,"Sweetwater Union High School District, California",490915.0,,3282.0,,79748.0,,2618.0,,20298.0,,1558.0,,787.0,,244.0,,67596.0,,2206.0,,2571.0,,735.0,,804.0,,624.0,,12549.0,,1432.0,,306562.0,,4129.0,,06,38640,70167.0,2325.222785025125,14140.0,1580.9920935918688
0638730,"Taft Union High School District, California",20083.0,,867.0,,11165.0,,806.0,,120.0,,66.0,,92.0,,58.0,,443.0,,253.0,,5.0,,8.0,,8.0,,13.0,,481.0,,294.0,,7769.0,,1067.0,,06,38730,448.0,253.12645061312736,581.0,299.9483288834929
0638790,"Tamalpais Union High School District, California",116584.0,,907.0,,95577.0,,1180.0,,1820.0,,404.0,,121.0,,98.0,,5656.0,,467.0,,89.0,,78.0,,602.0,,245.0,,4194.0,,531.0,,8525.0,,808.0,,06,38790,5745.0,473.46911198091897,4917.0,592.9502508642694
0639930,"Tulare Joint Union High School District, California",84181.0,,1333.0,,25414.0,,1317.0,,2363.0,,419.0,,422.0,,256.0,,1211.0,,312.0,,82.0,,58.0,,108.0,,143.0,,1233.0,,286.0,,53348.0,,1729.0,,06,39930,1293.0,317.34523787194286,1763.0,409.6107908734827
0641430,"Wasco Union High School District, California",29992.0,,404.0,,2995.0,,465.0,,1714.0,,293.0,,35.0,,28.0,,195.0,,104.0,,52.0,,32.0,,5.0,,10.0,,412.0,,181.0,,24584.0,,680.0,,06,41430,247.0,108.81176406988355,452.0,183.42573429047516
0642350,"Wheatland Union High School District, California",15226.0,,973.0,,9811.0,,824.0,,405.0,,156.0,,111.0,,54.0,,736.0,,239.0,,85.0,,66.0,,9.0,,14.0,,1059.0,,259.0,,3010.0,,599.0,,06,42350,821.0,247.94555854057964,1179.0,264.9396157617807
0642480,"Whittier Union High School District, California",225393.0,,2373.0,,39068.0,,1610.0,,3383.0,,670.0,,1038.0,,340.0,,11944.0,,1051.0,,404.0,,342.0,,1529.0,,491.0,,2052.0,,356.0,,165975.0,,2563.0,,06,42480,12348.0,1105.2443168820187,4619.0,695.2819571943458
0642510,"William S. Hart Union High School District, California",274640.0,,1495.0,,129883.0,,2215.0,,10835.0,,1113.0,,713.0,,260.0,,31899.0,,1321.0,,259.0,,108.0,,393.0,,134.0,,10894.0,,1130.0,,89764.0,,2032.0,,06,42510,32158.0,1325.4074845118387,12000.0,1167.2429053114865
0900005,"Regional High School District 19, Connecticut",36123.0,,48.0,,28901.0,,587.0,,1191.0,,267.0,,8.0,,10.0,,3203.0,,326.0,,0.0,,26.0,,2.0,,6.0,,814.0,,230.0,,2004.0,,413.0,,09,00005,3203.0,327.0351663047875,824.0,230.29546239559303
0903570,"Regional High School District 11, Connecticut",5843.0,,120.0,,5406.0,,189.0,,6.0,,8.0,,5.0,,5.0,,19.0,,15.0,,0.0,,17.0,,0.0,,17.0,,104.0,,48.0,,303.0,,111.0,,09,03570,19.0,22.67156809750927,109.0,51.16639522186413
0903600,"Regional High School District 01, Connecticut",14976.0,,155.0,,13527.0,,402.0,,397.0,,244.0,,4.0,,7.0,,205.0,,133.0,,0.0,,19.0,,14.0,,20.0,,264.0,,113.0,,565.0,,269.0,,09,03600,205.0,134.35028842544403,282.0,114.9695611890382
0903630,"Regional High School District 04, Connecticut",15360.0,,37.0,,13949.0,,422.0,,373.0,,290.0,,8.0,,13.0,,263.0,,121.0,,0.0,,19.0,,0.0,,19.0,,201.0,,151.0,,566.0,,186.0,,09,03630,263.0,122.48265183282079,209.0,152.7448853480862
0903660,"Regional High School District 05, Connecticut",28309.0,,28.0,,23227.0,,683.0,,562.0,,254.0,,0.0,,23.0,,2795.0,,496.0,,0.0,,23.0,,28.0,,28.0,,573.0,,287.0,,1124.0,,384.0,,09,03660,2795.0,496.5329797707298,601.0,289.2784126062641
0903720,"Regional High School District 07, Connecticut",13447.0,,187.0,,12736.0,,350.0,,68.0,,88.0,,16.0,,24.0,,131.0,,151.0,,0.0,,19.0,,29.0,,47.0,,107.0,,66.0,,360.0,,243.0,,09,03720,131.0,152.190669884852,152.0,84.50443775329198
0903750,"Regional High School District 08, Connecticut",19139.0,,132.0,,18092.0,,365.0,,161.0,,116.0,,11.0,,23.0,,248.0,,136.0,,0.0,,19.0,,11.0,,16.0,,156.0,,96.0,,460.0,,262.0,,09,03750,248.0,137.32079230764728,178.0,100.00499987500625
0903780,"Regional High School District 09, Connecticut",16767.0,,32.0,,15388.0,,356.0,,81.0,,91.0,,0.0,,19.0,,334.0,,134.0,,0.0,,19.0,,0.0,,19.0,,234.0,,139.0,,730.0,,268.0,,09,03780,334.0,135.34031180694095,234.0,140.29255147726127
0999999,"Remainder of Connecticut, Connecticut",3431540.0,,250.0,,2287470.0,,1467.0,,348978.0,,1887.0,,5268.0,,593.0,,150208.0,,1499.0,,752.0,,200.0,,11337.0,,1276.0,,71848.0,,2441.0,,555679.0,,854.0,,09,99999,150960.0,1512.2833729165973,88453.0,2817.4999556344274
1313053,"Chattahoochee County for Fort Benning, Georgia",8355.0,,251.0,,4866.0,,209.0,,1234.0,,204.0,,34.0,,30.0,,316.0,,43.0,,35.0,,54.0,,49.0,,62.0,,168.0,,86.0,,1653.0,,4.0,,13,13053,351.0,69.02897942168927,251.0,110.18166816671456
1313215,"Muscogee County for Fort Benning, Georgia",9681.0,,569.0,,5314.0,,538.0,,1152.0,,304.0,,106.0,,112.0,,191.0,,84.0,,194.0,,148.0,,67.0,,88.0,,790.0,,269.0,,1867.0,,298.0,,13,13215,385.0,170.1763790894612,963.0,304.3829824415287
1399999,"Remainder of Georgia, Georgia",10279448.0,,606.0,,5466261.0,,1864.0,,3192977.0,,4338.0,,18276.0,,890.0,,398716.0,,2460.0,,4841.0,,772.0,,30278.0,,2623.0,,203156.0,,5556.0,,964943.0,,625.0,,13,99999,403557.0,2578.2909067830187,251710.0,6208.169214832985
1799001,"Bluford Unit School District 318 (9-12) in Farrington, Illinois",491.0,,90.0,,491.0,,90.0,,0.0,,11.0,,0.0,,11.0,,0.0,,11.0,,0.0,,11.0,,0.0,,11.0,,0.0,,11.0,,0.0,,11.0,,17,99001,0.0,11.0,0.0,11.0
1799004,"Bluford Unit School District 318 (9-12) in Opdyke-Belle Rive, Illinois",0.0,,11.0,,0.0,,11.0,,0.0,,11.0,,0.0,,11.0,,0.0,,11.0,,0.0,,11.0,,0.0,,11.0,,0.0,,11.0,,0.0,,11.0,,17,99004,0.0,11.0,0.0,11.0
1799005,"Woodlawn Unit District 209 (9-12) in Grand Prairie, Illinois",603.0,,113.0,,572.0,,110.0,,4.0,,6.0,,2.0,,3.0,,0.0,,11.0,,0.0,,11.0,,0.0,,11.0,,0.0,,11.0,,25.0,,30.0,,17,99005,0.0,11.0,2.0,11.40175425099138
1799006,"Woodlawn Unit District 209 (9-12) in Rome, Illinois",428.0,,96.0,,381.0,,98.0,,0.0,,11.0,,0.0,,11.0,,10.0,,11.0,,0.0,,11.0,,6.0,,8.0,,25.0,,29.0,,6.0,,8.0,,17,99006,10.0,15.556349186104045,31.0,32.03123475609393
1799008,"Woodlawn Unit District 209 (9-12) in Ashley, Illinois",45.0,,26.0,,45.0,,26.0,,0.0,,11.0,,0.0,,11.0,,0.0,,11.0,,0.0,,11.0,,0.0,,11.0,,0.0,,11.0,,0.0,,11.0,,17,99008,0.0,11.0,0.0,11.0
1701384,"Illini West High School District 307, Illinois",8214.0,,345.0,,7839.0,,336.0,,63.0,,54.0,,0.0,,15.0,,27.0,,23.0,,0.0,,15.0,,0.0,,15.0,,124.0,,66.0,,161.0,,75.0,,17,01384,27.0,27.459060435491963,124.0,67.68308503607086
1703780,"Anna Jonesboro Community High School District 81, Illinois",10800.0,,402.0,,10018.0,,394.0,,198.0,,96.0,,5.0,,15.0,,28.0,,32.0,,0.0,,17.0,,81.0,,87.0,,165.0,,65.0,,305.0,,148.0,,17,03780,28.0,36.235341863986875,251.0,109.63119993870357
1703870,"Antioch Community High School District 117, Illinois",45253.0,,655.0,,39180.0,,859.0,,753.0,,327.0,,8.0,,10.0,,917.0,,289.0,,0.0,,23.0,,47.0,,61.0,,899.0,,278.0,,3449.0,,488.0,,17,03870,917.0,289.9137802864845,954.0,284.78939587000076
1704020,"Argo Community High School District 217, Illinois",41619.0,,599.0,,21007.0,,877.0,,4119.0,,635.0,,0.0,,23.0,,1114.0,,320.0,,0.0,,23.0,,0.0,,23.0,,442.0,,185.0,,14937.0,,846.0,,17,04020,1114.0,320.8254977398149,442.0,186.4242473499625
1704170,"Township High School District 214, Illinois",252932.0,,783.0,,169593.0,,1939.0,,4925.0,,893.0,,369.0,,237.0,,28144.0,,1419.0,,146.0,,118.0,,151.0,,83.0,,3629.0,,582.0,,45975.0,,2019.0,,17,04170,28290.0,1423.897819367668,4149.0,633.8627611715331
1704230,"Armstrong Township High School District 225, Illinois",1413.0,,175.0,,1348.0,,168.0,,3.0,,5.0,,0.0,,11.0,,9.0,,11.0,,0.0,,11.0,,0.0,,11.0,,19.0,,14.0,,34.0,,35.0,,17,04230,9.0,15.556349186104045,19.0,17.804493814764857
1704770,"Central Community High School District 71, Illinois",16859.0,,439.0,,16103.0,,449.0,,55.0,,67.0,,6.0,,12.0,,100.0,,53.0,,0.0,,17.0,,0.0,,17.0,,133.0,,65.0,,462.0,,141.0,,17,04770,100.0,55.65968020030299,139.0,68.24954212300622
1705640,"Belleville Township High School District 201, Illinois",105023.0,,688.0,,73498.0,,1082.0,,23539.0,,970.0,,138.0,,89.0,,1356.0,,330.0,,19.0,,30.0,,217.0,,108.0,,3151.0,,617.0,,3105.0,,567.0,,17,05640,1375.0,331.3608305156178,3506.0,632.6721109706037
1705970,"Benton Consolidated High School District 103, Illinois",12548.0,,230.0,,11932.0,,266.0,,49.0,,23.0,,5.0,,6.0,,113.0,,60.0,,21.0,,28.0,,17.0,,22.0,,138.0,,70.0,,273.0,,116.0,,17,05970,134.0,66.2117814289874,160.0,73.62064927722385
1706420,"Bloom Township High School District 206, Illinois",63082.0,,1075.0,,17555.0,,1021.0,,27276.0,,1281.0,,8.0,,13.0,,337.0,,150.0,,6.0,,11.0,,316.0,,229.0,,1175.0,,365.0,,16409.0,,1202.0,,17,06420,343.0,150.4027925272666,1499.0,431.08583831993366
1706540,"Community High School District 218, Illinois",120834.0,,1098.0,,65683.0,,1818.0,,26373.0,,1415.0,,86.0,,64.0,,2293.0,,515.0,,12.0,,25.0,,145.0,,114.0,,1537.0,,494.0,,24705.0,,1173.0,,17,06540,2305.0,515.6064390598706,1768.0,511.00684926916585
1708400,"Consolidated High School District 230, Illinois",157462.0,,491.0,,129089.0,,1859.0,,4894.0,,851.0,,147.0,,122.0,,6565.0,,867.0,,50.0,,53.0,,74.0,,63.0,,1991.0,,448.0,,14652.0,,1531.0,,17,08400,6615.0,868.618443276448,2212.0,468.569098426262
1706960,"Bradley-Bourbonnais Consolidated High School District 307, Illinois",40360.0,,150.0,,32548.0,,726.0,,2921.0,,456.0,,0.0,,23.0,,561.0,,157.0,,0.0,,23.0,,59.0,,79.0,,597.0,,225.0,,3674.0,,503.0,,17,06960,561.0,158.67577004697347,656.0,239.57253598858114
1707050,"Bremen Community High School District 228, Illinois",93597.0,,753.0,,46041.0,,1498.0,,28497.0,,1104.0,,42.0,,51.0,,2401.0,,722.0,,0.0,,26.0,,53.0,,107.0,,977.0,,326.0,,15586.0,,1247.0,,17,07050,2401.0,722.4679923705963,1072.0,346.8803828411171
1708370,"Carbondale Community High School District 165, Illinois",36654.0,,326.0,,24149.0,,498.0,,7268.0,,340.0,,66.0,,50.0,,1728.0,,213.0,,2.0,,4.0,,158.0,,181.0,,1263.0,,303.0,,2020.0,,224.0,,17,08370,1730.0,213.03755537463343,1487.0,356.4687924629588
1709300,"Centralia High School District 200, Illinois",21042.0,,353.0,,18296.0,,403.0,,1210.0,,144.0,,39.0,,28.0,,154.0,,58.0,,0.0,,20.0,,0.0,,20.0,,703.0,,149.0,,640.0,,165.0,,17,09300,154.0,61.35144660071187,742.0,152.9215485142627
1709780,"Chester Non-High School District 122, Illinois",873.0,,121.0,,832.0,,117.0,,0.0,,11.0,,0.0,,11.0,,0.0,,11.0,,0.0,,11.0,,0.0,,11.0,,26.0,,30.0,,15.0,,19.0,,17,09780,0.0,11.0,26.0,31.953090617340916
1711370,"Community High School District 155, Illinois",96476.0,,1152.0,,80533.0,,1608.0,,1227.0,,349.0,,110.0,,80.0,,2838.0,,519.0,,14.0,,24.0,,100.0,,80.0,,1582.0,,401.0,,10072.0,,978.0,,17,11370,2852.0,519.5546169557152,1792.0,416.65453315666684
1712570,"Community High School District 99, Illinois",111289.0,,1025.0,,82972.0,,1493.0,,6128.0,,747.0,,92.0,,67.0,,10006.0,,802.0,,1.0,,2.0,,81.0,,58.0,,1962.0,,431.0,,10047.0,,1001.0,,17,12570,10007.0,802.0024937617089,2135.0,440.0159088033068
1712870,"Dwight Township High School District 230, Illinois",5155.0,,216.0,,4887.0,,238.0,,44.0,,47.0,,0.0,,15.0,,38.0,,47.0,,0.0,,15.0,,0.0,,15.0,,62.0,,68.0,,124.0,,106.0,,17,12870,38.0,49.33558553417604,62.0,69.63476143421474
1712990,"East Alton-Wood River Community High School District 14, Illinois",13751.0,,658.0,,12799.0,,673.0,,376.0,,225.0,,12.0,,18.0,,235.0,,196.0,,0.0,,17.0,,29.0,,39.0,,232.0,,164.0,,68.0,,51.0,,17,12990,235.0,196.73586353280888,273.0,169.53170794869024
1713230,"East Peoria Community High School District 309, Illinois",25516.0,,380.0,,23579.0,,551.0,,401.0,,216.0,,20.0,,24.0,,388.0,,162.0,,0.0,,20.0,,70.0,,65.0,,351.0,,144.0,,707.0,,267.0,,17,13230,388.0,163.22989922192565,441.0,159.80300372646317
1713940,"DuPage High School District 88, Illinois",82848.0,,838.0,,49134.0,,1265.0,,3099.0,,614.0,,27.0,,22.0,,6579.0,,676.0,,32.0,,44.0,,86.0,,66.0,,1333.0,,347.0,,22558.0,,997.0,,17,13940,6611.0,677.4304392334316,1446.0,353.9053545794412
1714490,"Evanston Township High School District 202, Illinois",82236.0,,551.0,,49006.0,,1243.0,,13036.0,,1122.0,,27.0,,39.0,,7842.0,,754.0,,55.0,,73.0,,372.0,,163.0,,2530.0,,467.0,,9368.0,,1094.0,,17,14490,7897.0,757.5255771259476,2929.0,496.16428730814556
1714580,"Evergreen Park Community High School District 231, Illinois",19666.0,,33.0,,11775.0,,497.0,,4861.0,,497.0,,0.0,,17.0,,145.0,,163.0,,0.0,,17.0,,142.0,,163.0,,207.0,,127.0,,2536.0,,345.0,,17,14580,145.0,163.88410539158457,349.0,207.33306538031988
1715030,"Fenton Community High School District 100, Illinois",29881.0,,731.0,,15702.0,,914.0,,625.0,,212.0,,0.0,,20.0,,1539.0,,481.0,,0.0,,20.0,,0.0,,20.0,,376.0,,165.0,,11639.0,,898.0,,17,15030,1539.0,481.4156208516712,376.0,166.20770138594662
1715840,"Freeburg Community High School District 77, Illinois",13162.0,,491.0,,12409.0,,528.0,,171.0,,151.0,,2.0,,5.0,,71.0,,76.0,,0.0,,17.0,,0.0,,17.0,,113.0,,73.0,,396.0,,228.0,,17,15840,71.0,77.87810988975015,115.0,75.11990415329349
1716260,"Gardner-South Wilmington Township High School District, Illinois",4294.0,,280.0,,3955.0,,272.0,,6.0,,7.0,,2.0,,3.0,,43.0,,45.0,,0.0,,11.0,,0.0,,11.0,,17.0,,22.0,,271.0,,119.0,,17,16260,43.0,46.32493928760188,19.0,24.779023386727733
1716830,"Glenbard Township High School District 87, Illinois",166469.0,,1526.0,,100129.0,,1701.0,,9804.0,,1029.0,,170.0,,109.0,,26636.0,,1218.0,,73.0,,60.0,,339.0,,242.0,,3788.0,,702.0,,25530.0,,1291.0,,17,16830,26709.0,1219.4769370512918,4297.0,750.49916722139
1717340,"Grant Community High School District 124, Illinois",36991.0,,587.0,,28937.0,,945.0,,1125.0,,461.0,,46.0,,75.0,,1141.0,,330.0,,144.0,,149.0,,69.0,,74.0,,492.0,,217.0,,5037.0,,824.0,,17,17340,1285.0,362.0787207224418,607.0,241.22603507913485
1717550,"Grayslake Community High School District 127, Illinois",44043.0,,1177.0,,32192.0,,1038.0,,1499.0,,435.0,,22.0,,34.0,,3275.0,,684.0,,36.0,,69.0,,92.0,,79.0,,946.0,,287.0,,5981.0,,768.0,,17,17550,3311.0,687.4714539528169,1060.0,299.6097461699135
1718030,"Hall High School District 502, Illinois",9009.0,,173.0,,7486.0,,238.0,,205.0,,92.0,,17.0,,21.0,,117.0,,57.0,,0.0,,15.0,,19.0,,19.0,,137.0,,79.0,,1028.0,,158.0,,17,18030,117.0,58.9406481131655,173.0,83.92258337301111
1719080,"Township High School District 113, Illinois",58674.0,,240.0,,49402.0,,688.0,,824.0,,220.0,,37.0,,42.0,,2032.0,,299.0,,0.0,,26.0,,51.0,,48.0,,739.0,,229.0,,5589.0,,584.0,,17,19080,2032.0,300.1283058959951,827.0,237.71621736852538
1719320,"Hinsdale Township High School District 86, Illinois",75126.0,,972.0,,55439.0,,1251.0,,2696.0,,634.0,,16.0,,21.0,,11090.0,,864.0,,0.0,,26.0,,95.0,,49.0,,1749.0,,589.0,,4041.0,,656.0,,17,19320,11090.0,864.3911151787714,1860.0,591.4076428319133
1719560,"Homewood-Flossmoor Community High School District 233, Illinois",39465.0,,1077.0,,14851.0,,764.0,,21101.0,,992.0,,0.0,,23.0,,511.0,,290.0,,13.0,,24.0,,84.0,,85.0,,827.0,,267.0,,2078.0,,465.0,,17,19560,524.0,290.99140880788906,911.0,281.1458696121997
1719620,"Hononegah Community High School District 207, Illinois",32652.0,,646.0,,30152.0,,738.0,,326.0,,138.0,,39.0,,57.0,,639.0,,289.0,,2.0,,4.0,,32.0,,37.0,,626.0,,268.0,,836.0,,296.0,,17,19620,641.0,289.0276803352925,697.0,276.4814641164937
1720610,"Joliet Township High School District 204, Illinois",129056.0,,782.0,,58002.0,,1313.0,,24086.0,,1045.0,,135.0,,84.0,,1738.0,,512.0,,0.0,,26.0,,252.0,,319.0,,2998.0,,571.0,,41845.0,,1109.0,,17,20610,1738.0,512.659731205797,3385.0,659.4376392048
1721780,"Lake Forest Community High School District 115, Illinois",27244.0,,784.0,,22996.0,,676.0,,459.0,,185.0,,3.0,,5.0,,1987.0,,470.0,,0.0,,20.0,,21.0,,27.0,,376.0,,156.0,,1402.0,,340.0,,17,21780,1987.0,470.425339453563,400.0,158.39823231336896
1721840,"Lake Park Community High School District 108, Illinois",51941.0,,799.0,,38082.0,,1183.0,,2185.0,,403.0,,42.0,,38.0,,4406.0,,501.0,,72.0,,61.0,,203.0,,241.0,,791.0,,231.0,,6160.0,,619.0,,17,21840,4478.0,504.6999108381138,1036.0,335.98511871807654
1722110,"LaSalle-Peru Township High School District 120, Illinois",28397.0,,360.0,,24278.0,,617.0,,201.0,,147.0,,10.0,,16.0,,250.0,,127.0,,17.0,,31.0,,0.0,,20.0,,372.0,,154.0,,3269.0,,478.0,,17,22110,267.0,130.728726758888,382.0,156.11534197509224
1722500,"Lemont Township High School District 210, Illinois",25915.0,,463.0,,22307.0,,743.0,,414.0,,284.0,,0.0,,20.0,,1269.0,,321.0,,0.0,,20.0,,15.0,,23.0,,352.0,,172.0,,1558.0,,495.0,,17,22500,1269.0,321.6224494652076,367.0,174.6797068923577
1722740,"Leyden Community High School District 212, Illinois",63326.0,,390.0,,31737.0,,1174.0,,835.0,,304.0,,38.0,,45.0,,1693.0,,464.0,,0.0,,26.0,,71.0,,65.0,,967.0,,405.0,,27985.0,,1193.0,,17,22740,1693.0,464.72787736480797,1076.0,412.6439142893059
1722830,"Libertyville Community High School District 128, Illinois",50966.0,,689.0,,38454.0,,1003.0,,762.0,,326.0,,30.0,,35.0,,6723.0,,627.0,,4.0,,8.0,,110.0,,96.0,,968.0,,238.0,,3915.0,,591.0,,17,22830,6727.0,627.0510346056371,1108.0,259.0077218926108
1722950,"Limestone Community High School District 310, Illinois",21177.0,,446.0,,18877.0,,433.0,,1129.0,,272.0,,49.0,,56.0,,137.0,,99.0,,0.0,,20.0,,31.0,,43.0,,460.0,,172.0,,494.0,,162.0,,17,22950,137.0,101.0,540.0,185.927405188154
1723050,"Lincoln Community High School District 404, Illinois",21386.0,,233.0,,17910.0,,247.0,,1827.0,,188.0,,35.0,,26.0,,205.0,,37.0,,0.0,,20.0,,24.0,,30.0,,605.0,,162.0,,780.0,,80.0,,17,23050,205.0,42.05948168962618,664.0,166.7932852365466
1723070,"Lincoln Way Community High School District 210, Illinois",108290.0,,337.0,,96605.0,,971.0,,2126.0,,399.0,,36.0,,40.0,,1965.0,,486.0,,0.0,,26.0,,24.0,,30.0,,1267.0,,357.0,,6267.0,,684.0,,17,23070,1965.0,486.69497634555466,1327.0,360.4843963336
1723350,"Lockport Township High School District 205, Illinois",76103.0,,574.0,,60510.0,,959.0,,5091.0,,515.0,,98.0,,89.0,,1768.0,,573.0,,0.0,,26.0,,19.0,,23.0,,864.0,,191.0,,7753.0,,756.0,,17,23350,1768.0,573.5895745217132,981.0,211.96933740520114
1723880,"Lyons Township High School District 204, Illinois",68329.0,,752.0,,54235.0,,1093.0,,2740.0,,689.0,,72.0,,82.0,,1269.0,,255.0,,0.0,,26.0,,47.0,,45.0,,810.0,,292.0,,9156.0,,773.0,,17,23880,1269.0,256.3220630378899,929.0,306.6153942645411
1724090,"Maine Township High School District 207, Illinois",145330.0,,475.0,,94879.0,,1630.0,,3586.0,,656.0,,123.0,,119.0,,24104.0,,1533.0,,127.0,,158.0,,502.0,,273.0,,2670.0,,385.0,,19339.0,,1335.0,,17,24090,24231.0,1541.1206961169523,3295.0,486.7391498533891
1724570,"Marengo Community High School District 154, Illinois",13528.0,,474.0,,11497.0,,521.0,,132.0,,152.0,,0.0,,17.0,,1.0,,3.0,,0.0,,17.0,,0.0,,17.0,,123.0,,88.0,,1775.0,,332.0,,17,24570,1.0,17.26267650163207,123.0,89.62700485902673
1725320,"McHenry Community High School District 156, Illinois",46347.0,,671.0,,38582.0,,1006.0,,280.0,,166.0,,51.0,,54.0,,547.0,,298.0,,0.0,,23.0,,30.0,,36.0,,551.0,,326.0,,6306.0,,681.0,,17,25320,547.0,298.88626599427414,632.0,332.3973525767015
1725650,"Mendota Township High School District 280, Illinois",10470.0,,452.0,,7801.0,,478.0,,79.0,,78.0,,28.0,,32.0,,73.0,,84.0,,0.0,,17.0,,0.0,,17.0,,124.0,,95.0,,2365.0,,334.0,,17,25650,73.0,85.70297544426332,152.0,101.67595585978034
1725770,"Metamora Township High School District 122, Illinois",16239.0,,114.0,,15453.0,,232.0,,69.0,,69.0,,6.0,,9.0,,147.0,,61.0,,0.0,,17.0,,0.0,,17.0,,310.0,,116.0,,254.0,,117.0,,17,25770,147.0,63.324560795950255,316.0,117.58401251870936
1726180,"Fairfield Community High School District 225, Illinois",10125.0,,305.0,,9670.0,,307.0,,233.0,,107.0,,15.0,,20.0,,43.0,,38.0,,0.0,,17.0,,0.0,,17.0,,116.0,,57.0,,48.0,,43.0,,17,26180,43.0,41.6293165929973,131.0,62.75348595894893
1726340,"Minooka Community High School District 111, Illinois",39720.0,,663.0,,31689.0,,1155.0,,1321.0,,406.0,,35.0,,43.0,,550.0,,301.0,,17.0,,25.0,,92.0,,99.0,,725.0,,261.0,,5291.0,,753.0,,17,26340,567.0,302.0364216448076,852.0,282.437603728682
1726640,"Morris Community High School District 101, Illinois",18912.0,,327.0,,16407.0,,546.0,,221.0,,115.0,,7.0,,13.0,,132.0,,94.0,,0.0,,17.0,,124.0,,191.0,,328.0,,200.0,,1693.0,,349.0,,17,26640,132.0,95.524865872714,459.0,276.85736399814255
1726880,"J. Sterling Morton High School District 201, Illinois",157418.0,,225.0,,27887.0,,1299.0,,6377.0,,872.0,,136.0,,86.0,,2781.0,,577.0,,0.0,,26.0,,176.0,,137.0,,995.0,,435.0,,119066.0,,1611.0,,17,26880,2781.0,577.5854915075344,1307.0,464.10128204951127
1728200,"New Trier Township High School District 203, Illinois",60928.0,,272.0,,51456.0,,849.0,,398.0,,197.0,,47.0,,64.0,,5578.0,,624.0,,6.0,,10.0,,51.0,,39.0,,1235.0,,255.0,,2157.0,,406.0,,17,28200,5584.0,624.0801230611339,1333.0,265.78562790339134
1727360,"Mount Vernon Township High School District 201, Illinois",29050.0,,314.0,,23942.0,,319.0,,3171.0,,179.0,,38.0,,25.0,,414.0,,61.0,,0.0,,20.0,,14.0,,22.0,,602.0,,169.0,,869.0,,47.0,,17,27360,414.0,64.19501538281614,654.0,172.2498185775532
1727570,"Mundelein Consolidated High School District 120, Illinois",43297.0,,948.0,,24029.0,,1074.0,,1247.0,,506.0,,92.0,,59.0,,3860.0,,622.0,,35.0,,56.0,,47.0,,60.0,,668.0,,235.0,,13319.0,,1062.0,,17,27570,3895.0,624.515812449933,807.0,249.6116984438029
1727740,"Nashville Community High School District 99, Illinois",8330.0,,237.0,,8036.0,,235.0,,52.0,,27.0,,0.0,,15.0,,27.0,,23.0,,5.0,,10.0,,2.0,,3.0,,62.0,,42.0,,146.0,,48.0,,17,27740,32.0,25.079872407968907,64.0,44.69899327725402
1728260,"Newark Community High School District 18, Illinois",4035.0,,223.0,,3808.0,,223.0,,15.0,,16.0,,0.0,,11.0,,5.0,,7.0,,0.0,,11.0,,1.0,,3.0,,89.0,,88.0,,117.0,,76.0,,17,28260,5.0,13.038404810405298,90.0,88.73556220591607
1728530,"Niles Township Community High School District 219, Illinois",96383.0,,555.0,,50728.0,,1413.0,,5358.0,,1137.0,,34.0,,37.0,,27163.0,,1303.0,,40.0,,62.0,,246.0,,171.0,,3198.0,,717.0,,9616.0,,1212.0,,17,28530,27203.0,1304.474223585886,3478.0,738.0372619319434
1729010,"Northfield Township High School District 225, Illinois",88263.0,,368.0,,67352.0,,1050.0,,1477.0,,450.0,,33.0,,46.0,,13096.0,,849.0,,0.0,,26.0,,141.0,,109.0,,1305.0,,271.0,,4859.0,,718.0,,17,29010,13096.0,849.3980221309678,1479.0,295.69917145639755
1729220,"Oak Lawn Community High School District 229, Illinois",40304.0,,985.0,,27779.0,,1164.0,,2244.0,,466.0,,47.0,,75.0,,761.0,,282.0,,0.0,,23.0,,283.0,,215.0,,469.0,,254.0,,8721.0,,974.0,,17,29220,761.0,282.936388610585,799.0,341.12461066302444
1729280,"Oak Park and River Forest District 200, Illinois",63289.0,,40.0,,42268.0,,1010.0,,9988.0,,618.0,,13.0,,18.0,,3091.0,,455.0,,11.0,,18.0,,231.0,,130.0,,2457.0,,361.0,,5230.0,,648.0,,17,29280,3102.0,455.3559047602216,2701.0,384.11586793570507
1729730,"Ohio Community High School District 505, Illinois",799.0,,115.0,,792.0,,115.0,,7.0,,9.0,,0.0,,11.0,,0.0,,11.0,,0.0,,11.0,,0.0,,11.0,,0.0,,11.0,,0.0,,11.0,,17,29730,0.0,11.0,0.0,11.0
1729790,"O'Fallon Township High School District 203, Illinois",40581.0,,671.0,,30859.0,,1005.0,,5008.0,,681.0,,39.0,,35.0,,1290.0,,315.0,,0.0,,23.0,,258.0,,327.0,,1347.0,,296.0,,1780.0,,452.0,,17,29790,1290.0,315.83856635946154,1644.0,442.45903765207464
1730330,"Ottawa Township High School District 140, Illinois",30937.0,,462.0,,26980.0,,662.0,,792.0,,247.0,,48.0,,37.0,,242.0,,106.0,,0.0,,23.0,,11.0,,16.0,,557.0,,182.0,,2307.0,,417.0,,17,30330,242.0,108.4665847162157,616.0,186.41083659487182
1730450,"Township High School District 211, Illinois",236222.0,,792.0,,140234.0,,1813.0,,7683.0,,1035.0,,351.0,,234.0,,43147.0,,1777.0,,161.0,,199.0,,323.0,,137.0,,5215.0,,700.0,,39108.0,,1720.0,,17,30450,43308.0,1788.107938576416,5889.0,750.68302232034
1731110,"Pekin Community High School District 303, Illinois",44268.0,,432.0,,41677.0,,559.0,,748.0,,242.0,,99.0,,66.0,,203.0,,108.0,,9.0,,13.0,,20.0,,36.0,,621.0,,183.0,,891.0,,288.0,,17,31110,212.0,108.77959367454909,740.0,197.84084512557058
1731620,"Pinckneyville Community High School District 101, Illinois",10439.0,,276.0,,8210.0,,353.0,,1625.0,,175.0,,1.0,,3.0,,81.0,,74.0,,0.0,,17.0,,0.0,,17.0,,78.0,,50.0,,444.0,,119.0,,17,31620,81.0,75.92759709091287,79.0,52.896124621752776
1732220,"Pontiac Township High School District 90, Illinois",16000.0,,298.0,,13575.0,,369.0,,1271.0,,213.0,,0.0,,17.0,,173.0,,81.0,,0.0,,17.0,,0.0,,17.0,,205.0,,87.0,,776.0,,169.0,,17,32220,173.0,82.76472678623425,205.0,88.64536084872124
1732580,"Adlai E. Stevenson High School District 125, Illinois",61902.0,,845.0,,42024.0,,1016.0,,1492.0,,648.0,,96.0,,78.0,,14450.0,,955.0,,9.0,,16.0,,26.0,,33.0,,1097.0,,265.0,,2708.0,,874.0,,17,32580,14459.0,955.134022009477,1219.0,278.20496041587757
1732700,"Princeton High School District 500, Illinois",12008.0,,248.0,,11149.0,,311.0,,43.0,,39.0,,21.0,,24.0,,66.0,,41.0,,0.0,,17.0,,6.0,,9.0,,62.0,,41.0,,661.0,,210.0,,17,32700,66.0,44.384682042344295,89.0,48.35286961494633
1732910,"Proviso Township High School District 209, Illinois",125787.0,,203.0,,28765.0,,1180.0,,49734.0,,1508.0,,87.0,,50.0,,3008.0,,542.0,,0.0,,26.0,,309.0,,250.0,,1488.0,,346.0,,42396.0,,1471.0,,17,32910,3008.0,542.6232578870905,1884.0,429.7859932571093
1733240,"Rantoul Township High School District 193, Illinois",17531.0,,259.0,,12138.0,,646.0,,2846.0,,370.0,,12.0,,15.0,,339.0,,227.0,,0.0,,17.0,,0.0,,17.0,,593.0,,306.0,,1603.0,,535.0,,17,33240,339.0,227.63567382991621,605.0,306.83871985132515
1733270,"Reavis Township High School District 220, Illinois",33105.0,,202.0,,19970.0,,879.0,,819.0,,312.0,,49.0,,72.0,,438.0,,189.0,,0.0,,23.0,,7.0,,13.0,,402.0,,207.0,,11420.0,,793.0,,17,33270,438.0,190.3943276465977,458.0,219.54953882893946
1733420,"Rich Township High School District 227, Illinois",69556.0,,512.0,,12864.0,,875.0,,50348.0,,1239.0,,32.0,,30.0,,771.0,,286.0,,0.0,,26.0,,315.0,,207.0,,1565.0,,499.0,,3661.0,,948.0,,17,33420,771.0,287.17938644686876,1912.0,541.0637670367514
1733510,"Richmond-Burton Community High School District 157, Illinois",11551.0,,26.0,,10459.0,,310.0,,52.0,,58.0,,27.0,,45.0,,133.0,,104.0,,0.0,,17.0,,0.0,,17.0,,247.0,,141.0,,633.0,,260.0,,17,33510,133.0,105.38026380684383,274.0,148.9798644112687
1733720,"Ridgewood Community High School District 234, Illinois",19259.0,,517.0,,15506.0,,722.0,,142.0,,77.0,,17.0,,21.0,,1350.0,,361.0,,12.0,,18.0,,18.0,,32.0,,81.0,,47.0,,2133.0,,468.0,,17,33720,1362.0,361.4484748895754,116.0,60.61352984276695
1734020,"Riverside Brookfield Township School District 208, Illinois",28875.0,,407.0,,21236.0,,733.0,,693.0,,259.0,,0.0,,20.0,,890.0,,385.0,,0.0,,20.0,,18.0,,29.0,,293.0,,163.0,,5745.0,,612.0,,17,34020,890.0,385.5191305240247,311.0,166.76330531624757
1734290,"Rochelle Township High School District 212, Illinois",16395.0,,358.0,,12179.0,,520.0,,314.0,,179.0,,128.0,,87.0,,128.0,,130.0,,0.0,,17.0,,4.0,,6.0,,117.0,,79.0,,3525.0,,307.0,,17,34290,128.0,131.10682667199293,249.0,117.66902736064405
1734380,"Rock Falls Township High School District 301, Illinois",14117.0,,130.0,,11621.0,,394.0,,426.0,,229.0,,15.0,,17.0,,0.0,,17.0,,0.0,,17.0,,0.0,,17.0,,77.0,,45.0,,1978.0,,294.0,,17,34380,0.0,17.0,92.0,51.01960407529639
1735190,"Salem Community High School District 600, Illinois",14582.0,,313.0,,13934.0,,363.0,,77.0,,34.0,,49.0,,30.0,,114.0,,75.0,,0.0,,17.0,,57.0,,49.0,,182.0,,69.0,,169.0,,117.0,,17,35190,114.0,76.90253571892151,288.0,89.78864070694021
1735850,"Seneca Township High School District 160, Illinois",7476.0,,429.0,,7026.0,,410.0,,5.0,,10.0,,0.0,,15.0,,21.0,,27.0,,4.0,,6.0,,0.0,,15.0,,22.0,,19.0,,398.0,,154.0,,17,35850,25.0,27.65863337187866,22.0,24.20743687382041
1737140,"St. Anne Community High School District 302, Illinois",4626.0,,368.0,,2396.0,,259.0,,1514.0,,314.0,,14.0,,16.0,,18.0,,16.0,,0.0,,11.0,,18.0,,26.0,,53.0,,34.0,,613.0,,218.0,,17,37140,18.0,19.4164878389476,85.0,45.69463863518345
1737410,"St. Joseph-Ogden Community High School District 305, Illinois",8381.0,,351.0,,8105.0,,372.0,,2.0,,4.0,,14.0,,19.0,,90.0,,80.0,,0.0,,15.0,,0.0,,15.0,,66.0,,54.0,,104.0,,73.0,,17,37410,90.0,81.39410298049853,80.0,59.177698502053964
1738100,"Streator Township High School District 40, Illinois",17800.0,,333.0,,15222.0,,435.0,,502.0,,203.0,,115.0,,125.0,,203.0,,185.0,,0.0,,17.0,,0.0,,17.0,,187.0,,100.0,,1571.0,,312.0,,17,38100,203.0,185.77943912069495,302.0,160.97825940169685
1738940,"Thornton Fractional Township High School District 215, Illinois",59353.0,,1352.0,,15634.0,,783.0,,31895.0,,1462.0,,141.0,,126.0,,277.0,,211.0,,0.0,,26.0,,100.0,,174.0,,817.0,,281.0,,10489.0,,1162.0,,17,38940,277.0,212.59586073110643,1058.0,353.7131606259513
1738970,"Thornton Township High School District 205, Illinois",115196.0,,1155.0,,9268.0,,530.0,,93010.0,,1452.0,,76.0,,55.0,,652.0,,233.0,,0.0,,26.0,,76.0,,91.0,,1310.0,,460.0,,10804.0,,1124.0,,17,38970,652.0,234.44615586526473,1462.0,472.12921959988876
1739870,"United Township High School District 30, Illinois",39330.0,,690.0,,26972.0,,965.0,,4118.0,,513.0,,87.0,,60.0,,975.0,,341.0,,8.0,,8.0,,26.0,,38.0,,1251.0,,425.0,,5893.0,,693.0,,17,39870,983.0,341.09382873338535,1364.0,430.8932582438486
1740290,"Vienna High School District 133, Illinois",9272.0,,295.0,,7320.0,,297.0,,1483.0,,185.0,,9.0,,9.0,,28.0,,15.0,,0.0,,15.0,,9.0,,13.0,,54.0,,31.0,,369.0,,45.0,,17,40290,28.0,21.213203435596427,72.0,34.79942528261063
1740440,"Community High School District 94, Illinois",42440.0,,602.0,,22143.0,,879.0,,700.0,,293.0,,0.0,,23.0,,2263.0,,493.0,,0.0,,23.0,,72.0,,65.0,,370.0,,173.0,,16892.0,,864.0,,17,40440,2263.0,493.5362195421933,442.0,186.23372412106247
1740800,"Warren Township High School District 121, Illinois",67706.0,,607.0,,39280.0,,1092.0,,5396.0,,622.0,,94.0,,97.0,,8387.0,,773.0,,0.0,,26.0,,133.0,,78.0,,2001.0,,371.0,,12415.0,,859.0,,17,40800,8387.0,773.4371338382972,2228.0,391.32339567166184
1740980,"Washington Community High School District 308, Illinois",24352.0,,232.0,,22654.0,,385.0,,312.0,,162.0,,10.0,,17.0,,480.0,,161.0,,0.0,,20.0,,0.0,,20.0,,385.0,,163.0,,511.0,,171.0,,17,40980,480.0,162.2374802565671,395.0,165.09996971532127
1743890,"Zion-Benton Township High School District 126, Illinois",44817.0,,665.0,,22313.0,,1084.0,,8596.0,,828.0,,249.0,,205.0,,1251.0,,484.0,,0.0,,23.0,,117.0,,114.0,,1369.0,,460.0,,10922.0,,869.0,,17,43890,1251.0,484.54617942978354,1735.0,516.3535610412695
1799999,"Remainder of Illinois, Illinois",8034748.0,,3287.0,,4831877.0,,6496.0,,1246600.0,,5454.0,,10344.0,,692.0,,377068.0,,3984.0,,1925.0,,353.0,,12440.0,,1085.0,,148680.0,,3763.0,,1405814.0,,5554.0,,17,99999,378993.0,3999.6081058023674,171464.0,3976.965928946337
1717901,"Flanagan-Cornell District 74 in Cornell, Illinois",1117.0,,134.0,,1075.0,,131.0,,0.0,,11.0,,0.0,,11.0,,0.0,,11.0,,0.0,,11.0,,0.0,,11.0,,27.0,,35.0,,15.0,,20.0,,17,17901,0.0,11.0,27.0,36.68787265568828
1717902,"Flanagan-Cornell District 74 in Pontiac, Illinois",36.0,,18.0,,34.0,,18.0,,0.0,,11.0,,0.0,,11.0,,2.0,,4.0,,0.0,,11.0,,0.0,,11.0,,0.0,,11.0,,0.0,,11.0,,17,17902,2.0,11.704699910719626,0.0,11.0
1717903,"Flanagan-Cornell District 74 in Rooks Creek, Illinois",0.0,,11.0,,0.0,,11.0,,0.0,,11.0,,0.0,,11.0,,0.0,,11.0,,0.0,,11.0,,0.0,,11.0,,0.0,,11.0,,0.0,,11.0,,17,17903,0.0,11.0,0.0,11.0
2121001,"Laurel County School District for East Bernstadt ISD, Kentucky",1250.0,,244.0,,1147.0,,234.0,,61.0,,87.0,,12.0,,12.0,,0.0,,11.0,,0.0,,11.0,,0.0,,11.0,,16.0,,17.0,,14.0,,22.0,,21,21001,0.0,11.0,28.0,23.53720459187964
2121002,"Pulaski County School District for Science Hill ISD, Kentucky",2255.0,,365.0,,2194.0,,358.0,,0.0,,11.0,,0.0,,11.0,,0.0,,11.0,,0.0,,11.0,,0.0,,11.0,,0.0,,11.0,,61.0,,53.0,,21,21002,0.0,11.0,0.0,11.0
2121005,"Campbell County School District in Southgate ISD, Kentucky",2688.0,,204.0,,2172.0,,300.0,,186.0,,102.0,,0.0,,11.0,,126.0,,160.0,,0.0,,11.0,,0.0,,11.0,,91.0,,105.0,,113.0,,147.0,,21,21005,126.0,160.37767924496225,91.0,105.57461816175325
2121003,"Elizabethtown Independent School District for West Point ISD, Kentucky",952.0,,163.0,,914.0,,158.0,,0.0,,11.0,,22.0,,28.0,,0.0,,11.0,,0.0,,11.0,,0.0,,11.0,,2.0,,3.0,,14.0,,14.0,,21,21003,0.0,11.0,24.0,30.23243291566195
2199999,"Remainder of Kentucky, Kentucky",4430681.0,,522.0,,3755470.0,,1003.0,,349119.0,,2386.0,,8454.0,,603.0,,62232.0,,1156.0,,2339.0,,272.0,,6049.0,,902.0,,88490.0,,2746.0,,158528.0,,581.0,,21,99999,64571.0,1187.5689453669627,102993.0,2952.580058186399
2121004,"Jefferson County School District in Anchorage ISD, Kentucky",2378.0,,293.0,,2185.0,,266.0,,41.0,,32.0,,10.0,,12.0,,74.0,,55.0,,0.0,,11.0,,8.0,,13.0,,46.0,,33.0,,14.0,,13.0,,21,21004,74.0,56.089214649520635,64.0,37.44329045369811
2300053,"Five Town Community School District, Maine",13078.0,,330.0,,12635.0,,362.0,,120.0,,82.0,,0.0,,16.0,,80.0,,62.0,,0.0,,16.0,,0.0,,16.0,,130.0,,95.0,,113.0,,94.0,,23,00053,80.0,64.03124237432849,130.0,96.33794683301072
2308400,"Moosabec Community School District, Maine",1742.0,,189.0,,1681.0,,186.0,,5.0,,5.0,,0.0,,10.0,,11.0,,10.0,,0.0,,10.0,,3.0,,3.0,,15.0,,11.0,,27.0,,20.0,,23,08400,11.0,14.142135623730951,18.0,15.165750888103101
2308500,"Mount Desert Community School District, Maine",10414.0,,341.0,,9691.0,,364.0,,170.0,,113.0,,6.0,,8.0,,182.0,,121.0,,0.0,,16.0,,24.0,,28.0,,68.0,,41.0,,273.0,,77.0,,23,08500,182.0,122.05326705991938,98.0,50.28916384272063
2399999,"Remainder of Maine, Maine",1303050.0,,683.0,,1216257.0,,779.0,,16617.0,,706.0,,7712.0,,460.0,,14448.0,,541.0,,258.0,,103.0,,816.0,,277.0,,25989.0,,923.0,,20953.0,,138.0,,23,99999,14706.0,550.7177135338939,34517.0,1067.8286379377546
2303480,"Bremen, Maine",797.0,,145.0,,793.0,,144.0,,0.0,,10.0,,0.0,,10.0,,0.0,,10.0,,0.0,,10.0,,0.0,,10.0,,4.0,,8.0,,0.0,,10.0,,23,03480,0.0,10.0,4.0,12.806248474865697
2304830,"Damariscotta, Maine",2028.0,,267.0,,1877.0,,248.0,,57.0,,70.0,,4.0,,8.0,,44.0,,33.0,,0.0,,10.0,,0.0,,10.0,,29.0,,27.0,,17.0,,25.0,,23,04830,44.0,34.48187929913333,33.0,29.88310559496787
2308760,"Newcastle, Maine",1704.0,,184.0,,1591.0,,179.0,,21.0,,31.0,,0.0,,10.0,,49.0,,40.0,,0.0,,10.0,,0.0,,10.0,,5.0,,7.0,,38.0,,38.0,,23,08760,49.0,41.23105625617661,5.0,12.206555615733702
2501920,"Amherst-Pelham School District, Massachusetts",44831.0,,220.0,,32604.0,,639.0,,2356.0,,507.0,,111.0,,59.0,,5142.0,,436.0,,34.0,,36.0,,51.0,,49.0,,1596.0,,482.0,,2937.0,,392.0,,25,01920,5176.0,437.4837139825893,1758.0,488.063520456098
2502580,"Berlin-Boylston School District, Massachusetts",7725.0,,20.0,,7349.0,,133.0,,29.0,,22.0,,0.0,,17.0,,189.0,,101.0,,0.0,,17.0,,0.0,,17.0,,48.0,,26.0,,110.0,,66.0,,25,02580,189.0,102.42070103255493,48.0,31.064449134018133
2503870,"Concord-Carlisle School District, Massachusetts",24509.0,,37.0,,19747.0,,641.0,,769.0,,271.0,,20.0,,31.0,,1929.0,,405.0,,0.0,,23.0,,0.0,,23.0,,582.0,,233.0,,1462.0,,298.0,,25,03870,1929.0,405.652560696959,602.0,236.17578199298927
2504290,"Dover-Sherborn School District, Massachusetts",10288.0,,33.0,,8691.0,,304.0,,111.0,,152.0,,0.0,,19.0,,795.0,,124.0,,0.0,,19.0,,11.0,,17.0,,283.0,,169.0,,397.0,,183.0,,25,04290,795.0,125.44720004846661,294.0,170.9122581911549
2504560,"Nauset School District, Massachusetts",24063.0,,222.0,,22521.0,,386.0,,525.0,,240.0,,0.0,,23.0,,340.0,,176.0,,0.0,,23.0,,60.0,,58.0,,303.0,,192.0,,314.0,,151.0,,25,04560,340.0,177.49647883831386,363.0,201.8836298465034
2505100,"Frontier School District, Massachusetts",12018.0,,259.0,,10465.0,,356.0,,186.0,,143.0,,15.0,,19.0,,533.0,,252.0,,65.0,,101.0,,39.0,,60.0,,222.0,,116.0,,493.0,,176.0,,25,05100,598.0,271.48664792214,276.0,131.97348218486925
2505740,"Hampshire School District, Massachusetts",12846.0,,262.0,,12413.0,,278.0,,19.0,,22.0,,3.0,,5.0,,148.0,,130.0,,20.0,,25.0,,0.0,,19.0,,85.0,,89.0,,158.0,,77.0,,25,05740,168.0,132.38202294873727,88.0,91.14274518577987
2506510,"King Philip School District, Massachusetts",32570.0,,28.0,,29171.0,,569.0,,1169.0,,322.0,,40.0,,45.0,,503.0,,212.0,,0.0,,26.0,,167.0,,236.0,,228.0,,91.0,,1292.0,,274.0,,25,06510,503.0,213.5883891975404,435.0,256.90854403853524
2506930,"Lincoln-Sudbury School District, Massachusetts",25666.0,,36.0,,20987.0,,558.0,,289.0,,198.0,,6.0,,10.0,,2626.0,,352.0,,0.0,,23.0,,110.0,,154.0,,762.0,,242.0,,886.0,,291.0,,25,06930,2626.0,352.75062012702404,878.0,287.01916312330087
2507380,"Martha's Vineyard School District, Massachusetts",17265.0,,24.0,,14850.0,,183.0,,615.0,,169.0,,101.0,,88.0,,64.0,,87.0,,0.0,,19.0,,271.0,,174.0,,758.0,,211.0,,606.0,,2.0,,25,07380,64.0,89.05054744357274,1130.0,287.2994953006357
2507410,"Masconomet School District, Massachusetts",24600.0,,25.0,,22637.0,,422.0,,91.0,,45.0,,5.0,,8.0,,500.0,,181.0,,0.0,,23.0,,9.0,,17.0,,503.0,,231.0,,855.0,,244.0,,25,07410,500.0,182.45547402037573,517.0,231.76280978621224
2508160,"Mount Greylock School District, Massachusetts",11106.0,,92.0,,9283.0,,333.0,,403.0,,113.0,,52.0,,35.0,,513.0,,146.0,,0.0,,19.0,,0.0,,19.0,,270.0,,126.0,,585.0,,199.0,,25,08160,513.0,147.2311108427835,322.0,132.14386100004796
2508910,"Northborough-Southborough School District, Massachusetts",25059.0,,27.0,,20661.0,,518.0,,509.0,,334.0,,39.0,,55.0,,2512.0,,377.0,,0.0,,23.0,,75.0,,59.0,,505.0,,201.0,,758.0,,228.0,,25,08910,2512.0,377.7009398982216,619.0,216.58023917246004
2509150,"Old Rochester School District, Massachusetts",16921.0,,46.0,,15626.0,,335.0,,128.0,,102.0,,0.0,,19.0,,174.0,,108.0,,0.0,,19.0,,337.0,,171.0,,366.0,,164.0,,290.0,,142.0,,25,09150,174.0,109.65856099730654,703.0,237.6930794112441
2509900,"Ralph C. Mahar School District, Massachusetts",10840.0,,205.0,,10324.0,,234.0,,53.0,,35.0,,37.0,,37.0,,72.0,,47.0,,0.0,,19.0,,7.0,,10.0,,193.0,,97.0,,154.0,,71.0,,25,09900,72.0,50.695167422546305,237.0,104.29765098025938
2510830,"Silver Lake School District, Massachusetts",24150.0,,45.0,,22862.0,,457.0,,381.0,,332.0,,0.0,,23.0,,78.0,,54.0,,0.0,,23.0,,36.0,,42.0,,320.0,,183.0,,473.0,,243.0,,25,10830,78.0,58.69412236331676,356.0,189.16130682568252
2511490,"Tantasqua School District, Massachusetts",21363.0,,209.0,,19793.0,,532.0,,257.0,,193.0,,3.0,,5.0,,354.0,,192.0,,0.0,,23.0,,40.0,,55.0,,343.0,,185.0,,573.0,,223.0,,25,11490,354.0,193.3726971420733,386.0,193.06734576307824
2522222,"Mohawk Trail Regional School District in Hawley and Charlemont towns, Massachusetts",1503.0,,154.0,,1394.0,,158.0,,6.0,,14.0,,0.0,,12.0,,31.0,,21.0,,0.0,,12.0,,1.0,,3.0,,40.0,,30.0,,31.0,,19.0,,25,22222,31.0,24.186773244895647,41.0,32.449961479175904
2525002,"North Adams School District in Clarksburg (9-12), Massachusetts",1744.0,,98.0,,1670.0,,103.0,,26.0,,38.0,,0.0,,12.0,,0.0,,12.0,,0.0,,12.0,,0.0,,12.0,,13.0,,17.0,,35.0,,23.0,,25,25002,0.0,12.0,13.0,20.808652046684813
2525003,"Gill-Montague School District in Erving (7-12), Massachusetts",1791.0,,147.0,,1673.0,,147.0,,34.0,,45.0,,15.0,,18.0,,5.0,,7.0,,0.0,,12.0,,0.0,,12.0,,23.0,,20.0,,41.0,,26.0,,25,25003,5.0,13.892443989449804,38.0,29.46183972531247
2525005,"Swampscott School District in Nahant (7-12), Massachusetts",3495.0,,25.0,,3327.0,,82.0,,35.0,,48.0,,0.0,,12.0,,49.0,,37.0,,0.0,,12.0,,0.0,,12.0,,28.0,,30.0,,56.0,,44.0,,25,25005,49.0,38.897300677553446,28.0,32.31098884280702
2525006,"Pittsfield School District in Richmond (9-12), Massachusetts",1590.0,,141.0,,1523.0,,141.0,,10.0,,9.0,,3.0,,4.0,,26.0,,21.0,,0.0,,12.0,,0.0,,12.0,,25.0,,16.0,,3.0,,4.0,,25,25006,26.0,24.186773244895647,28.0,20.396078054371138
2525007,"Mohawk Trail School District in Rowe (7-12), Massachusetts",410.0,,54.0,,394.0,,56.0,,7.0,,7.0,,0.0,,12.0,,0.0,,12.0,,0.0,,12.0,,0.0,,12.0,,0.0,,12.0,,9.0,,7.0,,25,25007,0.0,12.0,0.0,12.0
2525008,"Adams-Cheshire School District in Savoy (7-12), Massachusetts",719.0,,83.0,,636.0,,68.0,,54.0,,46.0,,2.0,,3.0,,0.0,,12.0,,0.0,,12.0,,0.0,,12.0,,10.0,,10.0,,17.0,,11.0,,25,25008,0.0,12.0,12.0,15.905973720586866
2525009,"North Adams School District in Florida (9-12), Massachusetts",785.0,,107.0,,743.0,,98.0,,10.0,,16.0,,0.0,,12.0,,0.0,,12.0,,0.0,,12.0,,0.0,,12.0,,32.0,,38.0,,0.0,,12.0,,25,25009,0.0,12.0,32.0,39.84971769034255
2525010,"Fairhaven/New Bedford School Districts in Acushnet (9-12), Massachusetts",10483.0,,18.0,,9333.0,,412.0,,8.0,,14.0,,0.0,,19.0,,164.0,,211.0,,0.0,,19.0,,335.0,,234.0,,290.0,,169.0,,353.0,,296.0,,25,25010,164.0,211.85372312045877,625.0,289.2714987688901
2525012,"Nauset/Provincetown School Districts in Turo (7-12), Massachusetts",1254.0,,228.0,,1211.0,,220.0,,27.0,,40.0,,0.0,,12.0,,0.0,,12.0,,0.0,,12.0,,0.0,,12.0,,5.0,,7.0,,11.0,,16.0,,25,25012,0.0,12.0,5.0,13.892443989449804
2525013,"Mount Greylock/New Lebanon (NY) School Districts in Hancock (7-12), Massachusetts",529.0,,88.0,,514.0,,87.0,,0.0,,12.0,,0.0,,12.0,,7.0,,7.0,,0.0,,12.0,,0.0,,12.0,,3.0,,5.0,,5.0,,6.0,,25,25013,7.0,13.892443989449804,3.0,13.0
2525014,"North Adams School District in Monroe (9-12), Massachusetts",91.0,,32.0,,91.0,,32.0,,0.0,,12.0,,0.0,,12.0,,0.0,,12.0,,0.0,,12.0,,0.0,,12.0,,0.0,,12.0,,0.0,,12.0,,25,25014,0.0,12.0,0.0,12.0
2599999,"Remainder of Massachusetts, Massachusetts",6432701.0,,548.0,,4581446.0,,2913.0,,455599.0,,2841.0,,8434.0,,726.0,,423517.0,,2276.0,,1579.0,,338.0,,51557.0,,3117.0,,134535.0,,3594.0,,776034.0,,1008.0,,25,99999,425096.0,2300.9606689380853,194526.0,4812.442311342547
2525015,"Lee/Berkshire Hills in Farmington River Regional (7-12), Massachusetts",2392.0,,209.0,,2285.0,,205.0,,21.0,,27.0,,4.0,,6.0,,12.0,,13.0,,0.0,,12.0,,5.0,,6.0,,26.0,,19.0,,39.0,,27.0,,25,25015,12.0,17.69180601295413,35.0,20.808652046684813
2500541,"Somerset-Berkley School District, Massachusetts",24886.0,,30.0,,24188.0,,264.0,,69.0,,94.0,,0.0,,23.0,,53.0,,53.0,,0.0,,23.0,,157.0,,108.0,,269.0,,172.0,,150.0,,113.0,,25,00541,53.0,57.77542730261716,426.0,204.39422692434343
2727006,"Heron Lake-Okabena-Fulda-Worthington in Round Lake-Brewster (9-12), Minnesota",1748.0,,114.0,,1578.0,,107.0,,10.0,,16.0,,7.0,,8.0,,10.0,,8.0,,0.0,,9.0,,0.0,,9.0,,24.0,,19.0,,119.0,,62.0,,27,27006,10.0,12.041594578792296,31.0,22.494443758403985
2727007,"St. Louis-Northland in Nett Lake (7-12), Minnesota",489.0,,104.0,,26.0,,21.0,,6.0,,8.0,,393.0,,97.0,,0.0,,9.0,,0.0,,9.0,,0.0,,9.0,,60.0,,35.0,,4.0,,7.0,,27,27007,0.0,9.0,453.0,103.5132841716463
2799001,"Elkton School District 05-3 in Lake Benton (7-12), Minnesota",1215.0,,113.0,,1190.0,,110.0,,0.0,,9.0,,0.0,,9.0,,0.0,,9.0,,0.0,,9.0,,0.0,,9.0,,10.0,,9.0,,15.0,,17.0,,27,99001,0.0,9.0,10.0,12.727922061357855
2727001,"Park Rapids Public School District in Pine Point (9-12), Minnesota",382.0,,116.0,,15.0,,10.0,,0.0,,9.0,,341.0,,118.0,,7.0,,5.0,,0.0,,9.0,,0.0,,9.0,,14.0,,11.0,,5.0,,6.0,,27,27001,7.0,10.295630140987,355.0,118.85285019720814
2799999,"Remainder of Minnesota, Minnesota",5519731.0,,264.0,,4431867.0,,878.0,,336457.0,,2742.0,,52299.0,,1013.0,,260721.0,,1636.0,,1797.0,,291.0,,7021.0,,905.0,,137048.0,,3427.0,,292521.0,,117.0,,27,99999,262518.0,1661.6789701985158,196368.0,3686.3970214831716
2727002,"Clinton-Graceville-Beardsley-Wheaton-Sisseton/Wilmot (SD) in Browns Valley (9-12), Minnesota",760.0,,92.0,,554.0,,84.0,,0.0,,9.0,,127.0,,52.0,,10.0,,14.0,,0.0,,9.0,,0.0,,9.0,,52.0,,38.0,,17.0,,21.0,,27,27002,10.0,16.64331697709324,179.0,65.03076195155643
2727003,"Minneota-Ivanhoe Public School Districts in Ivanhoe (7-12), Minnesota",1261.0,,116.0,,1247.0,,114.0,,6.0,,7.0,,1.0,,3.0,,0.0,,9.0,,0.0,,9.0,,0.0,,9.0,,3.0,,4.0,,4.0,,5.0,,27,27003,0.0,9.0,4.0,10.295630140987
2727004,"Marshall-Minneota-RTR Public Schools in Lynd (9-12), Minnesota",1118.0,,136.0,,985.0,,127.0,,8.0,,7.0,,0.0,,9.0,,31.0,,37.0,,2.0,,2.0,,0.0,,9.0,,19.0,,15.0,,73.0,,51.0,,27,27004,33.0,37.05401462729781,19.0,17.4928556845359
2727005,"Marshall-Tracy Public Schools in Milroy (9-12), Minnesota",654.0,,72.0,,609.0,,70.0,,18.0,,12.0,,0.0,,9.0,,18.0,,16.0,,0.0,,9.0,,0.0,,9.0,,3.0,,3.0,,6.0,,6.0,,27,27005,18.0,18.35755975068582,3.0,9.486832980505138
3010170,"Fairfield High School District, Montana",2005.0,,178.0,,1933.0,,176.0,,0.0,,10.0,,0.0,,10.0,,9.0,,11.0,,0.0,,10.0,,0.0,,10.0,,63.0,,39.0,,0.0,,10.0,,30,10170,9.0,14.866068747318506,63.0,40.26164427839479
3010290,"Fairview High School District, Montana",1694.0,,177.0,,1577.0,,173.0,,0.0,,10.0,,9.0,,14.0,,0.0,,10.0,,0.0,,10.0,,29.0,,44.0,,7.0,,11.0,,72.0,,82.0,,30,10290,0.0,10.0,45.0,47.46577714522327
3010530,"Fergus High School District, Montana",8847.0,,286.0,,8296.0,,282.0,,8.0,,10.0,,70.0,,61.0,,117.0,,96.0,,72.0,,71.0,,0.0,,14.0,,69.0,,65.0,,215.0,,46.0,,30,10530,189.0,119.4026800369238,139.0,90.23303164584463
3011580,"Froid High School District, Montana",463.0,,108.0,,353.0,,85.0,,0.0,,10.0,,46.0,,31.0,,0.0,,10.0,,0.0,,10.0,,0.0,,10.0,,22.0,,19.0,,42.0,,59.0,,30,11580,0.0,10.0,68.0,37.70941526992961
3011190,"Forsyth High School District, Montana",2243.0,,224.0,,2146.0,,209.0,,0.0,,10.0,,36.0,,37.0,,2.0,,4.0,,0.0,,10.0,,0.0,,10.0,,7.0,,11.0,,52.0,,75.0,,30,11190,2.0,10.770329614269007,43.0,39.87480407475377
3011260,"Fort Benton High School District, Montana",2260.0,,172.0,,2166.0,,157.0,,0.0,,10.0,,7.0,,9.0,,18.0,,24.0,,0.0,,10.0,,0.0,,10.0,,38.0,,40.0,,31.0,,29.0,,30,11260,18.0,26.0,45.0,42.20189569201838
3011460,"Frazer High School District, Montana",608.0,,111.0,,215.0,,62.0,,4.0,,4.0,,342.0,,94.0,,10.0,,17.0,,0.0,,10.0,,0.0,,10.0,,11.0,,13.0,,26.0,,39.0,,30,11460,10.0,19.72308292331602,353.0,95.42012366372201
3011850,"Gardiner High School District, Montana",1421.0,,192.0,,1336.0,,192.0,,0.0,,10.0,,0.0,,10.0,,5.0,,8.0,,9.0,,14.0,,0.0,,10.0,,21.0,,19.0,,50.0,,33.0,,30,11850,14.0,16.1245154965971,21.0,21.470910553583888
3022260,"Reed Point High School District, Montana",611.0,,133.0,,515.0,,104.0,,8.0,,11.0,,16.0,,18.0,,0.0,,10.0,,0.0,,10.0,,0.0,,10.0,,16.0,,13.0,,56.0,,65.0,,30,22260,0.0,10.0,32.0,24.351591323771842
3000095,"Lame Deer High School District, Montana",5594.0,,355.0,,783.0,,147.0,,10.0,,11.0,,4496.0,,318.0,,47.0,,45.0,,0.0,,14.0,,0.0,,14.0,,77.0,,56.0,,181.0,,136.0,,30,00095,47.0,47.12748667179272,4573.0,323.1965346348874
3000097,"North Star High School District, Montana",950.0,,134.0,,919.0,,130.0,,0.0,,10.0,,2.0,,5.0,,0.0,,10.0,,0.0,,10.0,,0.0,,10.0,,23.0,,18.0,,6.0,,9.0,,30,00097,0.0,10.0,25.0,21.18962010041709
3000101,"Chester-Joplin-Inverness High School District, Montana",2368.0,,208.0,,2307.0,,210.0,,0.0,,10.0,,0.0,,10.0,,0.0,,10.0,,0.0,,10.0,,0.0,,10.0,,12.0,,14.0,,49.0,,32.0,,30,00101,0.0,10.0,12.0,17.204650534085253
3011880,"Garfield County High School District, Montana",1141.0,,114.0,,1139.0,,115.0,,0.0,,10.0,,0.0,,10.0,,0.0,,10.0,,0.0,,10.0,,0.0,,10.0,,0.0,,10.0,,2.0,,4.0,,30,11880,0.0,10.0,0.0,10.0
3012300,"Geyser High School District, Montana",371.0,,81.0,,342.0,,82.0,,0.0,,10.0,,0.0,,10.0,,0.0,,10.0,,0.0,,10.0,,0.0,,10.0,,5.0,,7.0,,24.0,,29.0,,30,12300,0.0,10.0,5.0,12.206555615733702
3012990,"Grass Range High School District, Montana",705.0,,177.0,,665.0,,171.0,,0.0,,10.0,,0.0,,10.0,,0.0,,10.0,,0.0,,10.0,,0.0,,10.0,,20.0,,29.0,,20.0,,30.0,,30,12990,0.0,10.0,20.0,30.675723300355934
3013050,"Great Falls High School District, Montana",72763.0,,474.0,,61463.0,,468.0,,996.0,,173.0,,3487.0,,254.0,,654.0,,145.0,,71.0,,38.0,,20.0,,26.0,,2578.0,,363.0,,3494.0,,36.0,,30,13050,725.0,149.8966310495336,6085.0,443.80288417269213
3013340,"Hardin High School District, Montana",8982.0,,300.0,,3086.0,,99.0,,6.0,,10.0,,4971.0,,342.0,,20.0,,27.0,,0.0,,14.0,,0.0,,14.0,,199.0,,164.0,,700.0,,100.0,,30,13340,20.0,30.4138126514911,5170.0,379.5470985266519
3013360,"Plenty Coups High School District, Montana",605.0,,135.0,,137.0,,40.0,,0.0,,10.0,,456.0,,121.0,,0.0,,10.0,,3.0,,5.0,,0.0,,10.0,,0.0,,10.0,,9.0,,15.0,,30,13360,3.0,11.180339887498949,456.0,121.41251994749142
3013400,"Harlem High School District, Montana",2828.0,,163.0,,700.0,,114.0,,7.0,,12.0,,1906.0,,133.0,,5.0,,6.0,,0.0,,10.0,,0.0,,10.0,,42.0,,30.0,,168.0,,41.0,,30,13400,5.0,11.661903789690601,1948.0,136.70771741200275
3013470,"Harlowton High School District, Montana",1936.0,,71.0,,1808.0,,86.0,,0.0,,10.0,,26.0,,27.0,,10.0,,11.0,,0.0,,10.0,,0.0,,10.0,,42.0,,35.0,,50.0,,45.0,,30,13470,10.0,14.866068747318506,68.0,45.32107677449864
3013590,"Havre High School District, Montana",12690.0,,213.0,,10224.0,,151.0,,14.0,,18.0,,1360.0,,213.0,,67.0,,46.0,,0.0,,16.0,,18.0,,28.0,,457.0,,169.0,,550.0,,33.0,,30,13590,67.0,48.703182647543684,1835.0,273.3386178350948
3013830,"Helena High School District, Montana",65285.0,,193.0,,59806.0,,184.0,,175.0,,82.0,,1116.0,,201.0,,417.0,,78.0,,44.0,,29.0,,17.0,,24.0,,1674.0,,232.0,,2036.0,,99.0,,30,13830,461.0,83.21658488546619,2807.0,307.8977102870367
3014370,"Hinsdale High School District, Montana",514.0,,151.0,,490.0,,148.0,,0.0,,10.0,,16.0,,13.0,,8.0,,18.0,,0.0,,10.0,,0.0,,10.0,,0.0,,10.0,,0.0,,10.0,,30,14370,8.0,20.591260281974,16.0,16.401219466856727
3015120,"Jefferson High School District, Montana",8118.0,,256.0,,7509.0,,232.0,,0.0,,14.0,,94.0,,61.0,,8.0,,10.0,,0.0,,14.0,,0.0,,14.0,,297.0,,91.0,,210.0,,53.0,,30,15120,8.0,17.204650534085253,391.0,110.4445562261898
3015260,"Joliet High School District, Montana",2436.0,,192.0,,2307.0,,186.0,,18.0,,17.0,,39.0,,33.0,,0.0,,10.0,,0.0,,10.0,,18.0,,21.0,,11.0,,12.0,,43.0,,56.0,,30,15260,0.0,10.0,68.0,40.91454509095757
3015390,"Judith Gap High School District, Montana",262.0,,93.0,,252.0,,91.0,,0.0,,10.0,,0.0,,10.0,,0.0,,10.0,,0.0,,10.0,,0.0,,10.0,,3.0,,4.0,,7.0,,11.0,,30,15390,0.0,10.0,3.0,10.770329614269007
3015420,"Flathead High School District, Montana",61476.0,,965.0,,56911.0,,958.0,,173.0,,87.0,,712.0,,232.0,,555.0,,152.0,,45.0,,30.0,,16.0,,22.0,,1139.0,,261.0,,1925.0,,256.0,,30,15420,600.0,154.9322432549145,1867.0,349.8985567275178
3016020,"Lambert High School District, Montana",223.0,,61.0,,223.0,,61.0,,0.0,,10.0,,0.0,,10.0,,0.0,,10.0,,0.0,,10.0,,0.0,,10.0,,0.0,,10.0,,0.0,,10.0,,30,16020,0.0,10.0,0.0,10.0
3016230,"Laurel High School District, Montana",11393.0,,568.0,,10754.0,,613.0,,98.0,,84.0,,69.0,,46.0,,0.0,,16.0,,0.0,,16.0,,0.0,,16.0,,190.0,,124.0,,282.0,,194.0,,30,16230,0.0,16.0,259.0,133.2216198670471
3016770,"Lincoln County High School District, Montana",6547.0,,547.0,,5990.0,,509.0,,6.0,,9.0,,57.0,,44.0,,22.0,,26.0,,0.0,,14.0,,5.0,,8.0,,211.0,,121.0,,256.0,,123.0,,30,16770,22.0,29.5296461204668,273.0,129.0
3017040,"Lodge Grass High School District, Montana",2011.0,,183.0,,292.0,,64.0,,0.0,,10.0,,1684.0,,184.0,,0.0,,10.0,,0.0,,10.0,,0.0,,10.0,,15.0,,11.0,,20.0,,21.0,,30,17040,0.0,10.0,1699.0,184.59956663004385
3017640,"Manhattan High School District, Montana",4957.0,,367.0,,4699.0,,360.0,,0.0,,10.0,,13.0,,20.0,,24.0,,27.0,,0.0,,10.0,,0.0,,10.0,,79.0,,78.0,,142.0,,82.0,,30,17640,24.0,28.792360097775937,92.0,81.14185110040317
3018270,"Melstone High School District, Montana",236.0,,79.0,,233.0,,77.0,,0.0,,10.0,,0.0,,10.0,,3.0,,7.0,,0.0,,10.0,,0.0,,10.0,,0.0,,10.0,,0.0,,10.0,,30,18270,3.0,12.206555615733702,0.0,10.0
3018540,"Missoula High School District, Montana",106270.0,,953.0,,95025.0,,909.0,,505.0,,152.0,,2038.0,,401.0,,1746.0,,243.0,,111.0,,103.0,,90.0,,91.0,,3160.0,,430.0,,3595.0,,78.0,,30,18540,1857.0,263.928020490436,5288.0,594.963864448926
3018900,"Moore High School District, Montana",524.0,,111.0,,523.0,,111.0,,0.0,,10.0,,1.0,,2.0,,0.0,,10.0,,0.0,,10.0,,0.0,,10.0,,0.0,,10.0,,0.0,,10.0,,30,18900,0.0,10.0,1.0,10.198039027185569
3019500,"Noxon High School District, Montana",2075.0,,311.0,,1937.0,,288.0,,9.0,,12.0,,34.0,,35.0,,23.0,,20.0,,0.0,,10.0,,0.0,,10.0,,44.0,,47.0,,28.0,,31.0,,30,19500,23.0,22.360679774997898,78.0,59.447455790807396
3020070,"Park City High School District, Montana",1945.0,,194.0,,1928.0,,192.0,,0.0,,10.0,,0.0,,10.0,,0.0,,10.0,,0.0,,10.0,,0.0,,10.0,,5.0,,8.0,,12.0,,18.0,,30,20070,0.0,10.0,5.0,12.806248474865697
3020100,"Park High School District, Montana",13396.0,,233.0,,12475.0,,238.0,,50.0,,47.0,,68.0,,47.0,,8.0,,11.0,,0.0,,16.0,,10.0,,17.0,,392.0,,76.0,,393.0,,47.0,,30,20100,8.0,19.4164878389476,470.0,90.96153033013462
3021090,"Polson High School District, Montana",11175.0,,422.0,,8459.0,,427.0,,20.0,,20.0,,1802.0,,402.0,,41.0,,50.0,,17.0,,25.0,,11.0,,20.0,,515.0,,271.0,,310.0,,104.0,,30,21090,58.0,55.90169943749474,2328.0,485.22675111745434
3021270,"Poplar High School District, Montana",3584.0,,340.0,,546.0,,107.0,,4.0,,6.0,,2903.0,,300.0,,0.0,,10.0,,0.0,,10.0,,0.0,,10.0,,80.0,,65.0,,51.0,,34.0,,30,21270,0.0,10.0,2983.0,307.1237535587243
3021450,"Powell County High School District, Montana",7086.0,,125.0,,6322.0,,82.0,,28.0,,19.0,,325.0,,118.0,,34.0,,42.0,,0.0,,14.0,,0.0,,14.0,,238.0,,72.0,,139.0,,44.0,,30,21450,34.0,44.27188724235731,563.0,138.93883546366726
3021540,"Power High School District, Montana",639.0,,82.0,,573.0,,75.0,,0.0,,10.0,,7.0,,9.0,,4.0,,10.0,,0.0,,10.0,,0.0,,10.0,,22.0,,13.0,,33.0,,25.0,,30,21540,4.0,14.142135623730951,29.0,18.708286933869708
3021900,"Rapelje High School District, Montana",271.0,,84.0,,264.0,,82.0,,0.0,,10.0,,7.0,,9.0,,0.0,,10.0,,0.0,,10.0,,0.0,,10.0,,0.0,,10.0,,0.0,,10.0,,30,21900,0.0,10.0,7.0,13.45362404707371
3022110,"Red Lodge High School District, Montana",3962.0,,274.0,,3720.0,,259.0,,23.0,,26.0,,17.0,,20.0,,16.0,,16.0,,0.0,,10.0,,0.0,,10.0,,50.0,,42.0,,136.0,,81.0,,30,22110,16.0,18.867962264113206,67.0,47.58150901348127
3022410,"Richey High School District, Montana",413.0,,86.0,,395.0,,83.0,,0.0,,10.0,,0.0,,10.0,,3.0,,5.0,,0.0,,10.0,,0.0,,10.0,,7.0,,13.0,,8.0,,10.0,,30,22410,3.0,11.180339887498949,7.0,16.401219466856727
3022800,"Ronan High School District, Montana",9010.0,,459.0,,4542.0,,292.0,,44.0,,29.0,,3237.0,,468.0,,44.0,,32.0,,0.0,,14.0,,0.0,,14.0,,602.0,,173.0,,541.0,,165.0,,30,22800,44.0,34.92849839314596,3839.0,499.1482745637813
3023070,"Roundup High School District, Montana",4515.0,,137.0,,4332.0,,137.0,,0.0,,10.0,,8.0,,7.0,,17.0,,24.0,,0.0,,10.0,,0.0,,10.0,,30.0,,22.0,,128.0,,52.0,,30,23070,17.0,26.0,38.0,25.15949125081825
3023400,"Saco High School District, Montana",471.0,,118.0,,456.0,,121.0,,0.0,,10.0,,10.0,,13.0,,0.0,,10.0,,0.0,,10.0,,0.0,,10.0,,5.0,,14.0,,0.0,,10.0,,30,23400,0.0,10.0,15.0,21.563858652847824
3023550,"Savage High School District, Montana",673.0,,146.0,,593.0,,145.0,,0.0,,10.0,,80.0,,61.0,,0.0,,10.0,,0.0,,10.0,,0.0,,10.0,,0.0,,10.0,,0.0,,10.0,,30,23550,0.0,10.0,80.0,61.814237842102365
3023910,"Shelby High School District, Montana",3949.0,,155.0,,3421.0,,125.0,,8.0,,11.0,,178.0,,62.0,,119.0,,100.0,,0.0,,10.0,,0.0,,10.0,,70.0,,61.0,,153.0,,31.0,,30,23910,119.0,100.4987562112089,248.0,87.54998572244315
3023970,"Shepherd High School District, Montana",4817.0,,358.0,,4516.0,,333.0,,0.0,,10.0,,114.0,,109.0,,3.0,,6.0,,0.0,,10.0,,0.0,,10.0,,83.0,,60.0,,101.0,,94.0,,30,23970,3.0,11.661903789690601,197.0,124.82387592123551
3024180,"Sheridan High School District, Montana",2178.0,,217.0,,2068.0,,198.0,,0.0,,10.0,,20.0,,23.0,,0.0,,10.0,,0.0,,10.0,,0.0,,10.0,,39.0,,35.0,,51.0,,56.0,,30,24180,0.0,10.0,59.0,43.05810028322197
3024230,"Sidney High School District, Montana",8770.0,,222.0,,7728.0,,218.0,,0.0,,14.0,,249.0,,165.0,,0.0,,14.0,,0.0,,14.0,,0.0,,14.0,,261.0,,157.0,,532.0,,82.0,,30,24230,0.0,14.0,510.0,228.1885185542866
3024330,"Simms High School District, Montana",2897.0,,311.0,,2661.0,,311.0,,13.0,,16.0,,75.0,,49.0,,17.0,,19.0,,0.0,,10.0,,0.0,,10.0,,119.0,,60.0,,12.0,,15.0,,30,24330,17.0,21.470910553583888,194.0,78.10889834071403
3025050,"Stevensville High School District, Montana",10270.0,,658.0,,9783.0,,653.0,,0.0,,16.0,,78.0,,81.0,,97.0,,109.0,,0.0,,16.0,,0.0,,16.0,,166.0,,131.0,,146.0,,123.0,,30,25050,97.0,110.16805344563369,244.0,154.84831287424478
3025140,"Centerville High School District, Montana",1632.0,,367.0,,1553.0,,368.0,,0.0,,10.0,,24.0,,26.0,,0.0,,10.0,,0.0,,10.0,,0.0,,10.0,,52.0,,53.0,,3.0,,4.0,,30,25140,0.0,10.0,76.0,59.87486951969081
3025560,"Sweet Grass County High School District, Montana",3529.0,,57.0,,3292.0,,87.0,,0.0,,10.0,,40.0,,44.0,,10.0,,10.0,,0.0,,10.0,,0.0,,10.0,,78.0,,45.0,,109.0,,66.0,,30,25560,10.0,14.142135623730951,118.0,63.72597586541927
3026100,"Thompson Falls High School District, Montana",4213.0,,418.0,,3912.0,,396.0,,0.0,,10.0,,33.0,,21.0,,6.0,,10.0,,0.0,,10.0,,0.0,,10.0,,116.0,,55.0,,146.0,,67.0,,30,26100,6.0,14.142135623730951,149.0,59.715994507334464
3026190,"Three Forks High School District, Montana",3387.0,,278.0,,3192.0,,284.0,,0.0,,10.0,,54.0,,56.0,,11.0,,17.0,,0.0,,10.0,,0.0,,10.0,,69.0,,56.0,,61.0,,73.0,,30,26190,11.0,19.72308292331602,123.0,79.82480817390042
3026580,"Troy High School District, Montana",3529.0,,454.0,,3286.0,,429.0,,5.0,,8.0,,27.0,,30.0,,26.0,,24.0,,0.0,,10.0,,0.0,,10.0,,132.0,,90.0,,53.0,,41.0,,30,26580,26.0,26.0,159.0,95.39392014169457
3026670,"Turner High School District, Montana",253.0,,73.0,,230.0,,64.0,,0.0,,10.0,,12.0,,18.0,,0.0,,10.0,,0.0,,10.0,,0.0,,10.0,,11.0,,18.0,,0.0,,10.0,,30,26670,0.0,10.0,23.0,27.349588662354687
3027090,"Valier High School District, Montana",1365.0,,149.0,,1113.0,,143.0,,0.0,,10.0,,189.0,,51.0,,0.0,,10.0,,0.0,,10.0,,0.0,,10.0,,27.0,,15.0,,36.0,,34.0,,30,27090,0.0,10.0,216.0,54.092513345194085
3027790,"Whitefish High School District, Montana",15327.0,,928.0,,14498.0,,865.0,,1.0,,2.0,,361.0,,336.0,,38.0,,44.0,,0.0,,16.0,,58.0,,91.0,,96.0,,71.0,,275.0,,178.0,,30,27790,38.0,46.8187996428785,515.0,355.27172699217147
3027840,"Whitehall High School District, Montana",4197.0,,331.0,,3915.0,,286.0,,26.0,,28.0,,80.0,,88.0,,0.0,,10.0,,0.0,,10.0,,1.0,,3.0,,100.0,,58.0,,75.0,,53.0,,30,27840,0.0,10.0,181.0,105.43718509140881
3028170,"Willow Creek High School District, Montana",306.0,,89.0,,306.0,,89.0,,0.0,,10.0,,0.0,,10.0,,0.0,,10.0,,0.0,,10.0,,0.0,,10.0,,0.0,,10.0,,0.0,,10.0,,30,28170,0.0,10.0,0.0,10.0
3028620,"Wolf Point High School District, Montana",5105.0,,401.0,,1732.0,,142.0,,26.0,,28.0,,2721.0,,341.0,,41.0,,34.0,,0.0,,14.0,,0.0,,14.0,,335.0,,91.0,,250.0,,87.0,,30,28620,41.0,36.76955262170047,3056.0,353.2109851066357
3028911,"Rocky Boy High School District, Montana",3302.0,,205.0,,40.0,,22.0,,26.0,,32.0,,3040.0,,202.0,,0.0,,10.0,,0.0,,10.0,,0.0,,10.0,,81.0,,56.0,,115.0,,40.0,,30,28911,0.0,10.0,3121.0,209.8570942331948
3099999,"Remainder of Montana, Montana",124640.0,,1773.0,,111531.0,,1686.0,,156.0,,98.0,,5393.0,,401.0,,593.0,,171.0,,80.0,,64.0,,7.0,,9.0,,2700.0,,364.0,,4180.0,,402.0,,30,99999,673.0,182.58422713914803,8100.0,541.6437943888955
3000933,"Shields Valley High School District, Montana",1619.0,,178.0,,1556.0,,176.0,,0.0,,10.0,,7.0,,8.0,,2.0,,4.0,,0.0,,10.0,,0.0,,10.0,,7.0,,12.0,,47.0,,31.0,,30,00933,2.0,10.770329614269007,14.0,17.549928774784245
3001740,"Absarokee High School District, Montana",2077.0,,181.0,,1959.0,,170.0,,2.0,,3.0,,54.0,,67.0,,0.0,,10.0,,0.0,,10.0,,0.0,,10.0,,3.0,,4.0,,59.0,,61.0,,30,01740,0.0,10.0,57.0,67.86015030929418
3002030,"Anaconda High School District, Montana",8875.0,,125.0,,8047.0,,82.0,,59.0,,50.0,,112.0,,63.0,,61.0,,67.0,,0.0,,14.0,,0.0,,14.0,,299.0,,96.0,,297.0,,20.0,,30,02030,61.0,68.4470598345904,411.0,115.67627241573788
3002250,"Arlee High School District, Montana",2809.0,,328.0,,1471.0,,210.0,,7.0,,10.0,,1000.0,,221.0,,0.0,,10.0,,0.0,,10.0,,0.0,,10.0,,196.0,,106.0,,135.0,,102.0,,30,02250,0.0,10.0,1196.0,245.31000794912546
3002450,"Augusta High School District, Montana",683.0,,153.0,,608.0,,131.0,,0.0,,10.0,,2.0,,4.0,,0.0,,10.0,,0.0,,10.0,,0.0,,10.0,,0.0,,10.0,,73.0,,85.0,,30,02450,0.0,10.0,2.0,10.770329614269007
3003090,"Beaverhead County High School District, Montana",9063.0,,86.0,,8237.0,,76.0,,6.0,,6.0,,234.0,,73.0,,43.0,,34.0,,13.0,,24.0,,0.0,,14.0,,117.0,,74.0,,413.0,,12.0,,30,03090,56.0,41.617304093369626,351.0,104.88565202161828
3003330,"Belgrade High School District, Montana",22326.0,,775.0,,20957.0,,857.0,,29.0,,40.0,,239.0,,203.0,,43.0,,48.0,,0.0,,18.0,,5.0,,8.0,,267.0,,157.0,,786.0,,342.0,,30,03330,43.0,51.264022471905186,511.0,256.75279940051286
3003450,"Belt High School District, Montana",1739.0,,231.0,,1625.0,,227.0,,0.0,,10.0,,38.0,,23.0,,0.0,,10.0,,0.0,,10.0,,0.0,,10.0,,49.0,,41.0,,27.0,,25.0,,30,03450,0.0,10.0,87.0,48.062459362791664
3003840,"Bigfork High School District, Montana",8420.0,,569.0,,7715.0,,537.0,,49.0,,57.0,,71.0,,49.0,,14.0,,20.0,,0.0,,14.0,,0.0,,14.0,,316.0,,163.0,,255.0,,136.0,,30,03840,14.0,24.413111231467404,387.0,170.78056095469412
3003900,"Billings High School District, Montana",136243.0,,794.0,,116377.0,,785.0,,802.0,,138.0,,6072.0,,485.0,,960.0,,209.0,,211.0,,40.0,,105.0,,103.0,,3590.0,,509.0,,8126.0,,228.0,,30,03900,1171.0,212.79332696304178,9767.0,710.5737118695006
3004500,"Box Elder High School District, Montana",567.0,,92.0,,199.0,,56.0,,0.0,,10.0,,351.0,,71.0,,0.0,,10.0,,0.0,,10.0,,0.0,,10.0,,5.0,,5.0,,12.0,,14.0,,30,04500,0.0,10.0,356.0,71.87489130426563
3004590,"Bozeman High School District, Montana",69674.0,,895.0,,63324.0,,973.0,,307.0,,98.0,,407.0,,161.0,,1341.0,,197.0,,11.0,,14.0,,10.0,,12.0,,1817.0,,286.0,,2457.0,,389.0,,30,04590,1352.0,197.4968354176846,2234.0,328.42198464780034
3004860,"Powder River County High School District, Montana",1651.0,,114.0,,1540.0,,113.0,,0.0,,10.0,,25.0,,20.0,,0.0,,10.0,,0.0,,10.0,,0.0,,10.0,,42.0,,26.0,,44.0,,4.0,,30,04860,0.0,10.0,67.0,34.292856398964496
3004920,"Broadview High School District, Montana",756.0,,134.0,,720.0,,121.0,,0.0,,10.0,,9.0,,10.0,,6.0,,11.0,,0.0,,10.0,,0.0,,10.0,,2.0,,6.0,,19.0,,23.0,,30,04920,6.0,14.866068747318506,11.0,15.362291495737216
3005040,"Brockton High School District, Montana",582.0,,130.0,,24.0,,16.0,,0.0,,10.0,,502.0,,128.0,,0.0,,10.0,,0.0,,10.0,,0.0,,10.0,,5.0,,9.0,,51.0,,39.0,,30,05040,0.0,10.0,507.0,128.70508925446578
3005190,"Browning High School District, Montana",9017.0,,298.0,,1374.0,,351.0,,6.0,,11.0,,7388.0,,273.0,,10.0,,9.0,,14.0,,17.0,,0.0,,14.0,,39.0,,31.0,,186.0,,138.0,,30,05190,24.0,19.235384061671343,7427.0,275.11088673478554
3005310,"Butte High School District, Montana",34710.0,,144.0,,31427.0,,79.0,,205.0,,47.0,,776.0,,229.0,,274.0,,92.0,,0.0,,21.0,,0.0,,21.0,,431.0,,236.0,,1597.0,,2.0,,30,05310,274.0,94.36630754670864,1207.0,329.51176003293114
3005610,"Carter County High School District, Montana",1286.0,,114.0,,1250.0,,113.0,,0.0,,10.0,,7.0,,7.0,,0.0,,10.0,,0.0,,10.0,,0.0,,10.0,,26.0,,19.0,,3.0,,4.0,,30,05610,0.0,10.0,33.0,22.58317958127243
3005910,"Cascade High School District, Montana",2715.0,,269.0,,2589.0,,259.0,,11.0,,13.0,,5.0,,6.0,,4.0,,8.0,,0.0,,10.0,,0.0,,10.0,,73.0,,51.0,,33.0,,22.0,,30,05910,4.0,12.806248474865697,78.0,52.316345438113316
3006115,"Charlo High School District, Montana",1704.0,,183.0,,1228.0,,127.0,,20.0,,24.0,,255.0,,60.0,,0.0,,10.0,,1.0,,3.0,,0.0,,10.0,,164.0,,96.0,,36.0,,23.0,,30,06115,1.0,10.44030650891055,419.0,113.64858116140297
3006270,"Chinook High School District, Montana",2226.0,,134.0,,2022.0,,129.0,,19.0,,27.0,,99.0,,56.0,,0.0,,10.0,,0.0,,10.0,,13.0,,19.0,,32.0,,28.0,,41.0,,31.0,,30,06270,0.0,10.0,144.0,65.42935121182236
3006330,"Choteau High School District, Montana",2912.0,,209.0,,2679.0,,203.0,,10.0,,22.0,,42.0,,21.0,,0.0,,10.0,,0.0,,10.0,,0.0,,10.0,,122.0,,46.0,,59.0,,26.0,,30,06330,0.0,10.0,164.0,51.54609587543949
3006810,"Circle High School District, Montana",1630.0,,118.0,,1531.0,,118.0,,0.0,,10.0,,30.0,,21.0,,6.0,,8.0,,0.0,,10.0,,0.0,,10.0,,4.0,,7.0,,59.0,,28.0,,30,06810,6.0,12.806248474865697,34.0,24.289915602982237
3007080,"Colstrip High School District, Montana",2711.0,,339.0,,1835.0,,219.0,,0.0,,10.0,,440.0,,233.0,,50.0,,42.0,,0.0,,10.0,,0.0,,10.0,,54.0,,44.0,,332.0,,135.0,,30,07080,50.0,43.174066289845804,494.0,237.32888572611637
3007140,"Columbia Falls High School District, Montana",15410.0,,719.0,,14376.0,,737.0,,73.0,,80.0,,311.0,,171.0,,17.0,,29.0,,0.0,,16.0,,53.0,,78.0,,300.0,,157.0,,280.0,,138.0,,30,07140,17.0,33.12099032335839,664.0,244.89589624981468
3007200,"Columbus High School District, Montana",4603.0,,252.0,,4145.0,,225.0,,18.0,,31.0,,20.0,,23.0,,20.0,,25.0,,0.0,,10.0,,0.0,,10.0,,155.0,,76.0,,245.0,,95.0,,30,07200,20.0,26.92582403567252,175.0,80.0312438988674
3007320,"Conrad High School District, Montana",3468.0,,161.0,,3312.0,,162.0,,25.0,,17.0,,36.0,,28.0,,0.0,,10.0,,0.0,,10.0,,0.0,,10.0,,53.0,,26.0,,42.0,,31.0,,30,07320,0.0,10.0,89.0,39.496835316262995
3007860,"Culbertson High School District, Montana",901.0,,160.0,,758.0,,121.0,,5.0,,8.0,,22.0,,19.0,,0.0,,10.0,,0.0,,10.0,,0.0,,10.0,,111.0,,90.0,,5.0,,6.0,,30,07860,0.0,10.0,133.0,92.52567211320326
3007930,"Custer County High School District, Montana",11845.0,,-555555555.0,*****,10909.0,,16.0,,68.0,,31.0,,180.0,,89.0,,34.0,,28.0,,4.0,,10.0,,0.0,,16.0,,259.0,,91.0,,391.0,,-555555555.0,*****,30,07930,38.0,29.732137494637012,439.0,128.28873683998918
3008190,"Cut Bank High School District, Montana",4682.0,,298.0,,2862.0,,351.0,,32.0,,24.0,,1443.0,,265.0,,6.0,,11.0,,0.0,,10.0,,0.0,,10.0,,123.0,,79.0,,216.0,,137.0,,30,08190,6.0,14.866068747318506,1566.0,276.70561974777456
3008340,"Dawson High School District, Montana",8778.0,,86.0,,8092.0,,83.0,,114.0,,86.0,,192.0,,68.0,,15.0,,23.0,,0.0,,14.0,,0.0,,14.0,,88.0,,67.0,,277.0,,10.0,,30,08340,15.0,26.92582403567252,280.0,96.48315915225828
3008850,"Denton High School District, Montana",450.0,,80.0,,413.0,,74.0,,9.0,,16.0,,10.0,,11.0,,0.0,,10.0,,0.0,,10.0,,0.0,,10.0,,6.0,,7.0,,12.0,,13.0,,30,08850,0.0,10.0,16.0,16.431676725154983
3009210,"Drummond High School District, Montana",1382.0,,167.0,,1349.0,,168.0,,5.0,,8.0,,9.0,,12.0,,2.0,,5.0,,0.0,,10.0,,0.0,,10.0,,3.0,,9.0,,14.0,,14.0,,30,09210,2.0,11.180339887498949,12.0,18.027756377319946
3300003,"John Stark Regional School District, New Hampshire",13961.0,,23.0,,13359.0,,275.0,,73.0,,46.0,,0.0,,18.0,,35.0,,35.0,,0.0,,18.0,,71.0,,114.0,,170.0,,158.0,,253.0,,165.0,,33,00003,35.0,39.35733730830886,241.0,195.66297554724042
3300017,"Exeter Regional Cooperative School District, New Hampshire",33492.0,,205.0,,31547.0,,439.0,,203.0,,100.0,,9.0,,14.0,,632.0,,237.0,,0.0,,24.0,,25.0,,22.0,,578.0,,177.0,,498.0,,195.0,,33,00017,632.0,238.2120903732638,612.0,178.91059219621403
3300049,"Prospect Mountain High School Joint Maintenance Agreement District, New Hampshire",9922.0,,29.0,,9456.0,,174.0,,22.0,,29.0,,111.0,,102.0,,92.0,,98.0,,0.0,,16.0,,15.0,,25.0,,55.0,,62.0,,171.0,,123.0,,33,00049,92.0,99.29753269845128,181.0,121.95490970026586
3302670,"Dresden School District, New Hampshire",11512.0,,51.0,,9019.0,,253.0,,332.0,,107.0,,51.0,,36.0,,1395.0,,217.0,,14.0,,14.0,,2.0,,4.0,,299.0,,99.0,,400.0,,104.0,,33,02670,1409.0,217.45114393812693,352.0,105.41821474489122
3303850,"Hollis-Brookline Cooperative School District, New Hampshire",13178.0,,43.0,,12262.0,,254.0,,34.0,,35.0,,0.0,,18.0,,245.0,,82.0,,0.0,,18.0,,52.0,,63.0,,301.0,,137.0,,284.0,,212.0,,33,03850,245.0,83.95236744726142,353.0,151.8617792599573
3305830,"Profile School District, New Hampshire",4503.0,,212.0,,4260.0,,231.0,,0.0,,11.0,,78.0,,103.0,,55.0,,46.0,,3.0,,7.0,,0.0,,11.0,,32.0,,27.0,,75.0,,50.0,,33,05830,58.0,46.52956049652737,110.0,107.04671877269288
3306260,"Souhegan Cooperative School District, New Hampshire",13843.0,,53.0,,13100.0,,260.0,,9.0,,16.0,,5.0,,8.0,,171.0,,102.0,,0.0,,18.0,,47.0,,63.0,,321.0,,151.0,,190.0,,118.0,,33,06260,171.0,103.57605900979242,373.0,163.8108665504215
3307230,"Winnacunnet Cooperative School District, New Hampshire",31109.0,,151.0,,29422.0,,352.0,,175.0,,141.0,,34.0,,56.0,,438.0,,163.0,,0.0,,24.0,,18.0,,30.0,,596.0,,198.0,,426.0,,197.0,,33,07230,438.0,164.7573974060042,648.0,207.9422996891205
3399965,"Pemi-Baker Regional School District, New Hampshire",19395.0,,471.0,,18147.0,,503.0,,154.0,,91.0,,18.0,,18.0,,237.0,,79.0,,14.0,,17.0,,10.0,,15.0,,546.0,,193.0,,269.0,,149.0,,33,99965,251.0,80.8084154033477,574.0,194.41707743920028
3399999,"Remainder of New Hampshire, New Hampshire",1192707.0,,518.0,,1073975.0,,1062.0,,16620.0,,713.0,,1532.0,,255.0,,32548.0,,816.0,,239.0,,91.0,,1083.0,,353.0,,20920.0,,996.0,,45790.0,,466.0,,33,99999,32787.0,821.0584632046612,23535.0,1087.0372578711367
3412260,"River Dell Regional School District, New Jersey",19664.0,,36.0,,13213.0,,577.0,,345.0,,266.0,,35.0,,35.0,,3630.0,,347.0,,0.0,,19.0,,187.0,,157.0,,490.0,,285.0,,1764.0,,301.0,,34,12260,3630.0,347.51978360950903,712.0,327.25983560467665
3412510,"Pascack Valley Regional School District, New Jersey",34625.0,,60.0,,27963.0,,673.0,,811.0,,376.0,,89.0,,57.0,,3038.0,,331.0,,0.0,,25.0,,0.0,,25.0,,532.0,,189.0,,2192.0,,558.0,,34,12510,3038.0,331.94276615103394,621.0,198.98492405204973
3412570,"Passaic Valley Regional School District, New Jersey",37776.0,,46.0,,26184.0,,1055.0,,1710.0,,512.0,,84.0,,101.0,,2133.0,,517.0,,7.0,,12.0,,65.0,,62.0,,974.0,,344.0,,6619.0,,948.0,,34,12570,2140.0,517.1392462383802,1123.0,363.84199867524916
3412600,"Passaic County Manchester Regional School District, New Jersey",22645.0,,40.0,,11471.0,,714.0,,2560.0,,511.0,,8.0,,17.0,,593.0,,227.0,,0.0,,22.0,,214.0,,209.0,,303.0,,167.0,,7496.0,,533.0,,34,12600,593.0,228.06358762415363,525.0,268.0652905543722
3413000,"Pinelands Regional School District, New Jersey",27324.0,,274.0,,24522.0,,510.0,,121.0,,89.0,,0.0,,22.0,,443.0,,332.0,,16.0,,28.0,,0.0,,22.0,,547.0,,207.0,,1675.0,,372.0,,34,13000,459.0,333.1786307673408,547.0,208.16579930430456
3413560,"Ramapo-Indian Hill Regional School District, New Jersey",40939.0,,40.0,,34896.0,,635.0,,469.0,,233.0,,7.0,,10.0,,2636.0,,474.0,,27.0,,32.0,,35.0,,36.0,,449.0,,182.0,,2420.0,,375.0,,34,13560,2663.0,475.0789408087881,491.0,185.79558659989746
3413620,"Rancocas Valley Regional School District, New Jersey",42565.0,,83.0,,26406.0,,775.0,,7995.0,,597.0,,41.0,,46.0,,2137.0,,412.0,,0.0,,25.0,,186.0,,132.0,,1655.0,,337.0,,4145.0,,723.0,,34,13620,2137.0,412.7577982303908,1882.0,364.84106128559597
3413750,"Red Bank Regional School District, New Jersey",22072.0,,54.0,,15823.0,,512.0,,926.0,,163.0,,0.0,,22.0,,482.0,,199.0,,14.0,,24.0,,0.0,,22.0,,117.0,,70.0,,4710.0,,454.0,,34,13750,496.0,200.44201156444225,117.0,73.37574531137656
3414400,"Rumson-Fair Haven Regional School District, New Jersey",12748.0,,23.0,,11764.0,,245.0,,231.0,,116.0,,0.0,,19.0,,167.0,,110.0,,0.0,,19.0,,0.0,,19.0,,99.0,,68.0,,487.0,,175.0,,34,14400,167.0,111.6288493177279,99.0,70.60453243241541
3414940,"Shore Regional School District, New Jersey",18240.0,,152.0,,16288.0,,416.0,,385.0,,148.0,,0.0,,19.0,,204.0,,141.0,,0.0,,19.0,,62.0,,34.0,,253.0,,123.0,,1048.0,,304.0,,34,14940,204.0,142.27438279606065,315.0,129.0193783894497
3415450,"Delsea Regional High School School District, New Jersey",20625.0,,48.0,,17017.0,,546.0,,1597.0,,302.0,,0.0,,22.0,,320.0,,214.0,,0.0,,22.0,,0.0,,22.0,,357.0,,202.0,,1334.0,,492.0,,34,15450,320.0,215.1278689523977,357.0,203.19448811422026
3415480,"Southern Regional School District, New Jersey",34338.0,,231.0,,31065.0,,827.0,,578.0,,568.0,,15.0,,25.0,,371.0,,236.0,,0.0,,25.0,,4.0,,6.0,,560.0,,262.0,,1745.0,,477.0,,34,15480,371.0,237.32045845227924,579.0,263.25842816517763
3416870,"Wallkill Valley Regional School District, New Jersey",18159.0,,144.0,,16240.0,,522.0,,450.0,,214.0,,0.0,,19.0,,293.0,,94.0,,0.0,,19.0,,0.0,,19.0,,69.0,,56.0,,1107.0,,391.0,,34,16870,293.0,95.90099061010788,69.0,59.135437767890075
3416970,"Warren Hills Regional School District, New Jersey",23425.0,,56.0,,19377.0,,525.0,,1002.0,,205.0,,28.0,,37.0,,882.0,,290.0,,0.0,,22.0,,0.0,,22.0,,228.0,,122.0,,1908.0,,412.0,,34,16970,882.0,290.83328557783756,256.0,129.3715579252256
3417220,"Watchung Hills Regional School District, New Jersey",30476.0,,41.0,,23703.0,,568.0,,251.0,,144.0,,0.0,,25.0,,4058.0,,360.0,,0.0,,25.0,,26.0,,32.0,,414.0,,145.0,,2024.0,,487.0,,34,17220,4058.0,360.86701151532264,440.0,150.5788829816452
3417460,"West Essex Regional School District, New Jersey",22075.0,,51.0,,19111.0,,545.0,,0.0,,22.0,,0.0,,22.0,,1375.0,,324.0,,0.0,,22.0,,18.0,,29.0,,278.0,,129.0,,1293.0,,392.0,,34,17460,1375.0,324.7460546334628,296.0,134.03730823916152
3417550,"West Morris Regional School District, New Jersey",38673.0,,128.0,,34020.0,,548.0,,414.0,,188.0,,6.0,,9.0,,1561.0,,308.0,,0.0,,25.0,,56.0,,56.0,,711.0,,214.0,,1905.0,,400.0,,34,17550,1561.0,309.01294471267704,773.0,221.38879827127658
3499999,"Remainder of New Jersey, New Jersey",7251905.0,,773.0,,3696562.0,,5096.0,,1043693.0,,3665.0,,7741.0,,724.0,,722978.0,,3237.0,,1659.0,,227.0,,34024.0,,2038.0,,119872.0,,3000.0,,1625376.0,,3393.0,,34,99999,724637.0,3244.9496144008153,161637.0,3698.3266486344874
3402880,"Sterling High School School District, New Jersey",16663.0,,40.0,,11168.0,,557.0,,2818.0,,430.0,,6.0,,9.0,,685.0,,201.0,,37.0,,53.0,,0.0,,19.0,,445.0,,202.0,,1504.0,,456.0,,34,02880,722.0,207.87015177749788,451.0,203.0911125578862
3401770,"Black Horse Pike Regional School District, New Jersey",83443.0,,86.0,,58997.0,,1324.0,,11348.0,,986.0,,62.0,,58.0,,3958.0,,610.0,,26.0,,43.0,,307.0,,279.0,,1796.0,,428.0,,6949.0,,1140.0,,34,01770,3984.0,611.5136956765564,2165.0,514.1877089157227
3402800,"Carlstadt-East Rutherford School District, New Jersey",15657.0,,46.0,,8953.0,,736.0,,529.0,,349.0,,0.0,,19.0,,2067.0,,438.0,,16.0,,28.0,,53.0,,86.0,,332.0,,167.0,,3707.0,,713.0,,34,02800,2083.0,438.8940646670903,385.0,188.8014830450227
3402910,"Central Regional School District, New Jersey",49365.0,,338.0,,42707.0,,928.0,,1041.0,,321.0,,28.0,,36.0,,738.0,,282.0,,103.0,,100.0,,84.0,,85.0,,558.0,,192.0,,4106.0,,799.0,,34,02910,841.0,299.20561492057595,670.0,213.03755537463343
3403210,"Clearview Regional School District, New Jersey",27922.0,,50.0,,25551.0,,475.0,,703.0,,220.0,,59.0,,84.0,,419.0,,231.0,,0.0,,22.0,,0.0,,22.0,,211.0,,150.0,,979.0,,372.0,,34,03210,419.0,232.04525420701884,270.0,173.32051234634636
3403620,"Cumberland Regional School District, New Jersey",23167.0,,237.0,,14034.0,,489.0,,4628.0,,418.0,,426.0,,115.0,,374.0,,159.0,,0.0,,22.0,,15.0,,13.0,,1187.0,,393.0,,2503.0,,286.0,,34,03620,374.0,160.51479682571323,1628.0,409.6864654830569
3403750,"Delaware Valley Regional School District, New Jersey",16297.0,,217.0,,15580.0,,310.0,,127.0,,108.0,,0.0,,19.0,,154.0,,88.0,,0.0,,19.0,,0.0,,19.0,,131.0,,122.0,,305.0,,156.0,,34,03750,154.0,90.02777349240623,131.0,123.47064428438041
3404380,"Eastern Camden County Regional School District, New Jersey",38987.0,,145.0,,27078.0,,733.0,,3092.0,,529.0,,125.0,,168.0,,5870.0,,434.0,,0.0,,25.0,,118.0,,152.0,,896.0,,317.0,,1808.0,,465.0,,34,04380,5870.0,434.7194497604173,1139.0,389.6370105623951
3405610,"Freehold Regional School District, New Jersey",192339.0,,178.0,,145002.0,,1613.0,,6944.0,,822.0,,281.0,,177.0,,16999.0,,927.0,,122.0,,95.0,,293.0,,167.0,,2608.0,,473.0,,20090.0,,1159.0,,34,05610,17121.0,931.8551389566943,3182.0,531.9276266561081
3405820,"Gateway Regional School District, New Jersey",12386.0,,80.0,,10711.0,,333.0,,449.0,,132.0,,0.0,,19.0,,208.0,,150.0,,0.0,,19.0,,27.0,,27.0,,257.0,,128.0,,734.0,,243.0,,34,05820,208.0,151.19854496654392,284.0,132.18925826253812
3406060,"Greater Egg Harbor Regional School District, New Jersey",72795.0,,59.0,,45570.0,,1376.0,,9142.0,,985.0,,148.0,,102.0,,6192.0,,716.0,,14.0,,23.0,,117.0,,155.0,,1869.0,,502.0,,9743.0,,962.0,,34,06060,6206.0,716.3693181592857,2134.0,535.1943572198795
3406660,"Hanover Park Regional School District, New Jersey",37183.0,,36.0,,27588.0,,813.0,,898.0,,346.0,,22.0,,21.0,,4918.0,,497.0,,0.0,,25.0,,7.0,,11.0,,348.0,,134.0,,3402.0,,594.0,,34,06660,4918.0,497.6283753967412,377.0,136.08085831592922
3407050,"Henry Hudson Regional School District, New Jersey",9107.0,,24.0,,8311.0,,288.0,,177.0,,154.0,,0.0,,17.0,,65.0,,68.0,,43.0,,64.0,,0.0,,17.0,,143.0,,185.0,,368.0,,162.0,,34,07050,108.0,93.38094023943002,143.0,185.77943912069495
3407140,"High Point Regional School District, New Jersey",21487.0,,215.0,,19372.0,,393.0,,166.0,,69.0,,10.0,,17.0,,360.0,,147.0,,0.0,,22.0,,19.0,,20.0,,242.0,,140.0,,1318.0,,352.0,,34,07140,360.0,148.6371420607918,271.0,142.43946082459033
3407590,"Hunterdon Central Regional School District, New Jersey",50929.0,,67.0,,42792.0,,540.0,,805.0,,212.0,,28.0,,34.0,,2646.0,,249.0,,21.0,,33.0,,24.0,,36.0,,526.0,,206.0,,4087.0,,406.0,,34,07590,2667.0,251.17722826721374,578.0,211.8678833613061
3408490,"Lenape Regional School District, New Jersey",139018.0,,299.0,,115216.0,,1058.0,,7161.0,,708.0,,54.0,,42.0,,7276.0,,608.0,,102.0,,106.0,,231.0,,130.0,,3056.0,,569.0,,5922.0,,760.0,,34,08490,7378.0,617.1709649683789,3341.0,585.1709152034131
3407980,"Kingsway Regional School District, New Jersey",28529.0,,34.0,,22327.0,,601.0,,2595.0,,340.0,,0.0,,22.0,,1237.0,,252.0,,18.0,,32.0,,0.0,,22.0,,569.0,,294.0,,1783.0,,342.0,,34,07980,1255.0,254.02362094891885,569.0,294.8219801846531
3408060,"Kittatinny Regional School District, New Jersey",13997.0,,182.0,,12793.0,,353.0,,84.0,,59.0,,0.0,,19.0,,154.0,,77.0,,0.0,,19.0,,23.0,,21.0,,174.0,,103.0,,769.0,,318.0,,34,08060,154.0,79.30952023559341,197.0,106.82228231974825
3408190,"Lakeland Regional School District, New Jersey",23965.0,,43.0,,19258.0,,618.0,,541.0,,195.0,,139.0,,95.0,,1101.0,,434.0,,0.0,,22.0,,41.0,,43.0,,462.0,,259.0,,2423.0,,532.0,,34,08190,1101.0,434.5572459411993,642.0,279.20422632904393
3408500,"Lenape Valley Regional School District, New Jersey",14596.0,,45.0,,12587.0,,368.0,,238.0,,149.0,,17.0,,28.0,,328.0,,131.0,,0.0,,19.0,,4.0,,8.0,,257.0,,116.0,,1165.0,,262.0,,34,08500,328.0,132.3706916201619,278.0,119.59933110180843
3409090,"Lower Cape May Regional School District, New Jersey",26432.0,,180.0,,23132.0,,595.0,,494.0,,161.0,,10.0,,20.0,,135.0,,113.0,,7.0,,12.0,,85.0,,80.0,,391.0,,176.0,,2178.0,,500.0,,34,09090,142.0,113.63538181394033,486.0,194.36048981210146
3409360,"Mainland Regional School District, New Jersey",25630.0,,61.0,,20183.0,,610.0,,1699.0,,405.0,,6.0,,8.0,,1256.0,,338.0,,0.0,,22.0,,30.0,,38.0,,324.0,,135.0,,2132.0,,428.0,,34,09360,1256.0,338.7152196167158,360.0,140.47419691886478
3409550,"North Warren Regional School District, New Jersey",12601.0,,172.0,,11054.0,,373.0,,145.0,,96.0,,20.0,,33.0,,174.0,,114.0,,0.0,,19.0,,0.0,,19.0,,250.0,,130.0,,958.0,,286.0,,34,09550,174.0,115.57248807566617,270.0,135.46217184144066
3410440,"Monmouth Regional School District, New Jersey",31022.0,,179.0,,21531.0,,880.0,,3081.0,,491.0,,2.0,,6.0,,2117.0,,512.0,,3.0,,6.0,,283.0,,363.0,,1097.0,,614.0,,2908.0,,532.0,,34,10440,2120.0,512.0351550430888,1382.0,713.3028809699285
3410740,"Morris Hills Regional School District, New Jersey",54384.0,,47.0,,39423.0,,954.0,,1508.0,,516.0,,0.0,,28.0,,3932.0,,586.0,,0.0,,28.0,,132.0,,117.0,,843.0,,312.0,,8546.0,,752.0,,34,10740,3932.0,586.6685606030035,975.0,334.39049029540297
3411610,"North Hunterdon-Voorhees Regional School District, New Jersey",49855.0,,249.0,,41876.0,,575.0,,2186.0,,241.0,,35.0,,37.0,,1924.0,,261.0,,20.0,,31.0,,20.0,,21.0,,572.0,,216.0,,3222.0,,404.0,,34,11610,1944.0,262.8345487183905,627.0,220.1499488984724
3411700,"Northern Burlington Regional School District, New Jersey",22492.0,,228.0,,15862.0,,685.0,,2378.0,,436.0,,13.0,,18.0,,2113.0,,457.0,,0.0,,22.0,,5.0,,11.0,,369.0,,211.0,,1752.0,,413.0,,34,11700,2113.0,457.5292340386568,387.0,212.0518804443856
3411730,"Northern Highlands Regional School District, New Jersey",15004.0,,41.0,,11237.0,,581.0,,394.0,,290.0,,0.0,,19.0,,1728.0,,412.0,,0.0,,19.0,,0.0,,19.0,,474.0,,267.0,,1171.0,,492.0,,34,11730,1728.0,412.43787410954394,474.0,267.67517628648346
3411760,"Northern Valley Regional School District, New Jersey",38319.0,,65.0,,24487.0,,648.0,,348.0,,178.0,,54.0,,64.0,,10515.0,,580.0,,0.0,,25.0,,86.0,,73.0,,589.0,,194.0,,2240.0,,504.0,,34,11760,10515.0,580.538543078752,729.0,216.9354742774911
3619020,"Bellmore-Merrick Central High School District, New York",68407.0,,1275.0,,57721.0,,1227.0,,1513.0,,411.0,,42.0,,56.0,,3208.0,,647.0,,0.0,,28.0,,113.0,,102.0,,734.0,,272.0,,5076.0,,683.0,,36,19020,3208.0,647.6055898461656,889.0,295.84455377782433
3626520,"Sewanhaka Central High School District, New York",126690.0,,2034.0,,55498.0,,1375.0,,24292.0,,1535.0,,292.0,,226.0,,20102.0,,1153.0,,82.0,,97.0,,1524.0,,598.0,,2937.0,,710.0,,21963.0,,1771.0,,36,26520,20184.0,1157.0730314029447,4753.0,955.3952061843308
3629520,"Valley Stream Central High School District, New York",62562.0,,1673.0,,21122.0,,991.0,,15073.0,,1730.0,,26.0,,35.0,,9476.0,,1034.0,,10.0,,14.0,,580.0,,273.0,,2185.0,,599.0,,14090.0,,1339.0,,36,29520,9486.0,1034.0947732195536,2791.0,659.2078579628735
3699999,"Remainder of New York, New York",19360794.0,,2313.0,,10825193.0,,3643.0,,2767801.0,,4970.0,,45779.0,,1427.0,,1583242.0,,4481.0,,5499.0,,669.0,,102815.0,,4251.0,,366006.0,,6015.0,,3664459.0,,1866.0,,36,99999,1588741.0,4530.664631155125,514600.0,7502.503248916324
4099001,"Frederick Public Schools in Davidson (9-12), Oklahoma",484.0,,103.0,,317.0,,84.0,,44.0,,29.0,,17.0,,19.0,,1.0,,3.0,,0.0,,9.0,,0.0,,9.0,,13.0,,11.0,,92.0,,48.0,,40,99001,1.0,9.486832980505138,30.0,23.727621035409346
4040001,"Secondary Coverage Area in White Oak Public Schools (9-12), Oklahoma",832.0,,90.0,,452.0,,69.0,,4.0,,8.0,,326.0,,61.0,,3.0,,4.0,,3.0,,5.0,,0.0,,9.0,,34.0,,21.0,,10.0,,12.0,,40,40001,6.0,6.4031242374328485,360.0,65.13831437794502
4099999,"Remainder of Oklahoma, Oklahoma",3916821.0,,136.0,,2585341.0,,647.0,,282574.0,,1724.0,,280295.0,,2630.0,,82314.0,,1093.0,,3979.0,,513.0,,4790.0,,572.0,,270109.0,,3710.0,,407419.0,,71.0,,40,99999,86293.0,1207.4013417252775,555194.0,4583.468555581024
4103630,"Harney County Union High School District 1J, Oregon",1314.0,,181.0,,1122.0,,148.0,,3.0,,6.0,,23.0,,24.0,,0.0,,12.0,,0.0,,12.0,,2.0,,5.0,,47.0,,45.0,,117.0,,71.0,,41,03630,0.0,12.0,72.0,51.24451190127583
4199999,"Remainder of Oregon, Oregon",4080629.0,,181.0,,3102435.0,,1175.0,,74353.0,,1403.0,,36753.0,,1496.0,,172505.0,,1873.0,,15301.0,,597.0,,6408.0,,1117.0,,149035.0,,2809.0,,523839.0,,71.0,,41,99999,187806.0,1965.8428217942553,192196.0,3372.8602105631358
4400420,"Foster-Glocester Regional School District, Rhode Island",14751.0,,31.0,,13852.0,,298.0,,67.0,,59.0,,9.0,,15.0,,132.0,,91.0,,0.0,,20.0,,9.0,,15.0,,331.0,,178.0,,351.0,,202.0,,44,00420,132.0,93.17188417113823,349.0,179.2595883070136
4499999,"Remainder of Rhode Island, Rhode Island",1041860.0,,31.0,,753875.0,,829.0,,58934.0,,1184.0,,3699.0,,535.0,,34996.0,,860.0,,684.0,,274.0,,7081.0,,997.0,,24084.0,,1306.0,,158507.0,,202.0,,44,99999,35680.0,902.5940394219319,34864.0,1727.967013574044
4545013,"Beaufort County School District within Beaufort Marine Corps Air Station, South Carolina",765.0,,228.0,,381.0,,145.0,,114.0,,57.0,,0.0,,12.0,,17.0,,22.0,,6.0,,11.0,,0.0,,12.0,,50.0,,74.0,,197.0,,86.0,,45,45013,23.0,24.596747752497688,50.0,74.96665925596525
4545079,"Richland County School District 2 within Fort Jackson, South Carolina",16240.0,,835.0,,7714.0,,597.0,,4247.0,,582.0,,13.0,,26.0,,299.0,,121.0,,121.0,,105.0,,10.0,,20.0,,870.0,,186.0,,2966.0,,485.0,,45,45079,420.0,160.20611723651504,893.0,188.87032588524858
4599999,"Remainder of South Carolina, South Carolina",4938920.0,,852.0,,3148878.0,,1010.0,,1323991.0,,2744.0,,14174.0,,682.0,,73962.0,,1245.0,,2685.0,,477.0,,8574.0,,1200.0,,94134.0,,3163.0,,272522.0,,495.0,,45,99999,76647.0,1333.249414025748,116882.0,3451.042306318484
4747002,"Arlington Community Schools in Lakeland (9-12), Tennessee",10309.0,,486.0,,8205.0,,651.0,,1314.0,,423.0,,0.0,,19.0,,179.0,,166.0,,0.0,,19.0,,0.0,,19.0,,173.0,,124.0,,438.0,,259.0,,47,47002,179.0,167.08381130438698,173.0,125.44720004846661
4747001,"Anderson County School District in Clinton, Tennessee",9908.0,,24.0,,9306.0,,254.0,,276.0,,205.0,,0.0,,17.0,,23.0,,26.0,,0.0,,17.0,,0.0,,17.0,,173.0,,124.0,,130.0,,110.0,,47,47001,23.0,31.064449134018133,173.0,125.15989773086265
4747029,"Cocke County School District in Newport, Tennessee",6757.0,,22.0,,6136.0,,299.0,,269.0,,190.0,,25.0,,33.0,,0.0,,17.0,,0.0,,17.0,,0.0,,17.0,,83.0,,123.0,,244.0,,187.0,,47,47029,0.0,17.0,108.0,128.47957036042735
4747031,"Coffee County School District in Manchester, Tennessee",10537.0,,27.0,,8634.0,,404.0,,403.0,,198.0,,33.0,,41.0,,84.0,,60.0,,7.0,,11.0,,0.0,,19.0,,628.0,,241.0,,748.0,,333.0,,47,47031,91.0,61.0,661.0,245.19991843391793
4747033,"Crockett County School District in Alamo, Tennessee",3910.0,,366.0,,2907.0,,289.0,,529.0,,146.0,,0.0,,12.0,,0.0,,12.0,,0.0,,12.0,,16.0,,24.0,,45.0,,35.0,,413.0,,204.0,,47,47033,0.0,12.0,61.0,44.10215414239989
4747034,"Crockett County School District in Bells, Tennessee",3923.0,,303.0,,2462.0,,275.0,,659.0,,143.0,,15.0,,21.0,,42.0,,42.0,,0.0,,12.0,,0.0,,12.0,,83.0,,76.0,,662.0,,201.0,,47,47034,42.0,43.68065933568311,98.0,79.75587752636166
4747073,"Hawkins County School District in Rogersville, Tennessee",4341.0,,22.0,,4203.0,,93.0,,100.0,,81.0,,21.0,,28.0,,0.0,,12.0,,0.0,,12.0,,0.0,,12.0,,17.0,,22.0,,0.0,,12.0,,47,47073,0.0,12.0,38.0,37.57658845611187
4747077,"Henderson County School District in Lexington, Tennessee",7735.0,,26.0,,6133.0,,358.0,,1124.0,,286.0,,0.0,,17.0,,44.0,,55.0,,28.0,,40.0,,0.0,,17.0,,123.0,,100.0,,283.0,,215.0,,47,47077,72.0,68.00735254367721,123.0,101.43470806385751
4747079,"Henry County School District in Paris, Tennessee",12051.0,,407.0,,9156.0,,385.0,,2375.0,,134.0,,32.0,,51.0,,57.0,,58.0,,0.0,,19.0,,0.0,,19.0,,265.0,,126.0,,166.0,,94.0,,47,47079,57.0,61.032778078668514,297.0,137.2515937976678
4747107,"McMinn County School District in Athens, Tennessee",13752.0,,26.0,,11195.0,,412.0,,1318.0,,296.0,,79.0,,66.0,,178.0,,106.0,,0.0,,19.0,,14.0,,24.0,,317.0,,137.0,,651.0,,262.0,,47,47107,178.0,107.68936809174804,410.0,153.95129099815955
4747108,"McMinn County School District in Etowah, Tennessee",3474.0,,27.0,,3197.0,,197.0,,36.0,,42.0,,0.0,,12.0,,0.0,,12.0,,0.0,,12.0,,0.0,,12.0,,55.0,,69.0,,186.0,,216.0,,47,47108,0.0,12.0,55.0,70.03570517957252
4747123,"Monroe County School District in Sweetwater, Tennessee",11725.0,,707.0,,10599.0,,749.0,,540.0,,205.0,,45.0,,76.0,,123.0,,112.0,,0.0,,19.0,,0.0,,19.0,,204.0,,135.0,,214.0,,222.0,,47,47123,123.0,113.6001760562016,249.0,156.0833110873805
4747143,"Rhea County School District in Dayton, Tennessee",7340.0,,29.0,,6042.0,,308.0,,427.0,,153.0,,0.0,,17.0,,60.0,,59.0,,0.0,,17.0,,0.0,,17.0,,310.0,,165.0,,501.0,,204.0,,47,47143,60.0,61.40032573203501,310.0,165.873445734994
4747149,"Rutherford County School District in Murfreesboro, Tennessee",130972.0,,154.0,,88131.0,,1439.0,,24368.0,,1033.0,,180.0,,178.0,,4764.0,,597.0,,0.0,,29.0,,34.0,,33.0,,4766.0,,842.0,,8729.0,,839.0,,47,47149,4764.0,597.7039400907443,4980.0,861.2415456769372
4747187,"Williamson County School District in Franklin, Tennessee",39025.0,,1098.0,,27985.0,,1041.0,,3760.0,,478.0,,1.0,,9.0,,1878.0,,403.0,,0.0,,26.0,,88.0,,99.0,,928.0,,308.0,,4385.0,,550.0,,47,47187,1878.0,403.83783874223576,1017.0,323.6448670997271
4747189,"Wilson County School District in Lebanon, Tennessee",33907.0,,985.0,,26016.0,,1100.0,,3988.0,,527.0,,101.0,,95.0,,688.0,,252.0,,19.0,,29.0,,18.0,,24.0,,695.0,,257.0,,2382.0,,479.0,,47,47189,707.0,253.6631624812716,814.0,275.04545078950133
4799999,"Remainder of Tennessee, Tennessee",6341423.0,,1811.0,,4693838.0,,2905.0,,1065732.0,,3106.0,,14640.0,,996.0,,103895.0,,1645.0,,3264.0,,485.0,,9516.0,,1270.0,,118268.0,,3650.0,,332270.0,,1328.0,,47,99999,107159.0,1715.0072886142495,142424.0,3990.9166866773853
4848285,"Hallettsville Independent School District (9-12) in Vysehrad, Texas",832.0,,179.0,,696.0,,128.0,,28.0,,22.0,,0.0,,13.0,,0.0,,13.0,,0.0,,13.0,,0.0,,13.0,,10.0,,13.0,,98.0,,107.0,,48,48285,0.0,13.0,10.0,18.384776310850235
4899999,"Remainder of Texas, Texas",27882136.0,,362.0,,11805158.0,,2639.0,,3269212.0,,5878.0,,68452.0,,1809.0,,1292813.0,,4791.0,,20381.0,,1009.0,,42354.0,,3075.0,,463105.0,,7832.0,,10920661.0,,316.0,,48,99999,1313194.0,4896.096608523978,573911.0,8606.295951220827
4848449,"Mount Pleasant Independent School District (9-12) in Winfield, Texas",1068.0,,234.0,,412.0,,121.0,,13.0,,25.0,,0.0,,13.0,,0.0,,13.0,,0.0,,13.0,,0.0,,13.0,,0.0,,13.0,,643.0,,212.0,,48,48449,0.0,13.0,0.0,13.0
4848143,"Stephenville Independent School District (9-12) in Bluff Dale, Texas",1159.0,,229.0,,997.0,,184.0,,0.0,,13.0,,0.0,,13.0,,0.0,,13.0,,0.0,,13.0,,0.0,,13.0,,8.0,,12.0,,154.0,,151.0,,48,48143,0.0,13.0,8.0,17.69180601295413
5000006,"Essex Community Education Center, Vermont",21225.0,,52.0,,18578.0,,554.0,,518.0,,274.0,,20.0,,32.0,,1132.0,,406.0,,0.0,,17.0,,23.0,,36.0,,355.0,,187.0,,599.0,,205.0,,50,00006,1132.0,406.3557554655772,398.0,193.1035991378721
5099999,"Remainder of Vermont, Vermont",603752.0,,52.0,,562445.0,,586.0,,7084.0,,473.0,,1847.0,,271.0,,9409.0,,472.0,,170.0,,68.0,,875.0,,255.0,,10844.0,,626.0,,11078.0,,205.0,,50,99999,9579.0,476.8731487513215,13566.0,728.2458376125469
5507650,"Lake Geneva-Genoa City Union High School District, Wisconsin",24470.0,,538.0,,20497.0,,665.0,,89.0,,49.0,,42.0,,32.0,,247.0,,135.0,,3.0,,6.0,,0.0,,16.0,,492.0,,141.0,,3100.0,,428.0,,55,07650,250.0,135.1332675546625,534.0,145.46820958546235
5509630,"Lakeland Union High School District, Wisconsin",17876.0,,356.0,,14944.0,,335.0,,63.0,,44.0,,1796.0,,218.0,,80.0,,65.0,,16.0,,15.0,,12.0,,16.0,,581.0,,269.0,,384.0,,104.0,,55,09630,96.0,66.70832032063167,2389.0,346.6136177359453
5513290,"Westosha Central High School District, Wisconsin",20687.0,,643.0,,18689.0,,702.0,,312.0,,168.0,,0.0,,16.0,,261.0,,151.0,,0.0,,16.0,,8.0,,13.0,,402.0,,240.0,,1015.0,,268.0,,55,13290,261.0,151.8453160291749,410.0,240.8837894089181
5515150,"Union Grove Union High School District, Wisconsin",13562.0,,339.0,,12342.0,,399.0,,244.0,,103.0,,23.0,,16.0,,37.0,,150.0,,0.0,,14.0,,0.0,,14.0,,267.0,,163.0,,649.0,,239.0,,55,15150,37.0,150.65191668213185,290.0,164.38065579623412
5515480,"Big Foot Union High School District, Wisconsin",9448.0,,360.0,,7875.0,,376.0,,35.0,,23.0,,15.0,,17.0,,29.0,,25.0,,0.0,,12.0,,0.0,,12.0,,91.0,,44.0,,1403.0,,264.0,,55,15480,29.0,27.730849247724095,106.0,48.67237409455183
5515600,"Waterford Union High School District, Wisconsin",18727.0,,412.0,,17817.0,,458.0,,31.0,,32.0,,16.0,,22.0,,68.0,,64.0,,0.0,,14.0,,17.0,,26.0,,118.0,,89.0,,660.0,,285.0,,55,15600,68.0,65.5133574166368,151.0,95.29428104561154
5516770,"Wilmot Union High School District, Wisconsin",19030.0,,494.0,,17920.0,,603.0,,35.0,,28.0,,42.0,,41.0,,47.0,,41.0,,26.0,,29.0,,0.0,,14.0,,145.0,,76.0,,815.0,,251.0,,55,16770,73.0,50.21951811795888,187.0,87.48142660016468
5599999,"Remainder of Wisconsin, Wisconsin",5561452.0,,1128.0,,4517725.0,,1729.0,,358180.0,,2134.0,,43953.0,,1085.0,,154915.0,,1310.0,,1619.0,,394.0,,4672.0,,698.0,,105475.0,,2707.0,,374913.0,,884.0,,55,99999,156534.0,1367.967835879192,154100.0,2998.712723820006
5505490,"Nicolet Union High School District, Wisconsin",25627.0,,60.0,,20073.0,,496.0,,2433.0,,289.0,,76.0,,46.0,,1574.0,,319.0,,0.0,,16.0,,15.0,,17.0,,568.0,,179.0,,888.0,,264.0,,55,05490,1574.0,319.4010018769509,659.0,185.5963361707337
5506120,"Hartford Union High School District, Wisconsin",32925.0,,547.0,,30544.0,,635.0,,413.0,,201.0,,121.0,,76.0,,389.0,,191.0,,0.0,,18.0,,80.0,,110.0,,420.0,,129.0,,958.0,,262.0,,55,06120,389.0,191.84629264074925,621.0,185.78751303572585
5506180,"Arrowhead Union High School District, Wisconsin",34590.0,,615.0,,32612.0,,689.0,,74.0,,50.0,,65.0,,53.0,,551.0,,203.0,,12.0,,17.0,,3.0,,4.0,,279.0,,96.0,,994.0,,317.0,,55,06180,563.0,203.71057900855322,347.0,109.73149046650191
